{
 "type": "FeatureCollection",
 "features": [
  {
   "type": "Feature",
   "geometry": {
    "type": "Point",
    "coordinates": [
     111.288826,
     30.692108
    ]
   },
   "properties": {
    "类型": "不达标步行道",
    "问题描述": "不达标的步行道长度（千米）",
    "来源": "2025体检"
   }
  },
  {
   "type": "Feature",
   "geometry": {
    "type": "Point",
    "coordinates": [
     111.293781,
     30.725716
    ]
   },
   "properties": {
    "类型": "不达标步行道",
    "问题描述": "不达标的步行道长度（千米）",
    "来源": "2025体检"
   }
  },
  {
   "type": "Feature",
   "geometry": {
    "type": "Point",
    "coordinates": [
     111.296196,
     30.734839
    ]
   },
   "properties": {
    "类型": "不达标步行道",
    "问题描述": "不达标的步行道长度（千米）",
    "来源": "2025体检"
   }
  },
  {
   "type": "Feature",
   "geometry": {
    "type": "Point",
    "coordinates": [
     111.292172,
     30.727385
    ]
   },
   "properties": {
    "类型": "不达标步行道",
    "问题描述": "不达标的步行道长度（千米）",
    "来源": "2025体检"
   }
  },
  {
   "type": "Feature",
   "geometry": {
    "type": "Point",
    "coordinates": [
     111.27621,
     30.729025
    ]
   },
   "properties": {
    "类型": "不达标步行道",
    "问题描述": "不达标的步行道长度（千米）",
    "来源": "2025体检"
   }
  },
  {
   "type": "Feature",
   "geometry": {
    "type": "Point",
    "coordinates": [
     111.307838,
     30.702262
    ]
   },
   "properties": {
    "类型": "不达标步行道",
    "问题描述": "不达标的步行道长度（千米）",
    "来源": "2025体检"
   }
  },
  {
   "type": "Feature",
   "geometry": {
    "type": "Point",
    "coordinates": [
     111.297536,
     30.705377
    ]
   },
   "properties": {
    "类型": "不达标步行道",
    "问题描述": "不达标的步行道长度（千米）",
    "来源": "2025体检"
   }
  },
  {
   "type": "Feature",
   "geometry": {
    "type": "Point",
    "coordinates": [
     111.290042,
     30.718507
    ]
   },
   "properties": {
    "类型": "不达标步行道",
    "问题描述": "不达标的步行道长度（千米）",
    "来源": "2025体检"
   }
  },
  {
   "type": "Feature",
   "geometry": {
    "type": "Point",
    "coordinates": [
     111.287817,
     30.692548
    ]
   },
   "properties": {
    "类型": "不达标步行道",
    "问题描述": "不达标的步行道长度（千米）",
    "来源": "2025体检"
   }
  },
  {
   "type": "Feature",
   "geometry": {
    "type": "Point",
    "coordinates": [
     111.287253,
     30.707905
    ]
   },
   "properties": {
    "类型": "不达标步行道",
    "问题描述": "不达标的步行道长度（千米）",
    "来源": "2025体检"
   }
  },
  {
   "type": "Feature",
   "geometry": {
    "type": "Point",
    "coordinates": [
     111.278072,
     30.729168
    ]
   },
   "properties": {
    "类型": "不达标步行道",
    "问题描述": "不达标的步行道长度（千米）",
    "来源": "2025体检"
   }
  },
  {
   "type": "Feature",
   "geometry": {
    "type": "Point",
    "coordinates": [
     111.300258,
     30.706491
    ]
   },
   "properties": {
    "类型": "不达标步行道",
    "问题描述": "不达标的步行道长度（千米）",
    "来源": "2025体检"
   }
  },
  {
   "type": "Feature",
   "geometry": {
    "type": "Point",
    "coordinates": [
     111.289093,
     30.738541
    ]
   },
   "properties": {
    "类型": "不达标步行道",
    "问题描述": "不达标的步行道长度（千米）",
    "来源": "2025体检"
   }
  },
  {
   "type": "Feature",
   "geometry": {
    "type": "Point",
    "coordinates": [
     111.276497,
     30.711097
    ]
   },
   "properties": {
    "类型": "不达标步行道",
    "问题描述": "不达标的步行道长度（千米）",
    "来源": "2025体检"
   }
  },
  {
   "type": "Feature",
   "geometry": {
    "type": "Point",
    "coordinates": [
     111.29416,
     30.728932
    ]
   },
   "properties": {
    "类型": "不达标步行道",
    "问题描述": "不达标的步行道长度（千米）",
    "来源": "2025体检"
   }
  },
  {
   "type": "Feature",
   "geometry": {
    "type": "Point",
    "coordinates": [
     111.308457,
     30.704208
    ]
   },
   "properties": {
    "类型": "不达标步行道",
    "问题描述": "不达标的步行道长度（千米）",
    "来源": "2025体检"
   }
  },
  {
   "type": "Feature",
   "geometry": {
    "type": "Point",
    "coordinates": [
     111.354307,
     30.651865
    ]
   },
   "properties": {
    "类型": "不达标步行道",
    "问题描述": "不达标的步行道长度（千米）",
    "来源": "2025体检"
   }
  },
  {
   "type": "Feature",
   "geometry": {
    "type": "Point",
    "coordinates": [
     111.29549,
     30.727942
    ]
   },
   "properties": {
    "类型": "不达标步行道",
    "问题描述": "不达标的步行道长度（千米）",
    "来源": "2025体检"
   }
  },
  {
   "type": "Feature",
   "geometry": {
    "type": "Point",
    "coordinates": [
     111.292344,
     30.723835
    ]
   },
   "properties": {
    "类型": "不达标步行道",
    "问题描述": "不达标的步行道长度（千米）",
    "来源": "2025体检"
   }
  },
  {
   "type": "Feature",
   "geometry": {
    "type": "Point",
    "coordinates": [
     111.354609,
     30.650614
    ]
   },
   "properties": {
    "类型": "不达标步行道",
    "问题描述": "不达标的步行道长度（千米）",
    "来源": "2025体检"
   }
  },
  {
   "type": "Feature",
   "geometry": {
    "type": "Point",
    "coordinates": [
     111.279346,
     30.728679
    ]
   },
   "properties": {
    "类型": "不达标步行道",
    "问题描述": "不达标的步行道长度（千米）",
    "来源": "2025体检"
   }
  },
  {
   "type": "Feature",
   "geometry": {
    "type": "Point",
    "coordinates": [
     111.293109,
     30.699708
    ]
   },
   "properties": {
    "类型": "不达标步行道",
    "问题描述": "不达标的步行道长度（千米）",
    "来源": "2025体检"
   }
  },
  {
   "type": "Feature",
   "geometry": {
    "type": "Point",
    "coordinates": [
     111.288664,
     30.691223
    ]
   },
   "properties": {
    "类型": "不达标步行道",
    "问题描述": "不达标的步行道长度（千米）",
    "来源": "2025体检"
   }
  },
  {
   "type": "Feature",
   "geometry": {
    "type": "Point",
    "coordinates": [
     111.290929,
     30.69517
    ]
   },
   "properties": {
    "类型": "不达标步行道",
    "问题描述": "不达标的步行道长度（千米）",
    "来源": "2025体检"
   }
  },
  {
   "type": "Feature",
   "properties": {
    "类型": "不达标步行道",
    "问题描述": "不达标的步行道长度（千米）",
    "来源": "2026补充"
   },
   "geometry": {
    "type": "Point",
    "coordinates": [
     111.31776317000003,
     30.767662820000055
    ]
   }
  },
  {
   "type": "Feature",
   "properties": {
    "类型": "不达标步行道",
    "问题描述": "不达标的步行道长度（千米）",
    "来源": "2026补充"
   },
   "geometry": {
    "type": "Point",
    "coordinates": [
     111.41253727300005,
     30.529239284000028
    ]
   }
  },
  {
   "type": "Feature",
   "properties": {
    "类型": "不达标步行道",
    "问题描述": "不达标的步行道长度（千米）",
    "来源": "2026补充"
   },
   "geometry": {
    "type": "Point",
    "coordinates": [
     111.39825536100005,
     30.567503428000066
    ]
   }
  },
  {
   "type": "Feature",
   "properties": {
    "类型": "不达标步行道",
    "问题描述": "不达标的步行道长度（千米）",
    "来源": "2026补充"
   },
   "geometry": {
    "type": "Point",
    "coordinates": [
     111.44527761800003,
     30.55277929500005
    ]
   }
  },
  {
   "type": "Feature",
   "properties": {
    "类型": "不达标步行道",
    "问题描述": "不达标的步行道长度（千米）",
    "来源": "2026补充"
   },
   "geometry": {
    "type": "Point",
    "coordinates": [
     111.41383194300005,
     30.58866220500005
    ]
   }
  },
  {
   "type": "Feature",
   "properties": {
    "类型": "不达标步行道",
    "问题描述": "不达标的步行道长度（千米）",
    "来源": "2026补充"
   },
   "geometry": {
    "type": "Point",
    "coordinates": [
     111.27477589400007,
     30.68031059100008
    ]
   }
  },
  {
   "type": "Feature",
   "properties": {
    "类型": "不达标步行道",
    "问题描述": "不达标的步行道长度（千米）",
    "来源": "2026补充"
   },
   "geometry": {
    "type": "Point",
    "coordinates": [
     111.26927697800005,
     30.67788564700004
    ]
   }
  },
  {
   "type": "Feature",
   "properties": {
    "类型": "不达标步行道",
    "问题描述": "不达标的步行道长度（千米）",
    "来源": "2026补充"
   },
   "geometry": {
    "type": "Point",
    "coordinates": [
     111.26292856200007,
     30.675691404000077
    ]
   }
  },
  {
   "type": "Feature",
   "properties": {
    "类型": "不达标步行道",
    "问题描述": "不达标的步行道长度（千米）",
    "来源": "2026补充"
   },
   "geometry": {
    "type": "Point",
    "coordinates": [
     111.25951951600007,
     30.738484550000067
    ]
   }
  },
  {
   "type": "Feature",
   "properties": {
    "类型": "不达标步行道",
    "问题描述": "不达标的步行道长度（千米）",
    "来源": "2026补充"
   },
   "geometry": {
    "type": "Point",
    "coordinates": [
     111.25546876000004,
     30.737585787000057
    ]
   }
  },
  {
   "type": "Feature",
   "properties": {
    "类型": "不达标步行道",
    "问题描述": "不达标的步行道长度（千米）",
    "来源": "2026补充"
   },
   "geometry": {
    "type": "Point",
    "coordinates": [
     111.25859173800006,
     30.740492921000055
    ]
   }
  }
 ]
}