{"type": "FeatureCollection", "features": [{"type": "Feature", "geometry": {"type": "Point", "coordinates": [111.2833524193745, 30.69472973528261]}, "properties": {"指标": "存在结构安全隐患的住宅数量（栋）", "中类": "住房", "board": "安全韧性底线"}}, {"type": "Feature", "geometry": {"type": "Point", "coordinates": [111.33043833568016, 30.66036850207553]}, "properties": {"指标": "存在结构安全隐患的住宅数量（栋）", "中类": "住房", "board": "安全韧性底线"}}, {"type": "Feature", "geometry": {"type": "Point", "coordinates": [111.28763993607892, 30.694382515238573]}, "properties": {"指标": "存在结构安全隐患的住宅数量（栋）", "中类": "住房", "board": "安全韧性底线"}}, {"type": "Feature", "geometry": {"type": "Point", "coordinates": [111.28352587509023, 30.694514773861375]}, "properties": {"指标": "存在结构安全隐患的住宅数量（栋）", "中类": "住房", "board": "安全韧性底线"}}, {"type": "Feature", "geometry": {"type": "Point", "coordinates": [111.28769453818806, 30.694866171465296]}, "properties": {"指标": "存在结构安全隐患的住宅数量（栋）", "中类": "住房", "board": "安全韧性底线"}}, {"type": "Feature", "geometry": {"type": "Point", "coordinates": [111.28433951869036, 30.69547835370822]}, "properties": {"指标": "存在结构安全隐患的住宅数量（栋）", "中类": "住房", "board": "安全韧性底线"}}, {"type": "Feature", "geometry": {"type": "Point", "coordinates": [111.2870530887618, 30.69582812551812]}, "properties": {"指标": "存在结构安全隐患的住宅数量（栋）", "中类": "住房", "board": "安全韧性底线"}}, {"type": "Feature", "geometry": {"type": "Point", "coordinates": [111.28455756287609, 30.695650594504247]}, "properties": {"指标": "存在结构安全隐患的住宅数量（栋）", "中类": "住房", "board": "安全韧性底线"}}, {"type": "Feature", "geometry": {"type": "Point", "coordinates": [111.28072084072298, 30.70466600163474]}, "properties": {"指标": "存在结构安全隐患的住宅数量（栋）", "中类": "住房", "board": "安全韧性底线"}}, {"type": "Feature", "geometry": {"type": "Point", "coordinates": [111.34609692233421, 30.649268754616255]}, "properties": {"指标": "存在结构安全隐患的住宅数量（栋）", "中类": "住房", "board": "安全韧性底线"}}, {"type": "Feature", "geometry": {"type": "Point", "coordinates": [111.28719959303403, 30.695631096057785]}, "properties": {"指标": "存在结构安全隐患的住宅数量（栋）", "中类": "住房", "board": "安全韧性底线"}}, {"type": "Feature", "geometry": {"type": "Point", "coordinates": [111.2876781767622, 30.69469482342936]}, "properties": {"指标": "存在结构安全隐患的住宅数量（栋）", "中类": "住房", "board": "安全韧性底线"}}, {"type": "Feature", "geometry": {"type": "Point", "coordinates": [111.28395350596126, 30.695764778990057]}, "properties": {"指标": "存在结构安全隐患的住宅数量（栋）", "中类": "住房", "board": "安全韧性底线"}}, {"type": "Feature", "geometry": {"type": "Point", "coordinates": [111.2875262052174, 30.694550490831805]}, "properties": {"指标": "存在结构安全隐患的住宅数量（栋）", "中类": "住房", "board": "安全韧性底线"}}, {"type": "Feature", "geometry": {"type": "Point", "coordinates": [111.28734954325562, 30.694896216546745]}, "properties": {"指标": "存在结构安全隐患的住宅数量（栋）", "中类": "住房", "board": "安全韧性底线"}}, {"type": "Feature", "geometry": {"type": "Point", "coordinates": [111.28828439923667, 30.694311552236577]}, "properties": {"指标": "存在结构安全隐患的住宅数量（栋）", "中类": "住房", "board": "安全韧性底线"}}, {"type": "Feature", "geometry": {"type": "Point", "coordinates": [111.29425240497329, 30.693745165620296]}, "properties": {"指标": "存在结构安全隐患的住宅数量（栋）", "中类": "住房", "board": "安全韧性底线"}}, {"type": "Feature", "geometry": {"type": "Point", "coordinates": [111.2802479026985, 30.70484048243053]}, "properties": {"指标": "存在结构安全隐患的住宅数量（栋）", "中类": "住房", "board": "安全韧性底线"}}, {"type": "Feature", "geometry": {"type": "Point", "coordinates": [111.27651660275062, 30.709933070966223]}, "properties": {"指标": "存在结构安全隐患的住宅数量（栋）", "中类": "住房", "board": "安全韧性底线"}}, {"type": "Feature", "geometry": {"type": "Point", "coordinates": [111.30347033843177, 30.683901094241712]}, "properties": {"指标": "存在结构安全隐患的住宅数量（栋）", "中类": "住房", "board": "安全韧性底线"}}, {"type": "Feature", "geometry": {"type": "Point", "coordinates": [111.28165367933427, 30.695568139594947]}, "properties": {"指标": "存在结构安全隐患的住宅数量（栋）", "中类": "住房", "board": "安全韧性底线"}}, {"type": "Feature", "geometry": {"type": "Point", "coordinates": [111.28859731219539, 30.693938686414956]}, "properties": {"指标": "存在结构安全隐患的住宅数量（栋）", "中类": "住房", "board": "安全韧性底线"}}, {"type": "Feature", "geometry": {"type": "Point", "coordinates": [111.28382186645695, 30.69549349875403]}, "properties": {"指标": "存在结构安全隐患的住宅数量（栋）", "中类": "住房", "board": "安全韧性底线"}}, {"type": "Feature", "geometry": {"type": "Point", "coordinates": [111.33007449075355, 30.660625325317074]}, "properties": {"指标": "存在结构安全隐患的住宅数量（栋）", "中类": "住房", "board": "安全韧性底线"}}, {"type": "Feature", "geometry": {"type": "Point", "coordinates": [111.28862447702042, 30.693041793995356]}, "properties": {"指标": "存在结构安全隐患的住宅数量（栋）", "中类": "住房", "board": "安全韧性底线"}}, {"type": "Feature", "geometry": {"type": "Point", "coordinates": [111.28381981798441, 30.694977997059265]}, "properties": {"指标": "存在结构安全隐患的住宅数量（栋）", "中类": "住房", "board": "安全韧性底线"}}, {"type": "Feature", "geometry": {"type": "Point", "coordinates": [111.27963257393981, 30.704766529253106]}, "properties": {"指标": "存在结构安全隐患的住宅数量（栋）", "中类": "住房", "board": "安全韧性底线"}}, {"type": "Feature", "geometry": {"type": "Point", "coordinates": [111.28354049742101, 30.693979079902782]}, "properties": {"指标": "存在结构安全隐患的住宅数量（栋）", "中类": "住房", "board": "安全韧性底线"}}, {"type": "Feature", "geometry": {"type": "Point", "coordinates": [111.28167636427445, 30.695600610606295]}, "properties": {"指标": "存在结构安全隐患的住宅数量（栋）", "中类": "住房", "board": "安全韧性底线"}}, {"type": "Feature", "geometry": {"type": "Point", "coordinates": [111.28314847299072, 30.693894279050955]}, "properties": {"指标": "存在结构安全隐患的住宅数量（栋）", "中类": "住房", "board": "安全韧性底线"}}, {"type": "Feature", "geometry": {"type": "Point", "coordinates": [111.28423791650378, 30.695236090903038]}, "properties": {"指标": "存在结构安全隐患的住宅数量（栋）", "中类": "住房", "board": "安全韧性底线"}}, {"type": "Feature", "geometry": {"type": "Point", "coordinates": [111.28418640431825, 30.69527681106775]}, "properties": {"指标": "存在结构安全隐患的住宅数量（栋）", "中类": "住房", "board": "安全韧性底线"}}, {"type": "Feature", "geometry": {"type": "Point", "coordinates": [111.28690061837935, 30.696015680198855]}, "properties": {"指标": "存在结构安全隐患的住宅数量（栋）", "中类": "住房", "board": "安全韧性底线"}}, {"type": "Feature", "geometry": {"type": "Point", "coordinates": [111.2834974274368, 30.695060653841956]}, "properties": {"指标": "存在结构安全隐患的住宅数量（栋）", "中类": "住房", "board": "安全韧性底线"}}, {"type": "Feature", "geometry": {"type": "Point", "coordinates": [111.28327226805979, 30.693634381911366]}, "properties": {"指标": "存在结构安全隐患的住宅数量（栋）", "中类": "住房", "board": "安全韧性底线"}}, {"type": "Feature", "geometry": {"type": "Point", "coordinates": [111.28360305431849, 30.694968944215987]}, "properties": {"指标": "存在结构安全隐患的住宅数量（栋）", "中类": "住房", "board": "安全韧性底线"}}, {"type": "Feature", "geometry": {"type": "Point", "coordinates": [111.28166173823445, 30.69590431288429]}, "properties": {"指标": "存在结构安全隐患的住宅数量（栋）", "中类": "住房", "board": "安全韧性底线"}}, {"type": "Feature", "geometry": {"type": "Point", "coordinates": [111.2781871689179, 30.71046375062707]}, "properties": {"指标": "存在结构安全隐患的住宅数量（栋）", "中类": "住房", "board": "安全韧性底线"}}, {"type": "Feature", "geometry": {"type": "Point", "coordinates": [111.28329063434808, 30.69471239331052]}, "properties": {"指标": "存在结构安全隐患的住宅数量（栋）", "中类": "住房", "board": "安全韧性底线"}}, {"type": "Feature", "geometry": {"type": "Point", "coordinates": [111.28654843335914, 30.696242597388363]}, "properties": {"指标": "存在结构安全隐患的住宅数量（栋）", "中类": "住房", "board": "安全韧性底线"}}, {"type": "Feature", "geometry": {"type": "Point", "coordinates": [111.28263057844079, 30.693880899775642]}, "properties": {"指标": "存在结构安全隐患的住宅数量（栋）", "中类": "住房", "board": "安全韧性底线"}}, {"type": "Feature", "geometry": {"type": "Point", "coordinates": [111.28327601638871, 30.694919485393473]}, "properties": {"指标": "存在结构安全隐患的住宅数量（栋）", "中类": "住房", "board": "安全韧性底线"}}, {"type": "Feature", "geometry": {"type": "Point", "coordinates": [111.29505221810456, 30.73163509687088]}, "properties": {"指标": "存在围护安全隐患的住宅数量（栋）", "中类": "住房", "board": "安全韧性底线"}}, {"type": "Feature", "geometry": {"type": "Point", "coordinates": [111.29296445846933, 30.72734644268427]}, "properties": {"指标": "存在围护安全隐患的住宅数量（栋）", "中类": "住房", "board": "安全韧性底线"}}, {"type": "Feature", "geometry": {"type": "Point", "coordinates": [111.29569442004022, 30.731670197760227]}, "properties": {"指标": "存在围护安全隐患的住宅数量（栋）", "中类": "住房", "board": "安全韧性底线"}}, {"type": "Feature", "geometry": {"type": "Point", "coordinates": [111.27508964900134, 30.728063359413564]}, "properties": {"指标": "存在围护安全隐患的住宅数量（栋）", "中类": "住房", "board": "安全韧性底线"}}, {"type": "Feature", "geometry": {"type": "Point", "coordinates": [111.29353890026877, 30.69698477797183]}, "properties": {"指标": "存在围护安全隐患的住宅数量（栋）", "中类": "住房", "board": "安全韧性底线"}}, {"type": "Feature", "geometry": {"type": "Point", "coordinates": [111.30860754260414, 30.705281638173854]}, "properties": {"指标": "存在围护安全隐患的住宅数量（栋）", "中类": "住房", "board": "安全韧性底线"}}, {"type": "Feature", "geometry": {"type": "Point", "coordinates": [111.2847027003946, 30.718752107478277]}, "properties": {"指标": "存在围护安全隐患的住宅数量（栋）", "中类": "住房", "board": "安全韧性底线"}}, {"type": "Feature", "geometry": {"type": "Point", "coordinates": [111.28710612226375, 30.716265643820176]}, "properties": {"指标": "存在围护安全隐患的住宅数量（栋）", "中类": "住房", "board": "安全韧性底线"}}, {"type": "Feature", "geometry": {"type": "Point", "coordinates": [111.29687649934003, 30.73449011390651]}, "properties": {"指标": "存在围护安全隐患的住宅数量（栋）", "中类": "住房", "board": "安全韧性底线"}}, {"type": "Feature", "geometry": {"type": "Point", "coordinates": [111.28674910492963, 30.69346309313207]}, "properties": {"指标": "存在围护安全隐患的住宅数量（栋）", "中类": "住房", "board": "安全韧性底线"}}, {"type": "Feature", "geometry": {"type": "Point", "coordinates": [111.30965938571707, 30.706386832903874]}, "properties": {"指标": "存在围护安全隐患的住宅数量（栋）", "中类": "住房", "board": "安全韧性底线"}}, {"type": "Feature", "geometry": {"type": "Point", "coordinates": [111.27294056492626, 30.702065203400615]}, "properties": {"指标": "存在围护安全隐患的住宅数量（栋）", "中类": "住房", "board": "安全韧性底线"}}, {"type": "Feature", "geometry": {"type": "Point", "coordinates": [111.33694466813596, 30.72563426617112]}, "properties": {"指标": "存在围护安全隐患的住宅数量（栋）", "中类": "住房", "board": "安全韧性底线"}}, {"type": "Feature", "geometry": {"type": "Point", "coordinates": [111.29403492210264, 30.723780386442485]}, "properties": {"指标": "存在围护安全隐患的住宅数量（栋）", "中类": "住房", "board": "安全韧性底线"}}, {"type": "Feature", "geometry": {"type": "Point", "coordinates": [111.27647796324092, 30.714896788628284]}, "properties": {"指标": "存在围护安全隐患的住宅数量（栋）", "中类": "住房", "board": "安全韧性底线"}}, {"type": "Feature", "geometry": {"type": "Point", "coordinates": [111.28995029282828, 30.70000498912378]}, "properties": {"指标": "存在围护安全隐患的住宅数量（栋）", "中类": "住房", "board": "安全韧性底线"}}, {"type": "Feature", "geometry": {"type": "Point", "coordinates": [111.29342513887019, 30.691529956898464]}, "properties": {"指标": "存在围护安全隐患的住宅数量（栋）", "中类": "住房", "board": "安全韧性底线"}}, {"type": "Feature", "geometry": {"type": "Point", "coordinates": [111.28989614449318, 30.717801115145434]}, "properties": {"指标": "存在围护安全隐患的住宅数量（栋）", "中类": "住房", "board": "安全韧性底线"}}, {"type": "Feature", "geometry": {"type": "Point", "coordinates": [111.28948579487731, 30.7300911349149]}, "properties": {"指标": "存在围护安全隐患的住宅数量（栋）", "中类": "住房", "board": "安全韧性底线"}}, {"type": "Feature", "geometry": {"type": "Point", "coordinates": [111.28625125583054, 30.71669908684682]}, "properties": {"指标": "存在围护安全隐患的住宅数量（栋）", "中类": "住房", "board": "安全韧性底线"}}, {"type": "Feature", "geometry": {"type": "Point", "coordinates": [111.31205849262581, 30.69880177291631]}, "properties": {"指标": "存在围护安全隐患的住宅数量（栋）", "中类": "住房", "board": "安全韧性底线"}}, {"type": "Feature", "geometry": {"type": "Point", "coordinates": [111.32312785066354, 30.671550918179527]}, "properties": {"指标": "存在围护安全隐患的住宅数量（栋）", "中类": "住房", "board": "安全韧性底线"}}, {"type": "Feature", "geometry": {"type": "Point", "coordinates": [111.28593192484695, 30.7256487258534]}, "properties": {"指标": "存在围护安全隐患的住宅数量（栋）", "中类": "住房", "board": "安全韧性底线"}}, {"type": "Feature", "geometry": {"type": "Point", "coordinates": [111.28035560204428, 30.719833146575628]}, "properties": {"指标": "存在围护安全隐患的住宅数量（栋）", "中类": "住房", "board": "安全韧性底线"}}, {"type": "Feature", "geometry": {"type": "Point", "coordinates": [111.33429772892165, 30.671589339431783]}, "properties": {"指标": "存在围护安全隐患的住宅数量（栋）", "中类": "住房", "board": "安全韧性底线"}}, {"type": "Feature", "geometry": {"type": "Point", "coordinates": [111.29120883750049, 30.700638933192575]}, "properties": {"指标": "存在围护安全隐患的住宅数量（栋）", "中类": "住房", "board": "安全韧性底线"}}, {"type": "Feature", "geometry": {"type": "Point", "coordinates": [111.28857652966508, 30.72502256706808]}, "properties": {"指标": "存在围护安全隐患的住宅数量（栋）", "中类": "住房", "board": "安全韧性底线"}}, {"type": "Feature", "geometry": {"type": "Point", "coordinates": [111.29211908930995, 30.726879332659433]}, "properties": {"指标": "存在围护安全隐患的住宅数量（栋）", "中类": "住房", "board": "安全韧性底线"}}, {"type": "Feature", "geometry": {"type": "Point", "coordinates": [111.29075726443213, 30.719992881991505]}, "properties": {"指标": "存在围护安全隐患的住宅数量（栋）", "中类": "住房", "board": "安全韧性底线"}}, {"type": "Feature", "geometry": {"type": "Point", "coordinates": [111.31825197504588, 30.678777297666723]}, "properties": {"指标": "存在围护安全隐患的住宅数量（栋）", "中类": "住房", "board": "安全韧性底线"}}, {"type": "Feature", "geometry": {"type": "Point", "coordinates": [111.28920367536016, 30.724797472774036]}, "properties": {"指标": "存在围护安全隐患的住宅数量（栋）", "中类": "住房", "board": "安全韧性底线"}}, {"type": "Feature", "geometry": {"type": "Point", "coordinates": [111.27640764303628, 30.714409463204994]}, "properties": {"指标": "存在围护安全隐患的住宅数量（栋）", "中类": "住房", "board": "安全韧性底线"}}, {"type": "Feature", "geometry": {"type": "Point", "coordinates": [111.32379182115646, 30.72248776430607]}, "properties": {"指标": "存在围护安全隐患的住宅数量（栋）", "中类": "住房", "board": "安全韧性底线"}}, {"type": "Feature", "geometry": {"type": "Point", "coordinates": [111.28625125583054, 30.71669908684682]}, "properties": {"指标": "存在围护安全隐患的住宅数量（栋）", "中类": "住房", "board": "安全韧性底线"}}, {"type": "Feature", "geometry": {"type": "Point", "coordinates": [111.29812810057828, 30.730844675697483]}, "properties": {"指标": "存在围护安全隐患的住宅数量（栋）", "中类": "住房", "board": "安全韧性底线"}}, {"type": "Feature", "geometry": {"type": "Point", "coordinates": [111.29296445846933, 30.72734644268427]}, "properties": {"指标": "存在围护安全隐患的住宅数量（栋）", "中类": "住房", "board": "安全韧性底线"}}, {"type": "Feature", "geometry": {"type": "Point", "coordinates": [111.28593192484695, 30.7256487258534]}, "properties": {"指标": "存在围护安全隐患的住宅数量（栋）", "中类": "住房", "board": "安全韧性底线"}}, {"type": "Feature", "geometry": {"type": "Point", "coordinates": [111.29677346304824, 30.733426498031893]}, "properties": {"指标": "存在围护安全隐患的住宅数量（栋）", "中类": "住房", "board": "安全韧性底线"}}, {"type": "Feature", "geometry": {"type": "Point", "coordinates": [111.28623601520428, 30.7162366585437]}, "properties": {"指标": "存在围护安全隐患的住宅数量（栋）", "中类": "住房", "board": "安全韧性底线"}}, {"type": "Feature", "geometry": {"type": "Point", "coordinates": [111.3235256503007, 30.723053151045942]}, "properties": {"指标": "存在围护安全隐患的住宅数量（栋）", "中类": "住房", "board": "安全韧性底线"}}, {"type": "Feature", "geometry": {"type": "Point", "coordinates": [111.29831545292609, 30.732278683377288]}, "properties": {"指标": "存在围护安全隐患的住宅数量（栋）", "中类": "住房", "board": "安全韧性底线"}}, {"type": "Feature", "geometry": {"type": "Point", "coordinates": [111.30803625795902, 30.706634941072192]}, "properties": {"指标": "存在围护安全隐患的住宅数量（栋）", "中类": "住房", "board": "安全韧性底线"}}, {"type": "Feature", "geometry": {"type": "Point", "coordinates": [111.28056928381034, 30.704547549327746]}, "properties": {"指标": "存在围护安全隐患的住宅数量（栋）", "中类": "住房", "board": "安全韧性底线"}}, {"type": "Feature", "geometry": {"type": "Point", "coordinates": [111.28778372005974, 30.716294624469793]}, "properties": {"指标": "存在围护安全隐患的住宅数量（栋）", "中类": "住房", "board": "安全韧性底线"}}, {"type": "Feature", "geometry": {"type": "Point", "coordinates": [111.2763483642828, 30.72967390055473]}, "properties": {"指标": "存在围护安全隐患的住宅数量（栋）", "中类": "住房", "board": "安全韧性底线"}}, {"type": "Feature", "geometry": {"type": "Point", "coordinates": [111.31470093907687, 30.68773126269263]}, "properties": {"指标": "存在围护安全隐患的住宅数量（栋）", "中类": "住房", "board": "安全韧性底线"}}, {"type": "Feature", "geometry": {"type": "Point", "coordinates": [111.29117450474807, 30.702242647038066]}, "properties": {"指标": "存在围护安全隐患的住宅数量（栋）", "中类": "住房", "board": "安全韧性底线"}}, {"type": "Feature", "geometry": {"type": "Point", "coordinates": [111.33894114690993, 30.651187341285134]}, "properties": {"指标": "存在围护安全隐患的住宅数量（栋）", "中类": "住房", "board": "安全韧性底线"}}, {"type": "Feature", "geometry": {"type": "Point", "coordinates": [111.29188537935194, 30.696130180609487]}, "properties": {"指标": "存在围护安全隐患的住宅数量（栋）", "中类": "住房", "board": "安全韧性底线"}}, {"type": "Feature", "geometry": {"type": "Point", "coordinates": [111.28985460048034, 30.72090239713017]}, "properties": {"指标": "存在围护安全隐患的住宅数量（栋）", "中类": "住房", "board": "安全韧性底线"}}, {"type": "Feature", "geometry": {"type": "Point", "coordinates": [111.29323569069315, 30.72584075764482]}, "properties": {"指标": "存在围护安全隐患的住宅数量（栋）", "中类": "住房", "board": "安全韧性底线"}}, {"type": "Feature", "geometry": {"type": "Point", "coordinates": [111.30848064871842, 30.703725946733467]}, "properties": {"指标": "存在围护安全隐患的住宅数量（栋）", "中类": "住房", "board": "安全韧性底线"}}, {"type": "Feature", "geometry": {"type": "Point", "coordinates": [111.27792855384767, 30.729368321834002]}, "properties": {"指标": "存在围护安全隐患的住宅数量（栋）", "中类": "住房", "board": "安全韧性底线"}}, {"type": "Feature", "geometry": {"type": "Point", "coordinates": [111.29640327011651, 30.731422870924696]}, "properties": {"指标": "存在围护安全隐患的住宅数量（栋）", "中类": "住房", "board": "安全韧性底线"}}, {"type": "Feature", "geometry": {"type": "Point", "coordinates": [111.28750231127057, 30.701368619376137]}, "properties": {"指标": "存在围护安全隐患的住宅数量（栋）", "中类": "住房", "board": "安全韧性底线"}}, {"type": "Feature", "geometry": {"type": "Point", "coordinates": [111.30642642946215, 30.706118446622302]}, "properties": {"指标": "存在围护安全隐患的住宅数量（栋）", "中类": "住房", "board": "安全韧性底线"}}, {"type": "Feature", "geometry": {"type": "Point", "coordinates": [111.27760404240045, 30.69774281385772]}, "properties": {"指标": "存在围护安全隐患的住宅数量（栋）", "中类": "住房", "board": "安全韧性底线"}}, {"type": "Feature", "geometry": {"type": "Point", "coordinates": [111.28448028102191, 30.71682001786235]}, "properties": {"指标": "存在围护安全隐患的住宅数量（栋）", "中类": "住房", "board": "安全韧性底线"}}, {"type": "Feature", "geometry": {"type": "Point", "coordinates": [111.28785092892142, 30.718044170140477]}, "properties": {"指标": "存在围护安全隐患的住宅数量（栋）", "中类": "住房", "board": "安全韧性底线"}}, {"type": "Feature", "geometry": {"type": "Point", "coordinates": [111.28869868194215, 30.724127918390202]}, "properties": {"指标": "存在围护安全隐患的住宅数量（栋）", "中类": "住房", "board": "安全韧性底线"}}, {"type": "Feature", "geometry": {"type": "Point", "coordinates": [111.27597948907061, 30.722249187410856]}, "properties": {"指标": "存在围护安全隐患的住宅数量（栋）", "中类": "住房", "board": "安全韧性底线"}}, {"type": "Feature", "geometry": {"type": "Point", "coordinates": [111.33641850969799, 30.725087410144287]}, "properties": {"指标": "存在围护安全隐患的住宅数量（栋）", "中类": "住房", "board": "安全韧性底线"}}, {"type": "Feature", "geometry": {"type": "Point", "coordinates": [111.30445524069543, 30.734360249602894]}, "properties": {"指标": "存在围护安全隐患的住宅数量（栋）", "中类": "住房", "board": "安全韧性底线"}}, {"type": "Feature", "geometry": {"type": "Point", "coordinates": [111.29175821053063, 30.71809966726333]}, "properties": {"指标": "存在围护安全隐患的住宅数量（栋）", "中类": "住房", "board": "安全韧性底线"}}, {"type": "Feature", "geometry": {"type": "Point", "coordinates": [111.28799384058487, 30.71361538984817]}, "properties": {"指标": "存在围护安全隐患的住宅数量（栋）", "中类": "住房", "board": "安全韧性底线"}}, {"type": "Feature", "geometry": {"type": "Point", "coordinates": [111.27613481441163, 30.724342067224136]}, "properties": {"指标": "存在围护安全隐患的住宅数量（栋）", "中类": "住房", "board": "安全韧性底线"}}, {"type": "Feature", "geometry": {"type": "Point", "coordinates": [111.27763633367083, 30.716604161613585]}, "properties": {"指标": "存在围护安全隐患的住宅数量（栋）", "中类": "住房", "board": "安全韧性底线"}}, {"type": "Feature", "geometry": {"type": "Point", "coordinates": [111.3094753616469, 30.705329992011304]}, "properties": {"指标": "存在围护安全隐患的住宅数量（栋）", "中类": "住房", "board": "安全韧性底线"}}, {"type": "Feature", "geometry": {"type": "Point", "coordinates": [111.27926325575312, 30.702941165323693]}, "properties": {"指标": "存在围护安全隐患的住宅数量（栋）", "中类": "住房", "board": "安全韧性底线"}}, {"type": "Feature", "geometry": {"type": "Point", "coordinates": [111.30301458300099, 30.73384796530982]}, "properties": {"指标": "存在围护安全隐患的住宅数量（栋）", "中类": "住房", "board": "安全韧性底线"}}, {"type": "Feature", "geometry": {"type": "Point", "coordinates": [111.28852317574561, 30.71397616912243]}, "properties": {"指标": "存在围护安全隐患的住宅数量（栋）", "中类": "住房", "board": "安全韧性底线"}}, {"type": "Feature", "geometry": {"type": "Point", "coordinates": [111.29396279939668, 30.694589422815486]}, "properties": {"指标": "存在围护安全隐患的住宅数量（栋）", "中类": "住房", "board": "安全韧性底线"}}, {"type": "Feature", "geometry": {"type": "Point", "coordinates": [111.2918972234845, 30.71914100231336]}, "properties": {"指标": "存在围护安全隐患的住宅数量（栋）", "中类": "住房", "board": "安全韧性底线"}}, {"type": "Feature", "geometry": {"type": "Point", "coordinates": [111.28686783057226, 30.71624270537376]}, "properties": {"指标": "存在围护安全隐患的住宅数量（栋）", "中类": "住房", "board": "安全韧性底线"}}, {"type": "Feature", "geometry": {"type": "Point", "coordinates": [111.31327208576147, 30.704575155225456]}, "properties": {"指标": "存在围护安全隐患的住宅数量（栋）", "中类": "住房", "board": "安全韧性底线"}}, {"type": "Feature", "geometry": {"type": "Point", "coordinates": [111.28677612135608, 30.726658661699016]}, "properties": {"指标": "存在围护安全隐患的住宅数量（栋）", "中类": "住房", "board": "安全韧性底线"}}, {"type": "Feature", "geometry": {"type": "Point", "coordinates": [111.29358038121622, 30.726679175799887]}, "properties": {"指标": "存在围护安全隐患的住宅数量（栋）", "中类": "住房", "board": "安全韧性底线"}}, {"type": "Feature", "geometry": {"type": "Point", "coordinates": [111.28817112436474, 30.69305667102723]}, "properties": {"指标": "存在围护安全隐患的住宅数量（栋）", "中类": "住房", "board": "安全韧性底线"}}, {"type": "Feature", "geometry": {"type": "Point", "coordinates": [111.29804182526935, 30.731122250475664]}, "properties": {"指标": "存在围护安全隐患的住宅数量（栋）", "中类": "住房", "board": "安全韧性底线"}}, {"type": "Feature", "geometry": {"type": "Point", "coordinates": [111.29256530937543, 30.72737727931689]}, "properties": {"指标": "存在围护安全隐患的住宅数量（栋）", "中类": "住房", "board": "安全韧性底线"}}, {"type": "Feature", "geometry": {"type": "Point", "coordinates": [111.291224234226, 30.701967969055747]}, "properties": {"指标": "存在围护安全隐患的住宅数量（栋）", "中类": "住房", "board": "安全韧性底线"}}, {"type": "Feature", "geometry": {"type": "Point", "coordinates": [111.27096582329968, 30.717697726793883]}, "properties": {"指标": "存在围护安全隐患的住宅数量（栋）", "中类": "住房", "board": "安全韧性底线"}}, {"type": "Feature", "geometry": {"type": "Point", "coordinates": [111.3240729093012, 30.722273522675867]}, "properties": {"指标": "存在围护安全隐患的住宅数量（栋）", "中类": "住房", "board": "安全韧性底线"}}, {"type": "Feature", "geometry": {"type": "Point", "coordinates": [111.28734107583871, 30.716192463677327]}, "properties": {"指标": "存在围护安全隐患的住宅数量（栋）", "中类": "住房", "board": "安全韧性底线"}}, {"type": "Feature", "geometry": {"type": "Point", "coordinates": [111.27929477455014, 30.728560112347946]}, "properties": {"指标": "存在围护安全隐患的住宅数量（栋）", "中类": "住房", "board": "安全韧性底线"}}, {"type": "Feature", "geometry": {"type": "Point", "coordinates": [111.31814807915462, 30.711239099310923]}, "properties": {"指标": "存在围护安全隐患的住宅数量（栋）", "中类": "住房", "board": "安全韧性底线"}}, {"type": "Feature", "geometry": {"type": "Point", "coordinates": [111.29487414342184, 30.697280089002422]}, "properties": {"指标": "存在围护安全隐患的住宅数量（栋）", "中类": "住房", "board": "安全韧性底线"}}, {"type": "Feature", "geometry": {"type": "Point", "coordinates": [111.29070630875988, 30.721931858160648]}, "properties": {"指标": "存在围护安全隐患的住宅数量（栋）", "中类": "住房", "board": "安全韧性底线"}}, {"type": "Feature", "geometry": {"type": "Point", "coordinates": [111.29287512516338, 30.72708152162873]}, "properties": {"指标": "存在围护安全隐患的住宅数量（栋）", "中类": "住房", "board": "安全韧性底线"}}, {"type": "Feature", "geometry": {"type": "Point", "coordinates": [111.29464822194655, 30.697498823478607]}, "properties": {"指标": "存在围护安全隐患的住宅数量（栋）", "中类": "住房", "board": "安全韧性底线"}}, {"type": "Feature", "geometry": {"type": "Point", "coordinates": [111.27938780716663, 30.729335010258225]}, "properties": {"指标": "存在围护安全隐患的住宅数量（栋）", "中类": "住房", "board": "安全韧性底线"}}, {"type": "Feature", "geometry": {"type": "Point", "coordinates": [111.27639342494972, 30.72522263818058]}, "properties": {"指标": "存在围护安全隐患的住宅数量（栋）", "中类": "住房", "board": "安全韧性底线"}}, {"type": "Feature", "geometry": {"type": "Point", "coordinates": [111.29347120812531, 30.727068956673456]}, "properties": {"指标": "存在围护安全隐患的住宅数量（栋）", "中类": "住房", "board": "安全韧性底线"}}, {"type": "Feature", "geometry": {"type": "Point", "coordinates": [111.28421698785995, 30.716934444239833]}, "properties": {"指标": "存在围护安全隐患的住宅数量（栋）", "中类": "住房", "board": "安全韧性底线"}}, {"type": "Feature", "geometry": {"type": "Point", "coordinates": [111.3294197330643, 30.668847866632504]}, "properties": {"指标": "存在围护安全隐患的住宅数量（栋）", "中类": "住房", "board": "安全韧性底线"}}, {"type": "Feature", "geometry": {"type": "Point", "coordinates": [111.2963313895318, 30.70995729657486]}, "properties": {"指标": "存在围护安全隐患的住宅数量（栋）", "中类": "住房", "board": "安全韧性底线"}}, {"type": "Feature", "geometry": {"type": "Point", "coordinates": [111.29080803590745, 30.70243230134216]}, "properties": {"指标": "存在围护安全隐患的住宅数量（栋）", "中类": "住房", "board": "安全韧性底线"}}, {"type": "Feature", "geometry": {"type": "Point", "coordinates": [111.28750231127057, 30.701368619376137]}, "properties": {"指标": "存在围护安全隐患的住宅数量（栋）", "中类": "住房", "board": "安全韧性底线"}}, {"type": "Feature", "geometry": {"type": "Point", "coordinates": [111.27855256830681, 30.72917088359011]}, "properties": {"指标": "存在围护安全隐患的住宅数量（栋）", "中类": "住房", "board": "安全韧性底线"}}, {"type": "Feature", "geometry": {"type": "Point", "coordinates": [111.3075709423003, 30.70624207599]}, "properties": {"指标": "存在围护安全隐患的住宅数量（栋）", "中类": "住房", "board": "安全韧性底线"}}, {"type": "Feature", "geometry": {"type": "Point", "coordinates": [111.32198472056173, 30.67212912103407]}, "properties": {"指标": "存在围护安全隐患的住宅数量（栋）", "中类": "住房", "board": "安全韧性底线"}}, {"type": "Feature", "geometry": {"type": "Point", "coordinates": [111.2891359037874, 30.730292121279533]}, "properties": {"指标": "存在围护安全隐患的住宅数量（栋）", "中类": "住房", "board": "安全韧性底线"}}, {"type": "Feature", "geometry": {"type": "Point", "coordinates": [111.29324583577343, 30.72665171722983]}, "properties": {"指标": "存在围护安全隐患的住宅数量（栋）", "中类": "住房", "board": "安全韧性底线"}}, {"type": "Feature", "geometry": {"type": "Point", "coordinates": [111.27516726268887, 30.729150403440855]}, "properties": {"指标": "存在围护安全隐患的住宅数量（栋）", "中类": "住房", "board": "安全韧性底线"}}, {"type": "Feature", "geometry": {"type": "Point", "coordinates": [111.2879046259536, 30.69415371454687]}, "properties": {"指标": "存在围护安全隐患的住宅数量（栋）", "中类": "住房", "board": "安全韧性底线"}}, {"type": "Feature", "geometry": {"type": "Point", "coordinates": [111.27330718800648, 30.72300605268997]}, "properties": {"指标": "存在围护安全隐患的住宅数量（栋）", "中类": "住房", "board": "安全韧性底线"}}, {"type": "Feature", "geometry": {"type": "Point", "coordinates": [111.28030917843594, 30.71820739171127]}, "properties": {"指标": "存在围护安全隐患的住宅数量（栋）", "中类": "住房", "board": "安全韧性底线"}}, {"type": "Feature", "geometry": {"type": "Point", "coordinates": [111.28914486406849, 30.725681123511084]}, "properties": {"指标": "存在围护安全隐患的住宅数量（栋）", "中类": "住房", "board": "安全韧性底线"}}, {"type": "Feature", "geometry": {"type": "Point", "coordinates": [111.28096385176862, 30.69677837479116]}, "properties": {"指标": "存在围护安全隐患的住宅数量（栋）", "中类": "住房", "board": "安全韧性底线"}}, {"type": "Feature", "geometry": {"type": "Point", "coordinates": [111.28637760063573, 30.71736914284141]}, "properties": {"指标": "存在围护安全隐患的住宅数量（栋）", "中类": "住房", "board": "安全韧性底线"}}, {"type": "Feature", "geometry": {"type": "Point", "coordinates": [111.31411088632365, 30.67408141329901]}, "properties": {"指标": "存在围护安全隐患的住宅数量（栋）", "中类": "住房", "board": "安全韧性底线"}}, {"type": "Feature", "geometry": {"type": "Point", "coordinates": [111.30801186831634, 30.706181207900144]}, "properties": {"指标": "存在围护安全隐患的住宅数量（栋）", "中类": "住房", "board": "安全韧性底线"}}, {"type": "Feature", "geometry": {"type": "Point", "coordinates": [111.29774013442237, 30.73205827746297]}, "properties": {"指标": "存在围护安全隐患的住宅数量（栋）", "中类": "住房", "board": "安全韧性底线"}}, {"type": "Feature", "geometry": {"type": "Point", "coordinates": [111.34018169412292, 30.649784363647143]}, "properties": {"指标": "存在围护安全隐患的住宅数量（栋）", "中类": "住房", "board": "安全韧性底线"}}, {"type": "Feature", "geometry": {"type": "Point", "coordinates": [111.28145033033313, 30.704129339351798]}, "properties": {"指标": "存在围护安全隐患的住宅数量（栋）", "中类": "住房", "board": "安全韧性底线"}}, {"type": "Feature", "geometry": {"type": "Point", "coordinates": [111.28360305431849, 30.694968944215987]}, "properties": {"指标": "存在围护安全隐患的住宅数量（栋）", "中类": "住房", "board": "安全韧性底线"}}, {"type": "Feature", "geometry": {"type": "Point", "coordinates": [111.290372615893, 30.713110429694286]}, "properties": {"指标": "存在围护安全隐患的住宅数量（栋）", "中类": "住房", "board": "安全韧性底线"}}, {"type": "Feature", "geometry": {"type": "Point", "coordinates": [111.30571308882398, 30.706148645667245]}, "properties": {"指标": "存在围护安全隐患的住宅数量（栋）", "中类": "住房", "board": "安全韧性底线"}}, {"type": "Feature", "geometry": {"type": "Point", "coordinates": [111.29940178434997, 30.708836878965656]}, "properties": {"指标": "存在围护安全隐患的住宅数量（栋）", "中类": "住房", "board": "安全韧性底线"}}, {"type": "Feature", "geometry": {"type": "Point", "coordinates": [111.29397985105065, 30.725736616948986]}, "properties": {"指标": "存在围护安全隐患的住宅数量（栋）", "中类": "住房", "board": "安全韧性底线"}}, {"type": "Feature", "geometry": {"type": "Point", "coordinates": [111.29027744386603, 30.71263678257667]}, "properties": {"指标": "存在围护安全隐患的住宅数量（栋）", "中类": "住房", "board": "安全韧性底线"}}, {"type": "Feature", "geometry": {"type": "Point", "coordinates": [111.28779443875595, 30.716206397317183]}, "properties": {"指标": "存在围护安全隐患的住宅数量（栋）", "中类": "住房", "board": "安全韧性底线"}}, {"type": "Feature", "geometry": {"type": "Point", "coordinates": [111.2970391759922, 30.727240535571955]}, "properties": {"指标": "存在围护安全隐患的住宅数量（栋）", "中类": "住房", "board": "安全韧性底线"}}, {"type": "Feature", "geometry": {"type": "Point", "coordinates": [111.27282662233141, 30.723722551623407]}, "properties": {"指标": "存在围护安全隐患的住宅数量（栋）", "中类": "住房", "board": "安全韧性底线"}}, {"type": "Feature", "geometry": {"type": "Point", "coordinates": [111.29542106545962, 30.696627457886343]}, "properties": {"指标": "存在围护安全隐患的住宅数量（栋）", "中类": "住房", "board": "安全韧性底线"}}, {"type": "Feature", "geometry": {"type": "Point", "coordinates": [111.28882089853205, 30.72493519627152]}, "properties": {"指标": "存在围护安全隐患的住宅数量（栋）", "中类": "住房", "board": "安全韧性底线"}}, {"type": "Feature", "geometry": {"type": "Point", "coordinates": [111.31902627402926, 30.697260247666446]}, "properties": {"指标": "存在围护安全隐患的住宅数量（栋）", "中类": "住房", "board": "安全韧性底线"}}, {"type": "Feature", "geometry": {"type": "Point", "coordinates": [111.29161196670445, 30.71101119103133]}, "properties": {"指标": "存在围护安全隐患的住宅数量（栋）", "中类": "住房", "board": "安全韧性底线"}}, {"type": "Feature", "geometry": {"type": "Point", "coordinates": [111.29256232545872, 30.73018129315404]}, "properties": {"指标": "存在围护安全隐患的住宅数量（栋）", "中类": "住房", "board": "安全韧性底线"}}, {"type": "Feature", "geometry": {"type": "Point", "coordinates": [111.31064638099623, 30.705631225949475]}, "properties": {"指标": "存在围护安全隐患的住宅数量（栋）", "中类": "住房", "board": "安全韧性底线"}}, {"type": "Feature", "geometry": {"type": "Point", "coordinates": [111.2928385688599, 30.708344265389282]}, "properties": {"指标": "存在围护安全隐患的住宅数量（栋）", "中类": "住房", "board": "安全韧性底线"}}, {"type": "Feature", "geometry": {"type": "Point", "coordinates": [111.29403492210264, 30.723780386442485]}, "properties": {"指标": "存在围护安全隐患的住宅数量（栋）", "中类": "住房", "board": "安全韧性底线"}}, {"type": "Feature", "geometry": {"type": "Point", "coordinates": [111.28628688546539, 30.71617631201055]}, "properties": {"指标": "存在围护安全隐患的住宅数量（栋）", "中类": "住房", "board": "安全韧性底线"}}, {"type": "Feature", "geometry": {"type": "Point", "coordinates": [111.31208449424727, 30.699290019387156]}, "properties": {"指标": "存在围护安全隐患的住宅数量（栋）", "中类": "住房", "board": "安全韧性底线"}}, {"type": "Feature", "geometry": {"type": "Point", "coordinates": [111.28987830112005, 30.719039221679154]}, "properties": {"指标": "存在围护安全隐患的住宅数量（栋）", "中类": "住房", "board": "安全韧性底线"}}, {"type": "Feature", "geometry": {"type": "Point", "coordinates": [111.29519259313709, 30.732103782108375]}, "properties": {"指标": "存在围护安全隐患的住宅数量（栋）", "中类": "住房", "board": "安全韧性底线"}}, {"type": "Feature", "geometry": {"type": "Point", "coordinates": [111.28922718850328, 30.697682122122238]}, "properties": {"指标": "存在围护安全隐患的住宅数量（栋）", "中类": "住房", "board": "安全韧性底线"}}, {"type": "Feature", "geometry": {"type": "Point", "coordinates": [111.27943248235744, 30.72887855535037]}, "properties": {"指标": "存在围护安全隐患的住宅数量（栋）", "中类": "住房", "board": "安全韧性底线"}}, {"type": "Feature", "geometry": {"type": "Point", "coordinates": [111.29060754433061, 30.72571151653559]}, "properties": {"指标": "存在围护安全隐患的住宅数量（栋）", "中类": "住房", "board": "安全韧性底线"}}, {"type": "Feature", "geometry": {"type": "Point", "coordinates": [111.28781861152142, 30.692775065362515]}, "properties": {"指标": "存在围护安全隐患的住宅数量（栋）", "中类": "住房", "board": "安全韧性底线"}}, {"type": "Feature", "geometry": {"type": "Point", "coordinates": [111.28980778704293, 30.702348254369937]}, "properties": {"指标": "存在围护安全隐患的住宅数量（栋）", "中类": "住房", "board": "安全韧性底线"}}, {"type": "Feature", "geometry": {"type": "Point", "coordinates": [111.29427014505642, 30.724137371123895]}, "properties": {"指标": "存在围护安全隐患的住宅数量（栋）", "中类": "住房", "board": "安全韧性底线"}}, {"type": "Feature", "geometry": {"type": "Point", "coordinates": [111.29696618439547, 30.727483896908094]}, "properties": {"指标": "存在围护安全隐患的住宅数量（栋）", "中类": "住房", "board": "安全韧性底线"}}, {"type": "Feature", "geometry": {"type": "Point", "coordinates": [111.27567011654885, 30.727191644998644]}, "properties": {"指标": "存在围护安全隐患的住宅数量（栋）", "中类": "住房", "board": "安全韧性底线"}}, {"type": "Feature", "geometry": {"type": "Point", "coordinates": [111.35673544425917, 30.658603795475898]}, "properties": {"指标": "存在围护安全隐患的住宅数量（栋）", "中类": "住房", "board": "安全韧性底线"}}, {"type": "Feature", "geometry": {"type": "Point", "coordinates": [111.29943895628018, 30.695845908530924]}, "properties": {"指标": "存在围护安全隐患的住宅数量（栋）", "中类": "住房", "board": "安全韧性底线"}}, {"type": "Feature", "geometry": {"type": "Point", "coordinates": [111.2888285219705, 30.723777644003796]}, "properties": {"指标": "存在围护安全隐患的住宅数量（栋）", "中类": "住房", "board": "安全韧性底线"}}, {"type": "Feature", "geometry": {"type": "Point", "coordinates": [111.27963258952387, 30.71437465503038]}, "properties": {"指标": "存在围护安全隐患的住宅数量（栋）", "中类": "住房", "board": "安全韧性底线"}}, {"type": "Feature", "geometry": {"type": "Point", "coordinates": [111.28922718850328, 30.697682122122238]}, "properties": {"指标": "存在围护安全隐患的住宅数量（栋）", "中类": "住房", "board": "安全韧性底线"}}, {"type": "Feature", "geometry": {"type": "Point", "coordinates": [111.29098099515105, 30.691944717387276]}, "properties": {"指标": "存在围护安全隐患的住宅数量（栋）", "中类": "住房", "board": "安全韧性底线"}}, {"type": "Feature", "geometry": {"type": "Point", "coordinates": [111.28799170769895, 30.713408701350225]}, "properties": {"指标": "存在围护安全隐患的住宅数量（栋）", "中类": "住房", "board": "安全韧性底线"}}, {"type": "Feature", "geometry": {"type": "Point", "coordinates": [111.28897214894513, 30.723990838519583]}, "properties": {"指标": "存在围护安全隐患的住宅数量（栋）", "中类": "住房", "board": "安全韧性底线"}}, {"type": "Feature", "geometry": {"type": "Point", "coordinates": [111.27295045756054, 30.70874491923353]}, "properties": {"指标": "存在围护安全隐患的住宅数量（栋）", "中类": "住房", "board": "安全韧性底线"}}, {"type": "Feature", "geometry": {"type": "Point", "coordinates": [111.30744774287164, 30.704378611957214]}, "properties": {"指标": "存在围护安全隐患的住宅数量（栋）", "中类": "住房", "board": "安全韧性底线"}}, {"type": "Feature", "geometry": {"type": "Point", "coordinates": [111.27181974053397, 30.720892556944197]}, "properties": {"指标": "存在围护安全隐患的住宅数量（栋）", "中类": "住房", "board": "安全韧性底线"}}, {"type": "Feature", "geometry": {"type": "Point", "coordinates": [111.29035609083292, 30.699987779793357]}, "properties": {"指标": "存在围护安全隐患的住宅数量（栋）", "中类": "住房", "board": "安全韧性底线"}}, {"type": "Feature", "geometry": {"type": "Point", "coordinates": [111.27880382329118, 30.703833081324095]}, "properties": {"指标": "存在围护安全隐患的住宅数量（栋）", "中类": "住房", "board": "安全韧性底线"}}, {"type": "Feature", "geometry": {"type": "Point", "coordinates": [111.29242859048868, 30.697077655049906]}, "properties": {"指标": "存在围护安全隐患的住宅数量（栋）", "中类": "住房", "board": "安全韧性底线"}}, {"type": "Feature", "geometry": {"type": "Point", "coordinates": [111.29391995254677, 30.71007224881729]}, "properties": {"指标": "存在围护安全隐患的住宅数量（栋）", "中类": "住房", "board": "安全韧性底线"}}, {"type": "Feature", "geometry": {"type": "Point", "coordinates": [111.2994405234454, 30.695477775872902]}, "properties": {"指标": "存在围护安全隐患的住宅数量（栋）", "中类": "住房", "board": "安全韧性底线"}}, {"type": "Feature", "geometry": {"type": "Point", "coordinates": [111.28441673246023, 30.717283027509538]}, "properties": {"指标": "存在围护安全隐患的住宅数量（栋）", "中类": "住房", "board": "安全韧性底线"}}, {"type": "Feature", "geometry": {"type": "Point", "coordinates": [111.32823868891624, 30.669076618942512]}, "properties": {"指标": "存在围护安全隐患的住宅数量（栋）", "中类": "住房", "board": "安全韧性底线"}}, {"type": "Feature", "geometry": {"type": "Point", "coordinates": [111.28757978374958, 30.693117517245664]}, "properties": {"指标": "存在围护安全隐患的住宅数量（栋）", "中类": "住房", "board": "安全韧性底线"}}, {"type": "Feature", "geometry": {"type": "Point", "coordinates": [111.2879322594658, 30.714807328004877]}, "properties": {"指标": "存在围护安全隐患的住宅数量（栋）", "中类": "住房", "board": "安全韧性底线"}}, {"type": "Feature", "geometry": {"type": "Point", "coordinates": [111.28753408258198, 30.720688706458446]}, "properties": {"指标": "存在围护安全隐患的住宅数量（栋）", "中类": "住房", "board": "安全韧性底线"}}, {"type": "Feature", "geometry": {"type": "Point", "coordinates": [111.27594947286362, 30.728561864216488]}, "properties": {"指标": "存在围护安全隐患的住宅数量（栋）", "中类": "住房", "board": "安全韧性底线"}}, {"type": "Feature", "geometry": {"type": "Point", "coordinates": [111.29050932722348, 30.694133697946505]}, "properties": {"指标": "存在围护安全隐患的住宅数量（栋）", "中类": "住房", "board": "安全韧性底线"}}, {"type": "Feature", "geometry": {"type": "Point", "coordinates": [111.32470372499711, 30.668133020784285]}, "properties": {"指标": "存在围护安全隐患的住宅数量（栋）", "中类": "住房", "board": "安全韧性底线"}}, {"type": "Feature", "geometry": {"type": "Point", "coordinates": [111.27974128856836, 30.720723364309702]}, "properties": {"指标": "存在围护安全隐患的住宅数量（栋）", "中类": "住房", "board": "安全韧性底线"}}, {"type": "Feature", "geometry": {"type": "Point", "coordinates": [111.29079078034403, 30.70241512859244]}, "properties": {"指标": "存在围护安全隐患的住宅数量（栋）", "中类": "住房", "board": "安全韧性底线"}}, {"type": "Feature", "geometry": {"type": "Point", "coordinates": [111.27701559985944, 30.727330865559235]}, "properties": {"指标": "存在围护安全隐患的住宅数量（栋）", "中类": "住房", "board": "安全韧性底线"}}, {"type": "Feature", "geometry": {"type": "Point", "coordinates": [111.27613893390155, 30.724583450509765]}, "properties": {"指标": "存在围护安全隐患的住宅数量（栋）", "中类": "住房", "board": "安全韧性底线"}}, {"type": "Feature", "geometry": {"type": "Point", "coordinates": [111.32970433662959, 30.669381173655204]}, "properties": {"指标": "存在围护安全隐患的住宅数量（栋）", "中类": "住房", "board": "安全韧性底线"}}, {"type": "Feature", "geometry": {"type": "Point", "coordinates": [111.32887642898454, 30.66895475551618]}, "properties": {"指标": "存在围护安全隐患的住宅数量（栋）", "中类": "住房", "board": "安全韧性底线"}}, {"type": "Feature", "geometry": {"type": "Point", "coordinates": [111.28406742376846, 30.7246726072639]}, "properties": {"指标": "存在围护安全隐患的住宅数量（栋）", "中类": "住房", "board": "安全韧性底线"}}, {"type": "Feature", "geometry": {"type": "Point", "coordinates": [111.30686874670455, 30.70582146071171]}, "properties": {"指标": "存在围护安全隐患的住宅数量（栋）", "中类": "住房", "board": "安全韧性底线"}}, {"type": "Feature", "geometry": {"type": "Point", "coordinates": [111.2899099374673, 30.719515878944105]}, "properties": {"指标": "存在围护安全隐患的住宅数量（栋）", "中类": "住房", "board": "安全韧性底线"}}, {"type": "Feature", "geometry": {"type": "Point", "coordinates": [111.29458883018529, 30.730110953587733]}, "properties": {"指标": "存在围护安全隐患的住宅数量（栋）", "中类": "住房", "board": "安全韧性底线"}}, {"type": "Feature", "geometry": {"type": "Point", "coordinates": [111.28399728104834, 30.693681036360005]}, "properties": {"指标": "存在围护安全隐患的住宅数量（栋）", "中类": "住房", "board": "安全韧性底线"}}, {"type": "Feature", "geometry": {"type": "Point", "coordinates": [111.28424257705082, 30.722546103029355]}, "properties": {"指标": "存在围护安全隐患的住宅数量（栋）", "中类": "住房", "board": "安全韧性底线"}}, {"type": "Feature", "geometry": {"type": "Point", "coordinates": [111.31103712444266, 30.70257112745221]}, "properties": {"指标": "存在围护安全隐患的住宅数量（栋）", "中类": "住房", "board": "安全韧性底线"}}, {"type": "Feature", "geometry": {"type": "Point", "coordinates": [111.28808839446903, 30.716889236325372]}, "properties": {"指标": "存在围护安全隐患的住宅数量（栋）", "中类": "住房", "board": "安全韧性底线"}}, {"type": "Feature", "geometry": {"type": "Point", "coordinates": [111.27781857186142, 30.707727082590818]}, "properties": {"指标": "存在围护安全隐患的住宅数量（栋）", "中类": "住房", "board": "安全韧性底线"}}, {"type": "Feature", "geometry": {"type": "Point", "coordinates": [111.2965612892045, 30.734868847028945]}, "properties": {"指标": "存在围护安全隐患的住宅数量（栋）", "中类": "住房", "board": "安全韧性底线"}}, {"type": "Feature", "geometry": {"type": "Point", "coordinates": [111.28819280247237, 30.695352930916567]}, "properties": {"指标": "存在围护安全隐患的住宅数量（栋）", "中类": "住房", "board": "安全韧性底线"}}, {"type": "Feature", "geometry": {"type": "Point", "coordinates": [111.27195728633617, 30.719676480100066]}, "properties": {"指标": "存在围护安全隐患的住宅数量（栋）", "中类": "住房", "board": "安全韧性底线"}}, {"type": "Feature", "geometry": {"type": "Point", "coordinates": [111.29166128418453, 30.694752521973307]}, "properties": {"指标": "存在围护安全隐患的住宅数量（栋）", "中类": "住房", "board": "安全韧性底线"}}, {"type": "Feature", "geometry": {"type": "Point", "coordinates": [111.29317572409282, 30.72705687227951]}, "properties": {"指标": "存在围护安全隐患的住宅数量（栋）", "中类": "住房", "board": "安全韧性底线"}}, {"type": "Feature", "geometry": {"type": "Point", "coordinates": [111.30552676940552, 30.712931430601294]}, "properties": {"指标": "存在围护安全隐患的住宅数量（栋）", "中类": "住房", "board": "安全韧性底线"}}, {"type": "Feature", "geometry": {"type": "Point", "coordinates": [111.28446419353412, 30.721309740713885]}, "properties": {"指标": "存在围护安全隐患的住宅数量（栋）", "中类": "住房", "board": "安全韧性底线"}}, {"type": "Feature", "geometry": {"type": "Point", "coordinates": [111.3341911604549, 30.671122790125796]}, "properties": {"指标": "存在围护安全隐患的住宅数量（栋）", "中类": "住房", "board": "安全韧性底线"}}, {"type": "Feature", "geometry": {"type": "Point", "coordinates": [111.29697166599043, 30.732183799075685]}, "properties": {"指标": "存在围护安全隐患的住宅数量（栋）", "中类": "住房", "board": "安全韧性底线"}}, {"type": "Feature", "geometry": {"type": "Point", "coordinates": [111.28376850216424, 30.694395486121504]}, "properties": {"指标": "存在围护安全隐患的住宅数量（栋）", "中类": "住房", "board": "安全韧性底线"}}, {"type": "Feature", "geometry": {"type": "Point", "coordinates": [111.29171596292245, 30.73482828601868]}, "properties": {"指标": "存在围护安全隐患的住宅数量（栋）", "中类": "住房", "board": "安全韧性底线"}}, {"type": "Feature", "geometry": {"type": "Point", "coordinates": [111.29289877745867, 30.72608459667173]}, "properties": {"指标": "存在围护安全隐患的住宅数量（栋）", "中类": "住房", "board": "安全韧性底线"}}, {"type": "Feature", "geometry": {"type": "Point", "coordinates": [111.28595256492201, 30.696545697032267]}, "properties": {"指标": "存在围护安全隐患的住宅数量（栋）", "中类": "住房", "board": "安全韧性底线"}}, {"type": "Feature", "geometry": {"type": "Point", "coordinates": [111.27434019135998, 30.724284694934763]}, "properties": {"指标": "存在围护安全隐患的住宅数量（栋）", "中类": "住房", "board": "安全韧性底线"}}, {"type": "Feature", "geometry": {"type": "Point", "coordinates": [111.27933692051751, 30.719495493079506]}, "properties": {"指标": "存在围护安全隐患的住宅数量（栋）", "中类": "住房", "board": "安全韧性底线"}}, {"type": "Feature", "geometry": {"type": "Point", "coordinates": [111.32790379770498, 30.67103033207532]}, "properties": {"指标": "存在围护安全隐患的住宅数量（栋）", "中类": "住房", "board": "安全韧性底线"}}, {"type": "Feature", "geometry": {"type": "Point", "coordinates": [111.30641482664207, 30.706716075852288]}, "properties": {"指标": "存在围护安全隐患的住宅数量（栋）", "中类": "住房", "board": "安全韧性底线"}}, {"type": "Feature", "geometry": {"type": "Point", "coordinates": [111.28951002640012, 30.6917933973706]}, "properties": {"指标": "存在围护安全隐患的住宅数量（栋）", "中类": "住房", "board": "安全韧性底线"}}, {"type": "Feature", "geometry": {"type": "Point", "coordinates": [111.29361157585484, 30.724569008298573]}, "properties": {"指标": "存在围护安全隐患的住宅数量（栋）", "中类": "住房", "board": "安全韧性底线"}}, {"type": "Feature", "geometry": {"type": "Point", "coordinates": [111.29009345121862, 30.71665639038676]}, "properties": {"指标": "存在围护安全隐患的住宅数量（栋）", "中类": "住房", "board": "安全韧性底线"}}, {"type": "Feature", "geometry": {"type": "Point", "coordinates": [111.28922718850328, 30.697682122122238]}, "properties": {"指标": "存在围护安全隐患的住宅数量（栋）", "中类": "住房", "board": "安全韧性底线"}}, {"type": "Feature", "geometry": {"type": "Point", "coordinates": [111.28968250129651, 30.69232918294301]}, "properties": {"指标": "存在围护安全隐患的住宅数量（栋）", "中类": "住房", "board": "安全韧性底线"}}, {"type": "Feature", "geometry": {"type": "Point", "coordinates": [111.29427054646919, 30.724411864843717]}, "properties": {"指标": "存在围护安全隐患的住宅数量（栋）", "中类": "住房", "board": "安全韧性底线"}}, {"type": "Feature", "geometry": {"type": "Point", "coordinates": [111.29324583577343, 30.72665171722983]}, "properties": {"指标": "存在围护安全隐患的住宅数量（栋）", "中类": "住房", "board": "安全韧性底线"}}, {"type": "Feature", "geometry": {"type": "Point", "coordinates": [111.2736707408953, 30.72266614564009]}, "properties": {"指标": "存在围护安全隐患的住宅数量（栋）", "中类": "住房", "board": "安全韧性底线"}}, {"type": "Feature", "geometry": {"type": "Point", "coordinates": [111.29750844352549, 30.73139955840672]}, "properties": {"指标": "存在围护安全隐患的住宅数量（栋）", "中类": "住房", "board": "安全韧性底线"}}, {"type": "Feature", "geometry": {"type": "Point", "coordinates": [111.29926835018941, 30.70724489695396]}, "properties": {"指标": "存在围护安全隐患的住宅数量（栋）", "中类": "住房", "board": "安全韧性底线"}}, {"type": "Feature", "geometry": {"type": "Point", "coordinates": [111.27040018253332, 30.71936940451689]}, "properties": {"指标": "存在围护安全隐患的住宅数量（栋）", "中类": "住房", "board": "安全韧性底线"}}, {"type": "Feature", "geometry": {"type": "Point", "coordinates": [111.30686628172425, 30.705553723278424]}, "properties": {"指标": "存在围护安全隐患的住宅数量（栋）", "中类": "住房", "board": "安全韧性底线"}}, {"type": "Feature", "geometry": {"type": "Point", "coordinates": [111.29700317455705, 30.709559407898336]}, "properties": {"指标": "存在围护安全隐患的住宅数量（栋）", "中类": "住房", "board": "安全韧性底线"}}, {"type": "Feature", "geometry": {"type": "Point", "coordinates": [111.27417578379782, 30.701969354582165]}, "properties": {"指标": "存在围护安全隐患的住宅数量（栋）", "中类": "住房", "board": "安全韧性底线"}}, {"type": "Feature", "geometry": {"type": "Point", "coordinates": [111.27867611534937, 30.704841662887397]}, "properties": {"指标": "存在围护安全隐患的住宅数量（栋）", "中类": "住房", "board": "安全韧性底线"}}, {"type": "Feature", "geometry": {"type": "Point", "coordinates": [111.32995304178912, 30.669000200387703]}, "properties": {"指标": "存在围护安全隐患的住宅数量（栋）", "中类": "住房", "board": "安全韧性底线"}}, {"type": "Feature", "geometry": {"type": "Point", "coordinates": [111.28645953495126, 30.717675654923926]}, "properties": {"指标": "存在围护安全隐患的住宅数量（栋）", "中类": "住房", "board": "安全韧性底线"}}, {"type": "Feature", "geometry": {"type": "Point", "coordinates": [111.28737802989507, 30.716272170299927]}, "properties": {"指标": "存在围护安全隐患的住宅数量（栋）", "中类": "住房", "board": "安全韧性底线"}}, {"type": "Feature", "geometry": {"type": "Point", "coordinates": [111.29660762676869, 30.73218591392967]}, "properties": {"指标": "存在围护安全隐患的住宅数量（栋）", "中类": "住房", "board": "安全韧性底线"}}, {"type": "Feature", "geometry": {"type": "Point", "coordinates": [111.28798232649542, 30.694919317283304]}, "properties": {"指标": "存在围护安全隐患的住宅数量（栋）", "中类": "住房", "board": "安全韧性底线"}}, {"type": "Feature", "geometry": {"type": "Point", "coordinates": [111.29375235803732, 30.72524766615506]}, "properties": {"指标": "存在围护安全隐患的住宅数量（栋）", "中类": "住房", "board": "安全韧性底线"}}, {"type": "Feature", "geometry": {"type": "Point", "coordinates": [111.29608820246956, 30.73478591453762]}, "properties": {"指标": "存在围护安全隐患的住宅数量（栋）", "中类": "住房", "board": "安全韧性底线"}}, {"type": "Feature", "geometry": {"type": "Point", "coordinates": [111.29447313956744, 30.73076883713338]}, "properties": {"指标": "存在围护安全隐患的住宅数量（栋）", "中类": "住房", "board": "安全韧性底线"}}, {"type": "Feature", "geometry": {"type": "Point", "coordinates": [111.32556426416541, 30.71347110897052]}, "properties": {"指标": "存在围护安全隐患的住宅数量（栋）", "中类": "住房", "board": "安全韧性底线"}}, {"type": "Feature", "geometry": {"type": "Point", "coordinates": [111.28661305131118, 30.726433391063875]}, "properties": {"指标": "存在围护安全隐患的住宅数量（栋）", "中类": "住房", "board": "安全韧性底线"}}, {"type": "Feature", "geometry": {"type": "Point", "coordinates": [111.3037094256695, 30.68484369558452]}, "properties": {"指标": "存在围护安全隐患的住宅数量（栋）", "中类": "住房", "board": "安全韧性底线"}}, {"type": "Feature", "geometry": {"type": "Point", "coordinates": [111.29211598022597, 30.72626462209664]}, "properties": {"指标": "存在围护安全隐患的住宅数量（栋）", "中类": "住房", "board": "安全韧性底线"}}, {"type": "Feature", "geometry": {"type": "Point", "coordinates": [111.2794122000234, 30.704001795992408]}, "properties": {"指标": "存在围护安全隐患的住宅数量（栋）", "中类": "住房", "board": "安全韧性底线"}}, {"type": "Feature", "geometry": {"type": "Point", "coordinates": [111.30108276869238, 30.74002248984924]}, "properties": {"指标": "存在围护安全隐患的住宅数量（栋）", "中类": "住房", "board": "安全韧性底线"}}, {"type": "Feature", "geometry": {"type": "Point", "coordinates": [111.3195825843242, 30.67181856918401]}, "properties": {"指标": "存在围护安全隐患的住宅数量（栋）", "中类": "住房", "board": "安全韧性底线"}}, {"type": "Feature", "geometry": {"type": "Point", "coordinates": [111.28913152285318, 30.692194196890085]}, "properties": {"指标": "存在围护安全隐患的住宅数量（栋）", "中类": "住房", "board": "安全韧性底线"}}, {"type": "Feature", "geometry": {"type": "Point", "coordinates": [111.27867591721744, 30.704842881638946]}, "properties": {"指标": "存在围护安全隐患的住宅数量（栋）", "中类": "住房", "board": "安全韧性底线"}}, {"type": "Feature", "geometry": {"type": "Point", "coordinates": [111.3175581730597, 30.673666245934164]}, "properties": {"指标": "存在围护安全隐患的住宅数量（栋）", "中类": "住房", "board": "安全韧性底线"}}, {"type": "Feature", "geometry": {"type": "Point", "coordinates": [111.27819128721192, 30.71395686414039]}, "properties": {"指标": "存在围护安全隐患的住宅数量（栋）", "中类": "住房", "board": "安全韧性底线"}}, {"type": "Feature", "geometry": {"type": "Point", "coordinates": [111.2948002869007, 30.729997711023213]}, "properties": {"指标": "存在围护安全隐患的住宅数量（栋）", "中类": "住房", "board": "安全韧性底线"}}, {"type": "Feature", "geometry": {"type": "Point", "coordinates": [111.27748791182493, 30.724784451704434]}, "properties": {"指标": "存在围护安全隐患的住宅数量（栋）", "中类": "住房", "board": "安全韧性底线"}}, {"type": "Feature", "geometry": {"type": "Point", "coordinates": [111.28338135626497, 30.710737005162116]}, "properties": {"指标": "存在围护安全隐患的住宅数量（栋）", "中类": "住房", "board": "安全韧性底线"}}, {"type": "Feature", "geometry": {"type": "Point", "coordinates": [111.32769087278355, 30.670136169499568]}, "properties": {"指标": "存在围护安全隐患的住宅数量（栋）", "中类": "住房", "board": "安全韧性底线"}}, {"type": "Feature", "geometry": {"type": "Point", "coordinates": [111.30686874670455, 30.70582146071171]}, "properties": {"指标": "存在围护安全隐患的住宅数量（栋）", "中类": "住房", "board": "安全韧性底线"}}, {"type": "Feature", "geometry": {"type": "Point", "coordinates": [111.30040701137358, 30.70750833858761]}, "properties": {"指标": "存在围护安全隐患的住宅数量（栋）", "中类": "住房", "board": "安全韧性底线"}}, {"type": "Feature", "geometry": {"type": "Point", "coordinates": [111.29472978519642, 30.709052921668512]}, "properties": {"指标": "存在围护安全隐患的住宅数量（栋）", "中类": "住房", "board": "安全韧性底线"}}, {"type": "Feature", "geometry": {"type": "Point", "coordinates": [111.29458883018535, 30.730110953587772]}, "properties": {"指标": "存在围护安全隐患的住宅数量（栋）", "中类": "住房", "board": "安全韧性底线"}}, {"type": "Feature", "geometry": {"type": "Point", "coordinates": [111.29003380116141, 30.729419915186636]}, "properties": {"指标": "存在围护安全隐患的住宅数量（栋）", "中类": "住房", "board": "安全韧性底线"}}, {"type": "Feature", "geometry": {"type": "Point", "coordinates": [111.28448028102191, 30.71682001786235]}, "properties": {"指标": "存在围护安全隐患的住宅数量（栋）", "中类": "住房", "board": "安全韧性底线"}}, {"type": "Feature", "geometry": {"type": "Point", "coordinates": [111.28945376059743, 30.699277047722344]}, "properties": {"指标": "存在围护安全隐患的住宅数量（栋）", "中类": "住房", "board": "安全韧性底线"}}, {"type": "Feature", "geometry": {"type": "Point", "coordinates": [111.28847321895698, 30.713424080362515]}, "properties": {"指标": "存在围护安全隐患的住宅数量（栋）", "中类": "住房", "board": "安全韧性底线"}}, {"type": "Feature", "geometry": {"type": "Point", "coordinates": [111.29026150677348, 30.724779941660998]}, "properties": {"指标": "存在围护安全隐患的住宅数量（栋）", "中类": "住房", "board": "安全韧性底线"}}, {"type": "Feature", "geometry": {"type": "Point", "coordinates": [111.28948579487731, 30.7300911349149]}, "properties": {"指标": "存在围护安全隐患的住宅数量（栋）", "中类": "住房", "board": "安全韧性底线"}}, {"type": "Feature", "geometry": {"type": "Point", "coordinates": [111.2883366486305, 30.715334212978327]}, "properties": {"指标": "存在围护安全隐患的住宅数量（栋）", "中类": "住房", "board": "安全韧性底线"}}, {"type": "Feature", "geometry": {"type": "Point", "coordinates": [111.32544273776116, 30.71276842200365]}, "properties": {"指标": "存在围护安全隐患的住宅数量（栋）", "中类": "住房", "board": "安全韧性底线"}}, {"type": "Feature", "geometry": {"type": "Point", "coordinates": [111.27376364932427, 30.702292317812145]}, "properties": {"指标": "存在围护安全隐患的住宅数量（栋）", "中类": "住房", "board": "安全韧性底线"}}, {"type": "Feature", "geometry": {"type": "Point", "coordinates": [111.28018575479389, 30.720279222137286]}, "properties": {"指标": "存在围护安全隐患的住宅数量（栋）", "中类": "住房", "board": "安全韧性底线"}}, {"type": "Feature", "geometry": {"type": "Point", "coordinates": [111.27933363014333, 30.703458820563544]}, "properties": {"指标": "存在围护安全隐患的住宅数量（栋）", "中类": "住房", "board": "安全韧性底线"}}, {"type": "Feature", "geometry": {"type": "Point", "coordinates": [111.27738641215686, 30.72513223293781]}, "properties": {"指标": "存在围护安全隐患的住宅数量（栋）", "中类": "住房", "board": "安全韧性底线"}}, {"type": "Feature", "geometry": {"type": "Point", "coordinates": [111.28922718850328, 30.697682122122238]}, "properties": {"指标": "存在围护安全隐患的住宅数量（栋）", "中类": "住房", "board": "安全韧性底线"}}, {"type": "Feature", "geometry": {"type": "Point", "coordinates": [111.2852645454929, 30.724602646032263]}, "properties": {"指标": "存在围护安全隐患的住宅数量（栋）", "中类": "住房", "board": "安全韧性底线"}}, {"type": "Feature", "geometry": {"type": "Point", "coordinates": [111.2768149682492, 30.72684672273511]}, "properties": {"指标": "存在围护安全隐患的住宅数量（栋）", "中类": "住房", "board": "安全韧性底线"}}, {"type": "Feature", "geometry": {"type": "Point", "coordinates": [111.28969872594776, 30.72866388462251]}, "properties": {"指标": "存在围护安全隐患的住宅数量（栋）", "中类": "住房", "board": "安全韧性底线"}}, {"type": "Feature", "geometry": {"type": "Point", "coordinates": [111.27714733155048, 30.72765075517425]}, "properties": {"指标": "存在围护安全隐患的住宅数量（栋）", "中类": "住房", "board": "安全韧性底线"}}, {"type": "Feature", "geometry": {"type": "Point", "coordinates": [111.34317473584427, 30.66104270215859]}, "properties": {"指标": "存在围护安全隐患的住宅数量（栋）", "中类": "住房", "board": "安全韧性底线"}}, {"type": "Feature", "geometry": {"type": "Point", "coordinates": [111.28392959680365, 30.723614484367257]}, "properties": {"指标": "存在围护安全隐患的住宅数量（栋）", "中类": "住房", "board": "安全韧性底线"}}, {"type": "Feature", "geometry": {"type": "Point", "coordinates": [111.28846312723074, 30.713636729844357]}, "properties": {"指标": "存在围护安全隐患的住宅数量（栋）", "中类": "住房", "board": "安全韧性底线"}}, {"type": "Feature", "geometry": {"type": "Point", "coordinates": [111.28970436674534, 30.718046936002818]}, "properties": {"指标": "存在围护安全隐患的住宅数量（栋）", "中类": "住房", "board": "安全韧性底线"}}, {"type": "Feature", "geometry": {"type": "Point", "coordinates": [111.3360688779438, 30.725604227278595]}, "properties": {"指标": "存在围护安全隐患的住宅数量（栋）", "中类": "住房", "board": "安全韧性底线"}}, {"type": "Feature", "geometry": {"type": "Point", "coordinates": [111.28945376059743, 30.699277047722344]}, "properties": {"指标": "存在围护安全隐患的住宅数量（栋）", "中类": "住房", "board": "安全韧性底线"}}, {"type": "Feature", "geometry": {"type": "Point", "coordinates": [111.29426979674993, 30.724686517114137]}, "properties": {"指标": "存在围护安全隐患的住宅数量（栋）", "中类": "住房", "board": "安全韧性底线"}}, {"type": "Feature", "geometry": {"type": "Point", "coordinates": [111.29029985031858, 30.720159504886272]}, "properties": {"指标": "存在围护安全隐患的住宅数量（栋）", "中类": "住房", "board": "安全韧性底线"}}, {"type": "Feature", "geometry": {"type": "Point", "coordinates": [111.28668200307305, 30.70746595256647]}, "properties": {"指标": "存在围护安全隐患的住宅数量（栋）", "中类": "住房", "board": "安全韧性底线"}}, {"type": "Feature", "geometry": {"type": "Point", "coordinates": [111.28909142774687, 30.691827250329286]}, "properties": {"指标": "存在围护安全隐患的住宅数量（栋）", "中类": "住房", "board": "安全韧性底线"}}, {"type": "Feature", "geometry": {"type": "Point", "coordinates": [111.2766965224859, 30.723740140095664]}, "properties": {"指标": "存在围护安全隐患的住宅数量（栋）", "中类": "住房", "board": "安全韧性底线"}}, {"type": "Feature", "geometry": {"type": "Point", "coordinates": [111.29805105593982, 30.73554055670451]}, "properties": {"指标": "存在围护安全隐患的住宅数量（栋）", "中类": "住房", "board": "安全韧性底线"}}, {"type": "Feature", "geometry": {"type": "Point", "coordinates": [111.29375764367539, 30.72496282962545]}, "properties": {"指标": "存在围护安全隐患的住宅数量（栋）", "中类": "住房", "board": "安全韧性底线"}}, {"type": "Feature", "geometry": {"type": "Point", "coordinates": [111.31379283774787, 30.673854974377917]}, "properties": {"指标": "存在围护安全隐患的住宅数量（栋）", "中类": "住房", "board": "安全韧性底线"}}, {"type": "Feature", "geometry": {"type": "Point", "coordinates": [111.27652215913025, 30.723381218762075]}, "properties": {"指标": "存在围护安全隐患的住宅数量（栋）", "中类": "住房", "board": "安全韧性底线"}}, {"type": "Feature", "geometry": {"type": "Point", "coordinates": [111.28452568080063, 30.724504342757736]}, "properties": {"指标": "存在围护安全隐患的住宅数量（栋）", "中类": "住房", "board": "安全韧性底线"}}, {"type": "Feature", "geometry": {"type": "Point", "coordinates": [111.32942715347845, 30.669810709857668]}, "properties": {"指标": "存在围护安全隐患的住宅数量（栋）", "中类": "住房", "board": "安全韧性底线"}}, {"type": "Feature", "geometry": {"type": "Point", "coordinates": [111.29358038121622, 30.726679175799887]}, "properties": {"指标": "存在围护安全隐患的住宅数量（栋）", "中类": "住房", "board": "安全韧性底线"}}, {"type": "Feature", "geometry": {"type": "Point", "coordinates": [111.28963270446948, 30.71988186437679]}, "properties": {"指标": "存在围护安全隐患的住宅数量（栋）", "中类": "住房", "board": "安全韧性底线"}}, {"type": "Feature", "geometry": {"type": "Point", "coordinates": [111.28793317397341, 30.71804112677371]}, "properties": {"指标": "存在围护安全隐患的住宅数量（栋）", "中类": "住房", "board": "安全韧性底线"}}, {"type": "Feature", "geometry": {"type": "Point", "coordinates": [111.30711625907756, 30.706352042988186]}, "properties": {"指标": "存在围护安全隐患的住宅数量（栋）", "中类": "住房", "board": "安全韧性底线"}}, {"type": "Feature", "geometry": {"type": "Point", "coordinates": [111.28878610795464, 30.72512853445563]}, "properties": {"指标": "存在围护安全隐患的住宅数量（栋）", "中类": "住房", "board": "安全韧性底线"}}, {"type": "Feature", "geometry": {"type": "Point", "coordinates": [111.30862672661262, 30.705562738320523]}, "properties": {"指标": "存在围护安全隐患的住宅数量（栋）", "中类": "住房", "board": "安全韧性底线"}}, {"type": "Feature", "geometry": {"type": "Point", "coordinates": [111.29427054646919, 30.724411864843717]}, "properties": {"指标": "存在围护安全隐患的住宅数量（栋）", "中类": "住房", "board": "安全韧性底线"}}, {"type": "Feature", "geometry": {"type": "Point", "coordinates": [111.27777100080708, 30.72764881870222]}, "properties": {"指标": "存在围护安全隐患的住宅数量（栋）", "中类": "住房", "board": "安全韧性底线"}}, {"type": "Feature", "geometry": {"type": "Point", "coordinates": [111.29493010281107, 30.70772582351219]}, "properties": {"指标": "存在围护安全隐患的住宅数量（栋）", "中类": "住房", "board": "安全韧性底线"}}, {"type": "Feature", "geometry": {"type": "Point", "coordinates": [111.32694233268212, 30.669185228774705]}, "properties": {"指标": "存在围护安全隐患的住宅数量（栋）", "中类": "住房", "board": "安全韧性底线"}}, {"type": "Feature", "geometry": {"type": "Point", "coordinates": [111.2802767914058, 30.72042991366586]}, "properties": {"指标": "存在围护安全隐患的住宅数量（栋）", "中类": "住房", "board": "安全韧性底线"}}, {"type": "Feature", "geometry": {"type": "Point", "coordinates": [111.2918997782277, 30.717788334139104]}, "properties": {"指标": "存在围护安全隐患的住宅数量（栋）", "中类": "住房", "board": "安全韧性底线"}}, {"type": "Feature", "geometry": {"type": "Point", "coordinates": [111.31081337485608, 30.704411258219768]}, "properties": {"指标": "存在围护安全隐患的住宅数量（栋）", "中类": "住房", "board": "安全韧性底线"}}, {"type": "Feature", "geometry": {"type": "Point", "coordinates": [111.29140519865187, 30.71067122922896]}, "properties": {"指标": "存在围护安全隐患的住宅数量（栋）", "中类": "住房", "board": "安全韧性底线"}}, {"type": "Feature", "geometry": {"type": "Point", "coordinates": [111.28895831717618, 30.702638461144524]}, "properties": {"指标": "存在围护安全隐患的住宅数量（栋）", "中类": "住房", "board": "安全韧性底线"}}, {"type": "Feature", "geometry": {"type": "Point", "coordinates": [111.30864535905587, 30.706197154279643]}, "properties": {"指标": "存在围护安全隐患的住宅数量（栋）", "中类": "住房", "board": "安全韧性底线"}}, {"type": "Feature", "geometry": {"type": "Point", "coordinates": [111.29055866193822, 30.70103095459656]}, "properties": {"指标": "存在围护安全隐患的住宅数量（栋）", "中类": "住房", "board": "安全韧性底线"}}, {"type": "Feature", "geometry": {"type": "Point", "coordinates": [111.30686874670455, 30.70582146071171]}, "properties": {"指标": "存在围护安全隐患的住宅数量（栋）", "中类": "住房", "board": "安全韧性底线"}}, {"type": "Feature", "geometry": {"type": "Point", "coordinates": [111.2860848290818, 30.716396978765484]}, "properties": {"指标": "存在围护安全隐患的住宅数量（栋）", "中类": "住房", "board": "安全韧性底线"}}, {"type": "Feature", "geometry": {"type": "Point", "coordinates": [111.2879042128206, 30.694437722869566]}, "properties": {"指标": "存在围护安全隐患的住宅数量（栋）", "中类": "住房", "board": "安全韧性底线"}}, {"type": "Feature", "geometry": {"type": "Point", "coordinates": [111.28924458793124, 30.724488094427304]}, "properties": {"指标": "存在围护安全隐患的住宅数量（栋）", "中类": "住房", "board": "安全韧性底线"}}, {"type": "Feature", "geometry": {"type": "Point", "coordinates": [111.29317572409282, 30.72705687227951]}, "properties": {"指标": "存在围护安全隐患的住宅数量（栋）", "中类": "住房", "board": "安全韧性底线"}}, {"type": "Feature", "geometry": {"type": "Point", "coordinates": [111.29679270046216, 30.734051203260933]}, "properties": {"指标": "存在围护安全隐患的住宅数量（栋）", "中类": "住房", "board": "安全韧性底线"}}, {"type": "Feature", "geometry": {"type": "Point", "coordinates": [111.29291629168371, 30.691183114109684]}, "properties": {"指标": "存在围护安全隐患的住宅数量（栋）", "中类": "住房", "board": "安全韧性底线"}}, {"type": "Feature", "geometry": {"type": "Point", "coordinates": [111.29211178502045, 30.72939204510834]}, "properties": {"指标": "存在围护安全隐患的住宅数量（栋）", "中类": "住房", "board": "安全韧性底线"}}, {"type": "Feature", "geometry": {"type": "Point", "coordinates": [111.28645953495126, 30.717675654923926]}, "properties": {"指标": "存在围护安全隐患的住宅数量（栋）", "中类": "住房", "board": "安全韧性底线"}}, {"type": "Feature", "geometry": {"type": "Point", "coordinates": [111.29013406221085, 30.69601904245169]}, "properties": {"指标": "存在围护安全隐患的住宅数量（栋）", "中类": "住房", "board": "安全韧性底线"}}, {"type": "Feature", "geometry": {"type": "Point", "coordinates": [111.29087394146258, 30.70050846848904]}, "properties": {"指标": "存在围护安全隐患的住宅数量（栋）", "中类": "住房", "board": "安全韧性底线"}}, {"type": "Feature", "geometry": {"type": "Point", "coordinates": [111.29269711241854, 30.726618830826105]}, "properties": {"指标": "存在围护安全隐患的住宅数量（栋）", "中类": "住房", "board": "安全韧性底线"}}, {"type": "Feature", "geometry": {"type": "Point", "coordinates": [111.2803849268639, 30.720576448075878]}, "properties": {"指标": "存在围护安全隐患的住宅数量（栋）", "中类": "住房", "board": "安全韧性底线"}}, {"type": "Feature", "geometry": {"type": "Point", "coordinates": [111.28882004630118, 30.732496976781853]}, "properties": {"指标": "存在围护安全隐患的住宅数量（栋）", "中类": "住房", "board": "安全韧性底线"}}, {"type": "Feature", "geometry": {"type": "Point", "coordinates": [111.28211775500083, 30.72271603910556]}, "properties": {"指标": "存在围护安全隐患的住宅数量（栋）", "中类": "住房", "board": "安全韧性底线"}}, {"type": "Feature", "geometry": {"type": "Point", "coordinates": [111.27560533662964, 30.727928620808235]}, "properties": {"指标": "存在围护安全隐患的住宅数量（栋）", "中类": "住房", "board": "安全韧性底线"}}, {"type": "Feature", "geometry": {"type": "Point", "coordinates": [111.28752536655107, 30.698197916889185]}, "properties": {"指标": "存在围护安全隐患的住宅数量（栋）", "中类": "住房", "board": "安全韧性底线"}}, {"type": "Feature", "geometry": {"type": "Point", "coordinates": [111.28628558302835, 30.716992995590125]}, "properties": {"指标": "存在围护安全隐患的住宅数量（栋）", "中类": "住房", "board": "安全韧性底线"}}, {"type": "Feature", "geometry": {"type": "Point", "coordinates": [111.29314339719883, 30.69215348246679]}, "properties": {"指标": "存在围护安全隐患的住宅数量（栋）", "中类": "住房", "board": "安全韧性底线"}}, {"type": "Feature", "geometry": {"type": "Point", "coordinates": [111.28589465986339, 30.72627216064812]}, "properties": {"指标": "存在围护安全隐患的住宅数量（栋）", "中类": "住房", "board": "安全韧性底线"}}, {"type": "Feature", "geometry": {"type": "Point", "coordinates": [111.29970987909333, 30.707353121615636]}, "properties": {"指标": "存在围护安全隐患的住宅数量（栋）", "中类": "住房", "board": "安全韧性底线"}}, {"type": "Feature", "geometry": {"type": "Point", "coordinates": [111.28995310692457, 30.729111804152133]}, "properties": {"指标": "存在围护安全隐患的住宅数量（栋）", "中类": "住房", "board": "安全韧性底线"}}, {"type": "Feature", "geometry": {"type": "Point", "coordinates": [111.32504021493948, 30.668891825262687]}, "properties": {"指标": "存在围护安全隐患的住宅数量（栋）", "中类": "住房", "board": "安全韧性底线"}}, {"type": "Feature", "geometry": {"type": "Point", "coordinates": [111.29501417364938, 30.696877200278998]}, "properties": {"指标": "存在围护安全隐患的住宅数量（栋）", "中类": "住房", "board": "安全韧性底线"}}, {"type": "Feature", "geometry": {"type": "Point", "coordinates": [111.35702935371282, 30.64147803952371]}, "properties": {"指标": "存在围护安全隐患的住宅数量（栋）", "中类": "住房", "board": "安全韧性底线"}}, {"type": "Feature", "geometry": {"type": "Point", "coordinates": [111.27647796324092, 30.714896788628284]}, "properties": {"指标": "存在围护安全隐患的住宅数量（栋）", "中类": "住房", "board": "安全韧性底线"}}, {"type": "Feature", "geometry": {"type": "Point", "coordinates": [111.30583186671502, 30.706412160974452]}, "properties": {"指标": "存在围护安全隐患的住宅数量（栋）", "中类": "住房", "board": "安全韧性底线"}}, {"type": "Feature", "geometry": {"type": "Point", "coordinates": [111.29348136692414, 30.72612694747998]}, "properties": {"指标": "存在围护安全隐患的住宅数量（栋）", "中类": "住房", "board": "安全韧性底线"}}, {"type": "Feature", "geometry": {"type": "Point", "coordinates": [111.29624545656236, 30.73164683354655]}, "properties": {"指标": "存在围护安全隐患的住宅数量（栋）", "中类": "住房", "board": "安全韧性底线"}}, {"type": "Feature", "geometry": {"type": "Point", "coordinates": [111.34036334618375, 30.650035820090086]}, "properties": {"指标": "存在围护安全隐患的住宅数量（栋）", "中类": "住房", "board": "安全韧性底线"}}, {"type": "Feature", "geometry": {"type": "Point", "coordinates": [111.28885798330516, 30.691076773133926]}, "properties": {"指标": "存在围护安全隐患的住宅数量（栋）", "中类": "住房", "board": "安全韧性底线"}}, {"type": "Feature", "geometry": {"type": "Point", "coordinates": [111.288923390536, 30.69584558840784]}, "properties": {"指标": "存在围护安全隐患的住宅数量（栋）", "中类": "住房", "board": "安全韧性底线"}}, {"type": "Feature", "geometry": {"type": "Point", "coordinates": [111.32366424532557, 30.722757574817997]}, "properties": {"指标": "存在围护安全隐患的住宅数量（栋）", "中类": "住房", "board": "安全韧性底线"}}, {"type": "Feature", "geometry": {"type": "Point", "coordinates": [111.27918867838113, 30.704437140258566]}, "properties": {"指标": "存在围护安全隐患的住宅数量（栋）", "中类": "住房", "board": "安全韧性底线"}}, {"type": "Feature", "geometry": {"type": "Point", "coordinates": [111.27779206281501, 30.718153025162223]}, "properties": {"指标": "存在围护安全隐患的住宅数量（栋）", "中类": "住房", "board": "安全韧性底线"}}, {"type": "Feature", "geometry": {"type": "Point", "coordinates": [111.29350181055486, 30.725687745511028]}, "properties": {"指标": "存在围护安全隐患的住宅数量（栋）", "中类": "住房", "board": "安全韧性底线"}}, {"type": "Feature", "geometry": {"type": "Point", "coordinates": [111.29571872449264, 30.696841397055188]}, "properties": {"指标": "存在围护安全隐患的住宅数量（栋）", "中类": "住房", "board": "安全韧性底线"}}, {"type": "Feature", "geometry": {"type": "Point", "coordinates": [111.29344325635064, 30.70850884717737]}, "properties": {"指标": "存在围护安全隐患的住宅数量（栋）", "中类": "住房", "board": "安全韧性底线"}}, {"type": "Feature", "geometry": {"type": "Point", "coordinates": [111.30589724204683, 30.706692592281414]}, "properties": {"指标": "存在围护安全隐患的住宅数量（栋）", "中类": "住房", "board": "安全韧性底线"}}, {"type": "Feature", "geometry": {"type": "Point", "coordinates": [111.3548691727639, 30.652033915783953]}, "properties": {"指标": "存在围护安全隐患的住宅数量（栋）", "中类": "住房", "board": "安全韧性底线"}}, {"type": "Feature", "geometry": {"type": "Point", "coordinates": [111.32581475197354, 30.71303796491216]}, "properties": {"指标": "存在围护安全隐患的住宅数量（栋）", "中类": "住房", "board": "安全韧性底线"}}, {"type": "Feature", "geometry": {"type": "Point", "coordinates": [111.28730857593068, 30.69513469216177]}, "properties": {"指标": "存在围护安全隐患的住宅数量（栋）", "中类": "住房", "board": "安全韧性底线"}}, {"type": "Feature", "geometry": {"type": "Point", "coordinates": [111.31041838769113, 30.70620952199586]}, "properties": {"指标": "存在围护安全隐患的住宅数量（栋）", "中类": "住房", "board": "安全韧性底线"}}, {"type": "Feature", "geometry": {"type": "Point", "coordinates": [111.28468248766029, 30.717155453997293]}, "properties": {"指标": "存在围护安全隐患的住宅数量（栋）", "中类": "住房", "board": "安全韧性底线"}}, {"type": "Feature", "geometry": {"type": "Point", "coordinates": [111.29272153548168, 30.72633090033462]}, "properties": {"指标": "存在围护安全隐患的住宅数量（栋）", "中类": "住房", "board": "安全韧性底线"}}, {"type": "Feature", "geometry": {"type": "Point", "coordinates": [111.28844730534601, 30.720570891553063]}, "properties": {"指标": "存在围护安全隐患的住宅数量（栋）", "中类": "住房", "board": "安全韧性底线"}}, {"type": "Feature", "geometry": {"type": "Point", "coordinates": [111.28987322843558, 30.719274392739855]}, "properties": {"指标": "存在围护安全隐患的住宅数量（栋）", "中类": "住房", "board": "安全韧性底线"}}, {"type": "Feature", "geometry": {"type": "Point", "coordinates": [111.29443008267687, 30.73174133472665]}, "properties": {"指标": "存在围护安全隐患的住宅数量（栋）", "中类": "住房", "board": "安全韧性底线"}}, {"type": "Feature", "geometry": {"type": "Point", "coordinates": [111.28977250699678, 30.720427869783425]}, "properties": {"指标": "存在围护安全隐患的住宅数量（栋）", "中类": "住房", "board": "安全韧性底线"}}, {"type": "Feature", "geometry": {"type": "Point", "coordinates": [111.29003400024561, 30.722653494790297]}, "properties": {"指标": "存在围护安全隐患的住宅数量（栋）", "中类": "住房", "board": "安全韧性底线"}}, {"type": "Feature", "geometry": {"type": "Point", "coordinates": [111.32713671429592, 30.670147770203723]}, "properties": {"指标": "存在围护安全隐患的住宅数量（栋）", "中类": "住房", "board": "安全韧性底线"}}, {"type": "Feature", "geometry": {"type": "Point", "coordinates": [111.29771245119483, 30.696661783073385]}, "properties": {"指标": "存在围护安全隐患的住宅数量（栋）", "中类": "住房", "board": "安全韧性底线"}}, {"type": "Feature", "geometry": {"type": "Point", "coordinates": [111.3086237510338, 30.704999833973467]}, "properties": {"指标": "存在围护安全隐患的住宅数量（栋）", "中类": "住房", "board": "安全韧性底线"}}, {"type": "Feature", "geometry": {"type": "Point", "coordinates": [111.28512864711998, 30.71818767303377]}, "properties": {"指标": "存在围护安全隐患的住宅数量（栋）", "中类": "住房", "board": "安全韧性底线"}}, {"type": "Feature", "geometry": {"type": "Point", "coordinates": [111.27557926078251, 30.724890739754457]}, "properties": {"指标": "存在围护安全隐患的住宅数量（栋）", "中类": "住房", "board": "安全韧性底线"}}, {"type": "Feature", "geometry": {"type": "Point", "coordinates": [111.27569327789082, 30.724506238881446]}, "properties": {"指标": "存在围护安全隐患的住宅数量（栋）", "中类": "住房", "board": "安全韧性底线"}}, {"type": "Feature", "geometry": {"type": "Point", "coordinates": [111.28773395836726, 30.69675530584112]}, "properties": {"指标": "存在围护安全隐患的住宅数量（栋）", "中类": "住房", "board": "安全韧性底线"}}, {"type": "Feature", "geometry": {"type": "Point", "coordinates": [111.30887140742487, 30.689925943852852]}, "properties": {"指标": "存在围护安全隐患的住宅数量（栋）", "中类": "住房", "board": "安全韧性底线"}}, {"type": "Feature", "geometry": {"type": "Point", "coordinates": [111.27846602444468, 30.729614910569857]}, "properties": {"指标": "存在围护安全隐患的住宅数量（栋）", "中类": "住房", "board": "安全韧性底线"}}, {"type": "Feature", "geometry": {"type": "Point", "coordinates": [111.27621217457622, 30.729076851168138]}, "properties": {"指标": "存在围护安全隐患的住宅数量（栋）", "中类": "住房", "board": "安全韧性底线"}}, {"type": "Feature", "geometry": {"type": "Point", "coordinates": [111.30622427373316, 30.70696296922085]}, "properties": {"指标": "存在围护安全隐患的住宅数量（栋）", "中类": "住房", "board": "安全韧性底线"}}, {"type": "Feature", "geometry": {"type": "Point", "coordinates": [111.28792758314117, 30.717605531624205]}, "properties": {"指标": "存在围护安全隐患的住宅数量（栋）", "中类": "住房", "board": "安全韧性底线"}}, {"type": "Feature", "geometry": {"type": "Point", "coordinates": [111.2868871941522, 30.716156606680407]}, "properties": {"指标": "存在围护安全隐患的住宅数量（栋）", "中类": "住房", "board": "安全韧性底线"}}, {"type": "Feature", "geometry": {"type": "Point", "coordinates": [111.2913435260644, 30.695293223555705]}, "properties": {"指标": "存在围护安全隐患的住宅数量（栋）", "中类": "住房", "board": "安全韧性底线"}}, {"type": "Feature", "geometry": {"type": "Point", "coordinates": [111.27261300994529, 30.723311766476215]}, "properties": {"指标": "存在围护安全隐患的住宅数量（栋）", "中类": "住房", "board": "安全韧性底线"}}, {"type": "Feature", "geometry": {"type": "Point", "coordinates": [111.31044193549867, 30.732403511222948]}, "properties": {"指标": "存在围护安全隐患的住宅数量（栋）", "中类": "住房", "board": "安全韧性底线"}}, {"type": "Feature", "geometry": {"type": "Point", "coordinates": [111.34260157387264, 30.659595536488837]}, "properties": {"指标": "存在围护安全隐患的住宅数量（栋）", "中类": "住房", "board": "安全韧性底线"}}, {"type": "Feature", "geometry": {"type": "Point", "coordinates": [111.29336879115972, 30.726374580458792]}, "properties": {"指标": "存在围护安全隐患的住宅数量（栋）", "中类": "住房", "board": "安全韧性底线"}}, {"type": "Feature", "geometry": {"type": "Point", "coordinates": [111.2946754671618, 30.694514698440507]}, "properties": {"指标": "存在围护安全隐患的住宅数量（栋）", "中类": "住房", "board": "安全韧性底线"}}, {"type": "Feature", "geometry": {"type": "Point", "coordinates": [111.30175539597361, 30.705884510972663]}, "properties": {"指标": "存在围护安全隐患的住宅数量（栋）", "中类": "住房", "board": "安全韧性底线"}}, {"type": "Feature", "geometry": {"type": "Point", "coordinates": [111.29050932722348, 30.694133697946505]}, "properties": {"指标": "存在围护安全隐患的住宅数量（栋）", "中类": "住房", "board": "安全韧性底线"}}, {"type": "Feature", "geometry": {"type": "Point", "coordinates": [111.308452446969, 30.707072977229043]}, "properties": {"指标": "存在围护安全隐患的住宅数量（栋）", "中类": "住房", "board": "安全韧性底线"}}, {"type": "Feature", "geometry": {"type": "Point", "coordinates": [111.29211908930995, 30.726879332659433]}, "properties": {"指标": "存在围护安全隐患的住宅数量（栋）", "中类": "住房", "board": "安全韧性底线"}}, {"type": "Feature", "geometry": {"type": "Point", "coordinates": [111.3360688779438, 30.725604227278595]}, "properties": {"指标": "存在围护安全隐患的住宅数量（栋）", "中类": "住房", "board": "安全韧性底线"}}, {"type": "Feature", "geometry": {"type": "Point", "coordinates": [111.29269711241854, 30.726618830826105]}, "properties": {"指标": "存在围护安全隐患的住宅数量（栋）", "中类": "住房", "board": "安全韧性底线"}}, {"type": "Feature", "geometry": {"type": "Point", "coordinates": [111.27665601404607, 30.714318811188242]}, "properties": {"指标": "存在围护安全隐患的住宅数量（栋）", "中类": "住房", "board": "安全韧性底线"}}, {"type": "Feature", "geometry": {"type": "Point", "coordinates": [111.30642070557406, 30.706401692009354]}, "properties": {"指标": "存在围护安全隐患的住宅数量（栋）", "中类": "住房", "board": "安全韧性底线"}}, {"type": "Feature", "geometry": {"type": "Point", "coordinates": [111.34286081934908, 30.65992385536911]}, "properties": {"指标": "存在围护安全隐患的住宅数量（栋）", "中类": "住房", "board": "安全韧性底线"}}, {"type": "Feature", "geometry": {"type": "Point", "coordinates": [111.29830206319609, 30.732265919893972]}, "properties": {"指标": "存在围护安全隐患的住宅数量（栋）", "中类": "住房", "board": "安全韧性底线"}}, {"type": "Feature", "geometry": {"type": "Point", "coordinates": [111.27791139076994, 30.727594903522647]}, "properties": {"指标": "存在围护安全隐患的住宅数量（栋）", "中类": "住房", "board": "安全韧性底线"}}, {"type": "Feature", "geometry": {"type": "Point", "coordinates": [111.29269711241854, 30.726618830826105]}, "properties": {"指标": "存在围护安全隐患的住宅数量（栋）", "中类": "住房", "board": "安全韧性底线"}}, {"type": "Feature", "geometry": {"type": "Point", "coordinates": [111.30921349884719, 30.707947556867275]}, "properties": {"指标": "存在围护安全隐患的住宅数量（栋）", "中类": "住房", "board": "安全韧性底线"}}, {"type": "Feature", "geometry": {"type": "Point", "coordinates": [111.27541874598906, 30.72441498600128]}, "properties": {"指标": "存在围护安全隐患的住宅数量（栋）", "中类": "住房", "board": "安全韧性底线"}}, {"type": "Feature", "geometry": {"type": "Point", "coordinates": [111.29503790489727, 30.73160970995917]}, "properties": {"指标": "存在围护安全隐患的住宅数量（栋）", "中类": "住房", "board": "安全韧性底线"}}, {"type": "Feature", "geometry": {"type": "Point", "coordinates": [111.34708776467579, 30.649051868000125]}, "properties": {"指标": "存在围护安全隐患的住宅数量（栋）", "中类": "住房", "board": "安全韧性底线"}}, {"type": "Feature", "geometry": {"type": "Point", "coordinates": [111.30624236116404, 30.709049729187996]}, "properties": {"指标": "存在围护安全隐患的住宅数量（栋）", "中类": "住房", "board": "安全韧性底线"}}, {"type": "Feature", "geometry": {"type": "Point", "coordinates": [111.32770175712656, 30.670464879807792]}, "properties": {"指标": "存在围护安全隐患的住宅数量（栋）", "中类": "住房", "board": "安全韧性底线"}}, {"type": "Feature", "geometry": {"type": "Point", "coordinates": [111.27934682412064, 30.70260186824715]}, "properties": {"指标": "存在围护安全隐患的住宅数量（栋）", "中类": "住房", "board": "安全韧性底线"}}, {"type": "Feature", "geometry": {"type": "Point", "coordinates": [111.29370025072741, 30.726939276562423]}, "properties": {"指标": "存在围护安全隐患的住宅数量（栋）", "中类": "住房", "board": "安全韧性底线"}}, {"type": "Feature", "geometry": {"type": "Point", "coordinates": [111.2899151172236, 30.70148527324513]}, "properties": {"指标": "存在围护安全隐患的住宅数量（栋）", "中类": "住房", "board": "安全韧性底线"}}, {"type": "Feature", "geometry": {"type": "Point", "coordinates": [111.27736135511036, 30.72669375866151]}, "properties": {"指标": "存在围护安全隐患的住宅数量（栋）", "中类": "住房", "board": "安全韧性底线"}}, {"type": "Feature", "geometry": {"type": "Point", "coordinates": [111.29975385485162, 30.696047199330028]}, "properties": {"指标": "存在围护安全隐患的住宅数量（栋）", "中类": "住房", "board": "安全韧性底线"}}, {"type": "Feature", "geometry": {"type": "Point", "coordinates": [111.28675129077641, 30.716583645720338]}, "properties": {"指标": "存在围护安全隐患的住宅数量（栋）", "中类": "住房", "board": "安全韧性底线"}}, {"type": "Feature", "geometry": {"type": "Point", "coordinates": [111.28963918426733, 30.708202085321687]}, "properties": {"指标": "存在围护安全隐患的住宅数量（栋）", "中类": "住房", "board": "安全韧性底线"}}, {"type": "Feature", "geometry": {"type": "Point", "coordinates": [111.29770516962134, 30.731759834991866]}, "properties": {"指标": "存在围护安全隐患的住宅数量（栋）", "中类": "住房", "board": "安全韧性底线"}}, {"type": "Feature", "geometry": {"type": "Point", "coordinates": [111.28988496481999, 30.718798031590367]}, "properties": {"指标": "存在围护安全隐患的住宅数量（栋）", "中类": "住房", "board": "安全韧性底线"}}, {"type": "Feature", "geometry": {"type": "Point", "coordinates": [111.32844280423923, 30.67080737804158]}, "properties": {"指标": "存在围护安全隐患的住宅数量（栋）", "中类": "住房", "board": "安全韧性底线"}}, {"type": "Feature", "geometry": {"type": "Point", "coordinates": [111.28799443244739, 30.71384960815754]}, "properties": {"指标": "存在围护安全隐患的住宅数量（栋）", "中类": "住房", "board": "安全韧性底线"}}, {"type": "Feature", "geometry": {"type": "Point", "coordinates": [111.28628558302835, 30.716992995590125]}, "properties": {"指标": "存在围护安全隐患的住宅数量（栋）", "中类": "住房", "board": "安全韧性底线"}}, {"type": "Feature", "geometry": {"type": "Point", "coordinates": [111.29636734890583, 30.735213788055262]}, "properties": {"指标": "存在围护安全隐患的住宅数量（栋）", "中类": "住房", "board": "安全韧性底线"}}, {"type": "Feature", "geometry": {"type": "Point", "coordinates": [111.27748316344193, 30.726933833125422]}, "properties": {"指标": "存在围护安全隐患的住宅数量（栋）", "中类": "住房", "board": "安全韧性底线"}}, {"type": "Feature", "geometry": {"type": "Point", "coordinates": [111.29688012898187, 30.728134880281456]}, "properties": {"指标": "存在围护安全隐患的住宅数量（栋）", "中类": "住房", "board": "安全韧性底线"}}, {"type": "Feature", "geometry": {"type": "Point", "coordinates": [111.2769150174878, 30.727088793249518]}, "properties": {"指标": "存在围护安全隐患的住宅数量（栋）", "中类": "住房", "board": "安全韧性底线"}}, {"type": "Feature", "geometry": {"type": "Point", "coordinates": [111.29505221810456, 30.73163509687088]}, "properties": {"指标": "存在围护安全隐患的住宅数量（栋）", "中类": "住房", "board": "安全韧性底线"}}, {"type": "Feature", "geometry": {"type": "Point", "coordinates": [111.3075998702819, 30.708583450051208]}, "properties": {"指标": "存在围护安全隐患的住宅数量（栋）", "中类": "住房", "board": "安全韧性底线"}}, {"type": "Feature", "geometry": {"type": "Point", "coordinates": [111.2705774310014, 30.719762171132402]}, "properties": {"指标": "存在围护安全隐患的住宅数量（栋）", "中类": "住房", "board": "安全韧性底线"}}, {"type": "Feature", "geometry": {"type": "Point", "coordinates": [111.27862081498768, 30.70403377106606]}, "properties": {"指标": "存在围护安全隐患的住宅数量（栋）", "中类": "住房", "board": "安全韧性底线"}}, {"type": "Feature", "geometry": {"type": "Point", "coordinates": [111.28686738554083, 30.695720084939502]}, "properties": {"指标": "存在围护安全隐患的住宅数量（栋）", "中类": "住房", "board": "安全韧性底线"}}, {"type": "Feature", "geometry": {"type": "Point", "coordinates": [111.29625935410098, 30.732131326637578]}, "properties": {"指标": "存在围护安全隐患的住宅数量（栋）", "中类": "住房", "board": "安全韧性底线"}}, {"type": "Feature", "geometry": {"type": "Point", "coordinates": [111.27892776480316, 30.702186789730153]}, "properties": {"指标": "存在围护安全隐患的住宅数量（栋）", "中类": "住房", "board": "安全韧性底线"}}, {"type": "Feature", "geometry": {"type": "Point", "coordinates": [111.28710079339047, 30.697196205856528]}, "properties": {"指标": "存在围护安全隐患的住宅数量（栋）", "中类": "住房", "board": "安全韧性底线"}}, {"type": "Feature", "geometry": {"type": "Point", "coordinates": [111.29386070997478, 30.70764723860637]}, "properties": {"指标": "存在围护安全隐患的住宅数量（栋）", "中类": "住房", "board": "安全韧性底线"}}, {"type": "Feature", "geometry": {"type": "Point", "coordinates": [111.28403914283373, 30.717662875579606]}, "properties": {"指标": "存在围护安全隐患的住宅数量（栋）", "中类": "住房", "board": "安全韧性底线"}}, {"type": "Feature", "geometry": {"type": "Point", "coordinates": [111.28872112155405, 30.69291591271903]}, "properties": {"指标": "存在围护安全隐患的住宅数量（栋）", "中类": "住房", "board": "安全韧性底线"}}, {"type": "Feature", "geometry": {"type": "Point", "coordinates": [111.28808763325229, 30.692541413207934]}, "properties": {"指标": "存在围护安全隐患的住宅数量（栋）", "中类": "住房", "board": "安全韧性底线"}}, {"type": "Feature", "geometry": {"type": "Point", "coordinates": [111.28003896873388, 30.704595738867255]}, "properties": {"指标": "存在围护安全隐患的住宅数量（栋）", "中类": "住房", "board": "安全韧性底线"}}, {"type": "Feature", "geometry": {"type": "Point", "coordinates": [111.34609692233421, 30.649268754616255]}, "properties": {"指标": "存在围护安全隐患的住宅数量（栋）", "中类": "住房", "board": "安全韧性底线"}}, {"type": "Feature", "geometry": {"type": "Point", "coordinates": [111.27988339248789, 30.70500237733354]}, "properties": {"指标": "存在围护安全隐患的住宅数量（栋）", "中类": "住房", "board": "安全韧性底线"}}, {"type": "Feature", "geometry": {"type": "Point", "coordinates": [111.29375764367539, 30.72496282962545]}, "properties": {"指标": "存在围护安全隐患的住宅数量（栋）", "中类": "住房", "board": "安全韧性底线"}}, {"type": "Feature", "geometry": {"type": "Point", "coordinates": [111.29445331713926, 30.729874020758732]}, "properties": {"指标": "存在围护安全隐患的住宅数量（栋）", "中类": "住房", "board": "安全韧性底线"}}, {"type": "Feature", "geometry": {"type": "Point", "coordinates": [111.30157515032474, 30.706117640815236]}, "properties": {"指标": "存在围护安全隐患的住宅数量（栋）", "中类": "住房", "board": "安全韧性底线"}}, {"type": "Feature", "geometry": {"type": "Point", "coordinates": [111.28371260363528, 30.717131419414397]}, "properties": {"指标": "存在围护安全隐患的住宅数量（栋）", "中类": "住房", "board": "安全韧性底线"}}, {"type": "Feature", "geometry": {"type": "Point", "coordinates": [111.2993760548054, 30.73519300437893]}, "properties": {"指标": "存在围护安全隐患的住宅数量（栋）", "中类": "住房", "board": "安全韧性底线"}}, {"type": "Feature", "geometry": {"type": "Point", "coordinates": [111.30945488954933, 30.706799103754452]}, "properties": {"指标": "存在围护安全隐患的住宅数量（栋）", "中类": "住房", "board": "安全韧性底线"}}, {"type": "Feature", "geometry": {"type": "Point", "coordinates": [111.29586186447371, 30.697178930410434]}, "properties": {"指标": "存在围护安全隐患的住宅数量（栋）", "中类": "住房", "board": "安全韧性底线"}}, {"type": "Feature", "geometry": {"type": "Point", "coordinates": [111.28799249963996, 30.716873568290485]}, "properties": {"指标": "存在围护安全隐患的住宅数量（栋）", "中类": "住房", "board": "安全韧性底线"}}, {"type": "Feature", "geometry": {"type": "Point", "coordinates": [111.27624488039216, 30.726090817009997]}, "properties": {"指标": "存在围护安全隐患的住宅数量（栋）", "中类": "住房", "board": "安全韧性底线"}}, {"type": "Feature", "geometry": {"type": "Point", "coordinates": [111.28914691323784, 30.721799803201883]}, "properties": {"指标": "存在围护安全隐患的住宅数量（栋）", "中类": "住房", "board": "安全韧性底线"}}, {"type": "Feature", "geometry": {"type": "Point", "coordinates": [111.28573509632494, 30.697948916923632]}, "properties": {"指标": "存在围护安全隐患的住宅数量（栋）", "中类": "住房", "board": "安全韧性底线"}}, {"type": "Feature", "geometry": {"type": "Point", "coordinates": [111.32660991443, 30.66959661435621]}, "properties": {"指标": "存在围护安全隐患的住宅数量（栋）", "中类": "住房", "board": "安全韧性底线"}}, {"type": "Feature", "geometry": {"type": "Point", "coordinates": [111.33540493384585, 30.6700006495622]}, "properties": {"指标": "存在围护安全隐患的住宅数量（栋）", "中类": "住房", "board": "安全韧性底线"}}, {"type": "Feature", "geometry": {"type": "Point", "coordinates": [111.27986898196463, 30.702804537433035]}, "properties": {"指标": "存在围护安全隐患的住宅数量（栋）", "中类": "住房", "board": "安全韧性底线"}}, {"type": "Feature", "geometry": {"type": "Point", "coordinates": [111.28807952670269, 30.693473566510246]}, "properties": {"指标": "存在围护安全隐患的住宅数量（栋）", "中类": "住房", "board": "安全韧性底线"}}, {"type": "Feature", "geometry": {"type": "Point", "coordinates": [111.27116545660283, 30.71814264738393]}, "properties": {"指标": "存在围护安全隐患的住宅数量（栋）", "中类": "住房", "board": "安全韧性底线"}}, {"type": "Feature", "geometry": {"type": "Point", "coordinates": [111.32743279413009, 30.669764293646693]}, "properties": {"指标": "存在围护安全隐患的住宅数量（栋）", "中类": "住房", "board": "安全韧性底线"}}, {"type": "Feature", "geometry": {"type": "Point", "coordinates": [111.28066839517956, 30.722183365172462]}, "properties": {"指标": "存在围护安全隐患的住宅数量（栋）", "中类": "住房", "board": "安全韧性底线"}}, {"type": "Feature", "geometry": {"type": "Point", "coordinates": [111.28030917843594, 30.71820739171127]}, "properties": {"指标": "存在围护安全隐患的住宅数量（栋）", "中类": "住房", "board": "安全韧性底线"}}, {"type": "Feature", "geometry": {"type": "Point", "coordinates": [111.29403492210264, 30.723780386442485]}, "properties": {"指标": "存在围护安全隐患的住宅数量（栋）", "中类": "住房", "board": "安全韧性底线"}}, {"type": "Feature", "geometry": {"type": "Point", "coordinates": [111.34674161954369, 30.656178389709087]}, "properties": {"指标": "存在围护安全隐患的住宅数量（栋）", "中类": "住房", "board": "安全韧性底线"}}, {"type": "Feature", "geometry": {"type": "Point", "coordinates": [111.28572566543238, 30.69289357086371]}, "properties": {"指标": "存在围护安全隐患的住宅数量（栋）", "中类": "住房", "board": "安全韧性底线"}}, {"type": "Feature", "geometry": {"type": "Point", "coordinates": [111.28957249677637, 30.72994733177298]}, "properties": {"指标": "存在围护安全隐患的住宅数量（栋）", "中类": "住房", "board": "安全韧性底线"}}, {"type": "Feature", "geometry": {"type": "Point", "coordinates": [111.31020795911944, 30.70667020202501]}, "properties": {"指标": "存在围护安全隐患的住宅数量（栋）", "中类": "住房", "board": "安全韧性底线"}}, {"type": "Feature", "geometry": {"type": "Point", "coordinates": [111.32510286178358, 30.713145847802586]}, "properties": {"指标": "存在围护安全隐患的住宅数量（栋）", "中类": "住房", "board": "安全韧性底线"}}, {"type": "Feature", "geometry": {"type": "Point", "coordinates": [111.2970391759922, 30.727240535571955]}, "properties": {"指标": "存在围护安全隐患的住宅数量（栋）", "中类": "住房", "board": "安全韧性底线"}}, {"type": "Feature", "geometry": {"type": "Point", "coordinates": [111.28142836439021, 30.704597474228155]}, "properties": {"指标": "存在围护安全隐患的住宅数量（栋）", "中类": "住房", "board": "安全韧性底线"}}, {"type": "Feature", "geometry": {"type": "Point", "coordinates": [111.28677612135608, 30.726658661699016]}, "properties": {"指标": "存在围护安全隐患的住宅数量（栋）", "中类": "住房", "board": "安全韧性底线"}}, {"type": "Feature", "geometry": {"type": "Point", "coordinates": [111.277256832637, 30.72643924108639]}, "properties": {"指标": "存在围护安全隐患的住宅数量（栋）", "中类": "住房", "board": "安全韧性底线"}}, {"type": "Feature", "geometry": {"type": "Point", "coordinates": [111.32597820705759, 30.71267296904164]}, "properties": {"指标": "存在围护安全隐患的住宅数量（栋）", "中类": "住房", "board": "安全韧性底线"}}, {"type": "Feature", "geometry": {"type": "Point", "coordinates": [111.28846312723074, 30.713636729844357]}, "properties": {"指标": "存在围护安全隐患的住宅数量（栋）", "中类": "住房", "board": "安全韧性底线"}}, {"type": "Feature", "geometry": {"type": "Point", "coordinates": [111.29594615516521, 30.731943402519597]}, "properties": {"指标": "存在围护安全隐患的住宅数量（栋）", "中类": "住房", "board": "安全韧性底线"}}, {"type": "Feature", "geometry": {"type": "Point", "coordinates": [111.29291179073921, 30.69151056322405]}, "properties": {"指标": "存在围护安全隐患的住宅数量（栋）", "中类": "住房", "board": "安全韧性底线"}}, {"type": "Feature", "geometry": {"type": "Point", "coordinates": [111.28563495064172, 30.693192813714994]}, "properties": {"指标": "存在围护安全隐患的住宅数量（栋）", "中类": "住房", "board": "安全韧性底线"}}, {"type": "Feature", "geometry": {"type": "Point", "coordinates": [111.27808214429935, 30.72645597522787]}, "properties": {"指标": "存在围护安全隐患的住宅数量（栋）", "中类": "住房", "board": "安全韧性底线"}}, {"type": "Feature", "geometry": {"type": "Point", "coordinates": [111.27654788961269, 30.72546291563603]}, "properties": {"指标": "存在围护安全隐患的住宅数量（栋）", "中类": "住房", "board": "安全韧性底线"}}, {"type": "Feature", "geometry": {"type": "Point", "coordinates": [111.32777903577085, 30.670762728805734]}, "properties": {"指标": "存在围护安全隐患的住宅数量（栋）", "中类": "住房", "board": "安全韧性底线"}}, {"type": "Feature", "geometry": {"type": "Point", "coordinates": [111.28836468294259, 30.71385532363007]}, "properties": {"指标": "存在围护安全隐患的住宅数量（栋）", "中类": "住房", "board": "安全韧性底线"}}, {"type": "Feature", "geometry": {"type": "Point", "coordinates": [111.30102330265828, 30.739820009493297]}, "properties": {"指标": "存在围护安全隐患的住宅数量（栋）", "中类": "住房", "board": "安全韧性底线"}}, {"type": "Feature", "geometry": {"type": "Point", "coordinates": [111.27101498957241, 30.718123057080366]}, "properties": {"指标": "存在围护安全隐患的住宅数量（栋）", "中类": "住房", "board": "安全韧性底线"}}, {"type": "Feature", "geometry": {"type": "Point", "coordinates": [111.28462244403691, 30.7247396744572]}, "properties": {"指标": "存在围护安全隐患的住宅数量（栋）", "中类": "住房", "board": "安全韧性底线"}}, {"type": "Feature", "geometry": {"type": "Point", "coordinates": [111.34618237314757, 30.649507875820174]}, "properties": {"指标": "存在围护安全隐患的住宅数量（栋）", "中类": "住房", "board": "安全韧性底线"}}, {"type": "Feature", "geometry": {"type": "Point", "coordinates": [111.2885069809162, 30.691382817104063]}, "properties": {"指标": "存在围护安全隐患的住宅数量（栋）", "中类": "住房", "board": "安全韧性底线"}}]}