{"type": "FeatureCollection", "features": [{"type": "Feature", "geometry": {"type": "Polygon", "coordinates": [[[111.30271413276725, 30.70222460263049], [111.30274229728778, 30.71124450124825], [111.29230302429538, 30.711268422221707], [111.29227583092005, 30.7022485150726], [111.30271413276725, 30.70222460263049]]]}, "properties": {"双高区": 1, "point_count": 40, "cx": 111.29855, "cy": 30.70584}}, {"type": "Feature", "geometry": {"type": "Polygon", "coordinates": [[[111.28186373903267, 30.711291503894714], [111.2818899730901, 30.720311406712028], [111.27144970440257, 30.720333657015313], [111.27142444193788, 30.71131374626388], [111.28186373903267, 30.711291503894714]]]}, "properties": {"双高区": 1, "point_count": 44, "cx": 111.2777, "cy": 30.71491}}, {"type": "Feature", "geometry": {"type": "Polygon", "coordinates": [[[111.29222148096127, 30.684208663086974], [111.29224864981026, 30.693228595360306], [111.28181130640948, 30.693251660570805], [111.28178510783458, 30.68423172006845], [111.29222148096127, 30.684208663086974]]]}, "properties": {"双高区": 1, "point_count": 35, "cx": 111.28806, "cy": 30.68783}}, {"type": "Feature", "geometry": {"type": "Polygon", "coordinates": [[[111.35470763423743, 30.647973082740645], [111.3547405651315, 30.656993009619434], [111.34430718021015, 30.65702106689886], [111.34427521780951, 30.648001130003035], [111.35470763423743, 30.647973082740645]]]}, "properties": {"双高区": 1, "point_count": 21, "cx": 111.35055, "cy": 30.65159}}, {"type": "Feature", "geometry": {"type": "Polygon", "coordinates": [[[111.33390478875329, 30.666068220746848], [111.33393581064136, 30.675088142240607], [111.32350045898134, 30.675114543386563], [111.32347040647218, 30.66609461247034], [111.33390478875329, 30.666068220746848]]]}, "properties": {"双高区": 1, "point_count": 24, "cx": 111.32974, "cy": 30.66969}}, {"type": "Feature", "geometry": {"type": "Polygon", "coordinates": [[[111.2818899730901, 30.720311406712028], [111.28191621898424, 30.72933129696337], [111.27147497826556, 30.72935355520222], [111.27144970440257, 30.720333657015313], [111.2818899730901, 30.720311406712028]]]}, "properties": {"双高区": 1, "point_count": 90, "cx": 111.27772, "cy": 30.72393}}, {"type": "Feature", "geometry": {"type": "Polygon", "coordinates": [[[111.29224864981026, 30.693228595360306], [111.29227583092005, 30.7022485150726], [111.28183751680733, 30.7022715885136], [111.28181130640948, 30.693251660570805], [111.29224864981026, 30.693228595360306]]]}, "properties": {"双高区": 1, "point_count": 97, "cx": 111.28808, "cy": 30.69685}}, {"type": "Feature", "geometry": {"type": "Polygon", "coordinates": [[[111.3027704745168, 30.72026438729915], [111.30279866445923, 30.729284260781036], [111.29235744786163, 30.729308198821833], [111.29233022994099, 30.720288316805494], [111.3027704745168, 30.72026438729915]]]}, "properties": {"双高区": 1, "point_count": 70, "cx": 111.29861, "cy": 30.72388}}, {"type": "Feature", "geometry": {"type": "Polygon", "coordinates": [[[111.29227583092005, 30.7022485150726], [111.29230302429538, 30.711268422221707], [111.28186373903267, 30.711291503894714], [111.28183751680733, 30.7022715885136], [111.29227583092005, 30.7022485150726]]]}, "properties": {"双高区": 1, "point_count": 44, "cx": 111.28811, "cy": 30.70587}}, {"type": "Feature", "geometry": {"type": "Polygon", "coordinates": [[[111.30265784183193, 30.6841847677029], [111.30268598095027, 30.693204691447985], [111.29224864981026, 30.693228595360306], [111.29222148096127, 30.684208663086974], [111.30265784183193, 30.6841847677029]]]}, "properties": {"双高区": 1, "point_count": 21, "cx": 111.29849, "cy": 30.6878}}, {"type": "Feature", "geometry": {"type": "Polygon", "coordinates": [[[111.30279866445923, 30.729284260781036], [111.30282686712, 30.738304121691765], [111.29238467806209, 30.738328068268558], [111.29235744786163, 30.729308198821833], [111.30279866445923, 30.729284260781036]]]}, "properties": {"双高区": 1, "point_count": 81, "cx": 111.29863, "cy": 30.7329}}, {"type": "Feature", "geometry": {"type": "Polygon", "coordinates": [[[111.29230302429538, 30.711268422221707], [111.29233022994099, 30.720288316805494], [111.2818899730901, 30.720311406712028], [111.28186373903267, 30.711291503894714], [111.29230302429538, 30.711268422221707]]]}, "properties": {"双高区": 1, "point_count": 127, "cx": 111.28814, "cy": 30.71489}}, {"type": "Feature", "geometry": {"type": "Polygon", "coordinates": [[[111.30268598095027, 30.693204691447985], [111.30271413276725, 30.70222460263049], [111.29227583092005, 30.7022485150726], [111.29224864981026, 30.693228595360306], [111.30268598095027, 30.693204691447985]]]}, "properties": {"双高区": 1, "point_count": 36, "cx": 111.29852, "cy": 30.69682}}, {"type": "Feature", "geometry": {"type": "Polygon", "coordinates": [[[111.28183751680733, 30.7022715885136], [111.28186373903267, 30.711291503894714], [111.27142444193788, 30.71131374626388], [111.27139919086709, 30.70229382295008], [111.28183751680733, 30.7022715885136]]]}, "properties": {"双高区": 1, "point_count": 68, "cx": 111.27767, "cy": 30.70589}}, {"type": "Feature", "geometry": {"type": "Polygon", "coordinates": [[[111.31315242191087, 30.70219985119083], [111.31318155757171, 30.711219740977924], [111.30274229728778, 30.71124450124825], [111.30271413276725, 30.70222460263049], [111.31315242191087, 30.70219985119083]]]}, "properties": {"双高区": 1, "point_count": 91, "cx": 111.30899, "cy": 30.70582}}, {"type": "Feature", "geometry": {"type": "Polygon", "coordinates": [[[111.29233022994099, 30.720288316805494], [111.29235744786163, 30.729308198821833], [111.28191621898424, 30.72933129696337], [111.2818899730901, 30.720311406712028], [111.29233022994099, 30.720288316805494]]]}, "properties": {"双高区": 1, "point_count": 76, "cx": 111.28816, "cy": 30.72391}}]}