{"type": "FeatureCollection", "features": [{"type": "Feature", "properties": {"社区": "金安岭社区"}, "geometry": {"type": "MultiPolygon", "coordinates": [[[[111.29288723835549, 30.727989940783175], [111.2928429143692, 30.727900090416938], [111.29284845419295, 30.727899976203048], [111.29296346938867, 30.727807704861732], [111.29295911577077, 30.727804328806712], [111.29295368026823, 30.72778050756449], [111.29280613569472, 30.72751916907447], [111.2927863892806, 30.72748419174212], [111.29278905936769, 30.72748332119835], [111.29263083264692, 30.72718723740121], [111.29259054301929, 30.72710976530351], [111.29256697808364, 30.727082371954054], [111.29253239555374, 30.727065744388767], [111.29247297284951, 30.727056332084203], [111.29247167063124, 30.727033938965235], [111.29247005904608, 30.727006220960448], [111.29253083792793, 30.727007276764596], [111.29257094589252, 30.727023892638613], [111.29260139783639, 30.72704530369799], [111.2926471922143, 30.727115603702202], [111.29283058016728, 30.727466012846264], [111.2928301341035, 30.727469976158602], [111.29283203167307, 30.727469488726115], [111.29290482010151, 30.727609979017473], [111.29303280172252, 30.72756520177262], [111.29303714814603, 30.72757412214804], [111.29315044473731, 30.727575265186374], [111.29331233619541, 30.72755045918649], [111.29347068342531, 30.727526194578388], [111.29350550517506, 30.7275148172551], [111.293569780621, 30.72741942256846], [111.29358772929044, 30.72739218030489], [111.2935778223586, 30.727316952015883], [111.29361923883687, 30.72730969898339], [111.2936080593646, 30.727266766248363], [111.29362873837562, 30.72725359297897], [111.2936954689709, 30.727220851361324], [111.29370721141879, 30.727192952592702], [111.2937097699899, 30.72718947041784], [111.29367783776206, 30.727106605085794], [111.29379646193723, 30.72707148296263], [111.29381483688536, 30.727046474615236], [111.29386933130468, 30.726901000280975], [111.29386709289219, 30.72689989411498], [111.29404575310912, 30.726677889273276], [111.29406135005132, 30.726658161744865], [111.29416100572598, 30.726532072297346], [111.29426060474322, 30.726307550253352], [111.29430016502073, 30.72608892776185], [111.29447966340581, 30.726060233093392], [111.29448932931916, 30.72538333497306], [111.29449358760911, 30.725084894052713], [111.29477007877631, 30.72514954721396], [111.29479816010718, 30.724249551575554], [111.29471926797981, 30.724133727889296], [111.2947086101143, 30.724113344755153], [111.29439000459507, 30.723504057666105], [111.29415019227753, 30.723537859584724], [111.2940438780227, 30.72355284318928], [111.29346497902571, 30.723634429685262], [111.29267373570434, 30.723864299997558], [111.29263758385753, 30.723874803179683], [111.29263283543719, 30.72387257016311], [111.29261407467999, 30.723863757706397], [111.29148500193145, 30.72385349374389], [111.29144026515627, 30.723853087250234], [111.29139627481828, 30.724396497200644], [111.29139373423351, 30.72442788713738], [111.29139077366534, 30.724427647917707], [111.2912851851633, 30.725281160297413], [111.29127894566693, 30.725296704179698], [111.29126410505444, 30.725413562985693], [111.29126356995789, 30.725417771812772], [111.29122076222859, 30.725754808038005], [111.29130794880285, 30.725683264271368], [111.29134010855927, 30.72614792958342], [111.29151493586568, 30.726660041327932], [111.29156076711575, 30.72674227713452], [111.29164521615394, 30.727030832706873], [111.29176585481054, 30.727255659621107], [111.2918110898101, 30.727339962069664], [111.29192227479325, 30.72747784072982], [111.2920742035617, 30.727687013145214], [111.29239539912851, 30.727802645275915], [111.29257793362484, 30.727868357838588], [111.29267565575691, 30.727903535719634], [111.29274111021425, 30.727902187635834], [111.29275578175412, 30.727901884564346], [111.29281535014843, 30.727969816653797], [111.29279745903568, 30.727991335631714], [111.29281128970933, 30.72799727205654], [111.29279751659232, 30.72801042913818], [111.29283213869235, 30.72804018320801], [111.29288723835549, 30.727989940783175]]], [[[111.29712663708477, 30.72997536597046], [111.29724250034121, 30.729584326355734], [111.29723167520183, 30.729580255124745], [111.29720505616848, 30.729471120595747], [111.2972238960661, 30.729332340815006], [111.29726183576514, 30.729091144440872], [111.29732532700228, 30.72885891700554], [111.29736290427479, 30.728687481941904], [111.29735357470781, 30.72859994013521], [111.2973350738547, 30.728571050313803], [111.29719118592465, 30.7283379433415], [111.29718016473288, 30.728229057025544], [111.29715233970882, 30.728204208757404], [111.29715412126575, 30.728086420052364], [111.29725920524817, 30.727816893235172], [111.29718901496113, 30.727785065328646], [111.29723774742422, 30.7275863412367], [111.29730432063798, 30.727627394388833], [111.2974708067324, 30.72744187863998], [111.2974971137009, 30.727234878087245], [111.29747063765984, 30.72718872937645], [111.29737059167962, 30.727110359755443], [111.29732122699323, 30.72707168980679], [111.29727471225823, 30.727037772775077], [111.29733241995535, 30.72684101010458], [111.29719446575211, 30.726764143250705], [111.29693433505162, 30.72661919771798], [111.29665403615502, 30.72677399442449], [111.29665144071151, 30.726774345159924], [111.29659332742028, 30.726782195342082], [111.29652314073036, 30.726791673297214], [111.29651525097825, 30.726792738993765], [111.29647882663664, 30.72679765918474], [111.29621445203531, 30.726833364068625], [111.29604527606875, 30.726902898749927], [111.29604372473813, 30.726949383807153], [111.29604669519881, 30.726950567314987], [111.29593551201441, 30.727128345297047], [111.29578728575467, 30.72705969195124], [111.29559707374602, 30.727250822167832], [111.29562636376568, 30.72726530485005], [111.2955350529005, 30.72741601863447], [111.29546241375942, 30.7275199901556], [111.2953888330282, 30.727592715631374], [111.2954167443873, 30.72766526394082], [111.29539714456263, 30.72772164603731], [111.29539631628705, 30.727724030139996], [111.29532912793701, 30.727793078288016], [111.29503804526973, 30.727956138864783], [111.2948446181847, 30.728306198172504], [111.29483827256843, 30.728418383201983], [111.29470848510852, 30.7283953560609], [111.29459231698183, 30.728343941819503], [111.29451705901505, 30.728271955586365], [111.29395604213784, 30.728731576601035], [111.29412629819029, 30.72881898980461], [111.29443406418079, 30.72892397935823], [111.29468375465154, 30.72899815993719], [111.29420948278141, 30.729128063409576], [111.29431141014362, 30.72915600264747], [111.29431188858297, 30.729156133948493], [111.29652515970844, 30.72976281570152], [111.29652520017794, 30.729762731165238], [111.2965264727186, 30.729760020608637], [111.29674870868615, 30.729838688804534], [111.29694191094052, 30.729908560731587], [111.29697347984234, 30.729919977625002], [111.29698461704658, 30.729924003889835], [111.29707006882876, 30.72995490819261], [111.29712663708477, 30.72997536597046]]]]}}, {"type": "Feature", "properties": {"社区": "镇境山社区"}, "geometry": {"type": "Polygon", "coordinates": [[[111.29539531534158, 30.736749291646674], [111.29548629885369, 30.73668703517859], [111.29566875061244, 30.736769333038353], [111.29567581388773, 30.736772519336284], [111.29573376080452, 30.736748521826883], [111.29583265295463, 30.736534847405267], [111.29590303659592, 30.736476505686255], [111.29599200742524, 30.736353806682985], [111.29592799997732, 30.736182324854383], [111.2958364067249, 30.73604062857231], [111.2957610714164, 30.735887227613546], [111.29577463679016, 30.73564047522791], [111.29597739344194, 30.7354930790425], [111.296062702232, 30.73540815606168], [111.29650497802243, 30.73529241511295], [111.29678079020141, 30.735220232827544], [111.29701410042054, 30.735239752612642], [111.29704891137823, 30.735242973984043], [111.29723549012584, 30.735260235571445], [111.29724932619558, 30.73518896160141], [111.29739344884877, 30.735191688345765], [111.29768137939215, 30.73522558829029], [111.29770518624554, 30.7350681673621], [111.29777224419388, 30.735070241198855], [111.29799254302162, 30.735077055361955], [111.29826334597675, 30.735093137938122], [111.29829454255918, 30.7350941038099], [111.29829838716097, 30.735091798847463], [111.29846596413296, 30.73499127892444], [111.29850964600354, 30.734990170060485], [111.29863746124994, 30.73497269713232], [111.29877710797717, 30.734898322299784], [111.29913133923998, 30.73467538486119], [111.29915561014332, 30.73460479527506], [111.29917380522699, 30.73455186927339], [111.29918974660961, 30.73456835474593], [111.29922023272758, 30.734599310310045], [111.29926473208184, 30.734694669023895], [111.29926488676523, 30.73474478644289], [111.29928981687175, 30.73476620739467], [111.29946985305128, 30.734734767095915], [111.29961899841811, 30.73472010544856], [111.2998206201255, 30.734700546093393], [111.29995781170379, 30.734677997391827], [111.29985611906477, 30.734153353594422], [111.29963965404693, 30.733251992785313], [111.29962812114093, 30.733182772866826], [111.29960338708685, 30.73303431638078], [111.29952416131107, 30.732703678831797], [111.29952326558629, 30.73269994484656], [111.299521600042, 30.732694136125588], [111.29941771755375, 30.732331992627508], [111.2993829065959, 30.732178183376618], [111.29935100764294, 30.732037238028283], [111.2992903699548, 30.73173249825635], [111.2991367900309, 30.73133718686171], [111.29890685586679, 30.7309843837225], [111.29863252487115, 30.73069841460034], [111.29839134018829, 30.73051652671637], [111.2981767880284, 30.73038218508981], [111.29815610811801, 30.730373590269153], [111.29767622088104, 30.730174118840637], [111.29726513897509, 30.730025454611052], [111.29712663708477, 30.72997536597046], [111.29707006882876, 30.72995490819261], [111.29698461704658, 30.729924003889835], [111.29697347984234, 30.729919977625002], [111.29694191094052, 30.729908560731587], [111.29674870868615, 30.729838688804534], [111.2965264727186, 30.729760020608637], [111.29652520017794, 30.729762731165238], [111.29652515970844, 30.72976281570152], [111.29431188858297, 30.729156133948493], [111.29431141014362, 30.72915600264747], [111.29417540926784, 30.730165655320775], [111.2941454195755, 30.730366773407923], [111.29399947489583, 30.731482300567848], [111.29399402500428, 30.731908191609932], [111.29409398105253, 30.732072636243288], [111.2941831047666, 30.732371399120836], [111.29422962130002, 30.732384587678666], [111.29442793979763, 30.732282672007898], [111.2945267087407, 30.732210010383824], [111.2945396436898, 30.732153479899353], [111.29455710762448, 30.731917549055765], [111.29475863130597, 30.731958525765435], [111.29478407402587, 30.731976700164637], [111.29491227508151, 30.732015782902238], [111.29516980943924, 30.732213639148313], [111.29528885989305, 30.732297553989042], [111.29545645035506, 30.7324439456317], [111.2955246630329, 30.7325906016751], [111.29568391318213, 30.732750165687776], [111.2956873189147, 30.73275945568446], [111.29568790077604, 30.732761042088498], [111.29583404690374, 30.732976398242215], [111.29602273456163, 30.733115359686167], [111.2964137579886, 30.733403331598595], [111.29643568885604, 30.733478283795762], [111.29679408487925, 30.734703145134176], [111.29673929188493, 30.734802352946303], [111.29659739235586, 30.734799428350982], [111.29628181395475, 30.734789755243128], [111.2961167748694, 30.73471693084167], [111.29598118678234, 30.734653489966718], [111.29579619084166, 30.734571505071074], [111.29572269824405, 30.73451720580448], [111.29571279311097, 30.734431091222007], [111.29569807930301, 30.734303156365684], [111.29564255965653, 30.734304103351803], [111.29554332576396, 30.73431383221771], [111.29544055663655, 30.734200904348313], [111.2948847666188, 30.734514968291194], [111.29444708996141, 30.734821536384914], [111.29445072232318, 30.735050626984957], [111.29439361986977, 30.735229848378935], [111.2943297437227, 30.735487594077313], [111.29438041062753, 30.73560864372405], [111.29440357176753, 30.735903652831325], [111.29434908094538, 30.735942965795232], [111.29416748983789, 30.73598391912276], [111.29394626111116, 30.736022449676398], [111.29390980529342, 30.736025797852392], [111.29389450782543, 30.73602720259339], [111.29384555772634, 30.73603169830426], [111.29371801767246, 30.735957750649845], [111.29358669956673, 30.735831579363946], [111.29351178604014, 30.735661835025724], [111.29342739096148, 30.735509353174223], [111.2935420931932, 30.735350844965524], [111.29359934133669, 30.73509654816735], [111.2936647562235, 30.734914049643862], [111.29368153127774, 30.734867254320307], [111.29379771829014, 30.734618320179493], [111.2934234321458, 30.734505582966335], [111.29332266131183, 30.734650550982224], [111.29324340316066, 30.734684825044724], [111.29304809919051, 30.73496079730313], [111.29301294109433, 30.73498324887794], [111.29293859504025, 30.735057755910816], [111.29290176690307, 30.735109934575974], [111.29290773480426, 30.73511966613978], [111.29291264240464, 30.73512766740805], [111.2929293473116, 30.735154906074115], [111.29290797042665, 30.735159360416276], [111.29340950164726, 30.735666934181666], [111.29360409425368, 30.73628426210911], [111.29375842601064, 30.736270842425427], [111.29386578707647, 30.73652582540666], [111.29464415570328, 30.737297484191515], [111.29457705638623, 30.737357874566385], [111.29448311410454, 30.737451815948702], [111.29471796666098, 30.737693379246082], [111.29518537490515, 30.737531584015528], [111.29518315088188, 30.7375305785734], [111.29520545856525, 30.737458527589013], [111.29520893804221, 30.73744205740519], [111.29521907699888, 30.737394059688143], [111.29520034771804, 30.737141128960047], [111.2953843148344, 30.73676602173458], [111.29539531534158, 30.736749291646674]]]}}, {"type": "Feature", "properties": {"社区": "深圳路社区"}, "geometry": {"type": "Polygon", "coordinates": [[[111.31208910492836, 30.701484512600246], [111.31191414002569, 30.701483976604266], [111.31064512107548, 30.70153805913418], [111.31040357396591, 30.70154835187509], [111.31027284491591, 30.70155471727645], [111.30908591338437, 30.70161248882539], [111.30900120803938, 30.701616611317604], [111.3084521764269, 30.70162417101875], [111.30790245323561, 30.70169616534588], [111.30713531983918, 30.701854220296184], [111.30672979214631, 30.70196801331332], [111.30597974227135, 30.702178476255654], [111.30592303821777, 30.70219438526277], [111.30591446587994, 30.702232813293847], [111.3059038116117, 30.702257193914534], [111.30590610578224, 30.70228687244139], [111.30591337500232, 30.702307341010965], [111.30592212900319, 30.70233982272464], [111.30593533195002, 30.70239882994224], [111.30594660135466, 30.702446660385135], [111.30594938655497, 30.70245824365321], [111.30595315921113, 30.702473929628184], [111.30597183723063, 30.702536544925692], [111.30598201305952, 30.702576953263872], [111.30598748363548, 30.70259878070931], [111.30599176980445, 30.70261588221723], [111.30599939515616, 30.702647231684466], [111.30600792432642, 30.702679958013675], [111.30601926297874, 30.702723154250293], [111.3060300890175, 30.70275019236766], [111.30605678988906, 30.702773611612997], [111.3060902752461, 30.70279352260303], [111.3061114758641, 30.702810390287368], [111.30611670002583, 30.702814545155263], [111.3061444513055, 30.70283795540729], [111.30616845870759, 30.70286238369215], [111.30618265900256, 30.702882015892328], [111.30618949474945, 30.702909257256522], [111.30619117288444, 30.702943655425486], [111.306191445379, 30.70294765560982], [111.30619318286915, 30.70297333215359], [111.30620088736111, 30.70300052855157], [111.30620746590188, 30.70304358809119], [111.30620716822636, 30.70307499331642], [111.30620485067345, 30.70308631488166], [111.30620189010534, 30.70310078497323], [111.3061957873058, 30.703123017113626], [111.30618710884806, 30.703156282136717], [111.30617866061675, 30.703193020341757], [111.30617076816651, 30.703224285272654], [111.30615830176441, 30.703273682334725], [111.30614658000076, 30.70332011972789], [111.30613497155178, 30.703346628144516], [111.30611162964806, 30.703386465413075], [111.30608361486702, 30.70342365417838], [111.3060537663684, 30.703463183878966], [111.30602624531508, 30.703499473322097], [111.30600245285103, 30.703532956880565], [111.30597750026158, 30.703574495666487], [111.30595448301318, 30.703610342643287], [111.30592927141879, 30.70364841094556], [111.30590833160426, 30.703680023014783], [111.30589147291329, 30.703705478325332], [111.30587709635097, 30.703727899323212], [111.30586133123552, 30.703752803349232], [111.30584676311776, 30.703775894342186], [111.30583080464805, 30.70380193690994], [111.30582726671508, 30.703810854587402], [111.30582167922728, 30.703824952359753], [111.30581357093968, 30.703847197989774], [111.30580544466562, 30.70386672137215], [111.30579302143093, 30.703896574367434], [111.3057813572239, 30.70392460263838], [111.30577067237874, 30.703950280980848], [111.30575843170624, 30.70397969240895], [111.30574816144855, 30.704004366208665], [111.30573793705616, 30.704028934787686], [111.30572528809165, 30.70405694687065], [111.30570731963718, 30.704090952935246], [111.30569551423679, 30.704134116796183], [111.30568835923043, 30.704173569154932], [111.30568504612813, 30.704197006386778], [111.30568160981858, 30.704224323293943], [111.30567780298833, 30.70425916662731], [111.30567633709336, 30.70428480809744], [111.30567374434798, 30.704304039200167], [111.30566957778876, 30.704334935409122], [111.30566663880444, 30.70436750075953], [111.30566514323186, 30.70440308513446], [111.3056643041644, 30.704432963310694], [111.30566909485299, 30.704461214613502], [111.3056686613798, 30.70449966872485], [111.30566815416205, 30.704544829980023], [111.30567210578312, 30.704601287619482], [111.3056780853754, 30.70463704286533], [111.30568489234395, 30.70466453064364], [111.30569261482242, 30.70469571913219], [111.30570121144183, 30.704730432963117], [111.30570400743403, 30.704741723052166], [111.3057172418574, 30.704796481872222], [111.30572002076252, 30.704819080935806], [111.30572380331097, 30.70484985034045], [111.30572481055168, 30.70487084141638], [111.3057257980073, 30.704891373837995], [111.30572913269344, 30.70492349222542], [111.30573537308919, 30.704961618084326], [111.30575291076826, 30.705068783097886], [111.30576378357188, 30.70510854302495], [111.30576977305668, 30.705158505760608], [111.305777428086, 30.705215999418954], [111.30579173989696, 30.705351162126476], [111.30579257626653, 30.705354218922196], [111.30580589522594, 30.705402821882785], [111.30581217159454, 30.705439611348993], [111.30581048986227, 30.70548708925793], [111.30579590735533, 30.7055154835528], [111.30576765425394, 30.7055441683288], [111.30573588030677, 30.705570025636234], [111.3057283107131, 30.705576187790882], [111.30569398538915, 30.705603701649636], [111.30564776293397, 30.705634734555474], [111.30562000266116, 30.705652356770997], [111.30559461120242, 30.705668474420634], [111.30556038300546, 30.705692062738592], [111.30553626858404, 30.705708680411362], [111.30550059157923, 30.70573326787604], [111.30546969626965, 30.70575476706904], [111.30543231414998, 30.70577987614047], [111.30539576210487, 30.705802566035572], [111.30535370081265, 30.70582433682381], [111.30532670406416, 30.70583490835446], [111.30527825758571, 30.705853881351686], [111.30522550695179, 30.70587453967829], [111.30518240784193, 30.705891417255145], [111.30513627262093, 30.705908296630696], [111.30509601716756, 30.705923118357305], [111.30507218873055, 30.705933421889938], [111.30502983695743, 30.705951734784776], [111.30497953158016, 30.705973484888545], [111.3049411368242, 30.70599577008886], [111.30491009942165, 30.7060113391521], [111.30486635459863, 30.706035776430042], [111.30482404689229, 30.706059978085648], [111.30478410889964, 30.70609023217861], [111.3047469426175, 30.706118384555907], [111.30472223914, 30.706142546641388], [111.30469307592489, 30.7061867231389], [111.30466844709133, 30.706245462358254], [111.30466396576952, 30.706280436992643], [111.30466754327261, 30.70632179861218], [111.30467515693306, 30.70635230631393], [111.3046852806014, 30.70638493911372], [111.30470532828826, 30.70642375565194], [111.30472262494925, 30.70645084503053], [111.30473561475691, 30.706470085126455], [111.30474694891274, 30.706485280971037], [111.30475623531214, 30.706497726688895], [111.30478606582437, 30.70652970927881], [111.30481243304746, 30.706548462841397], [111.30484233010952, 30.706564442894773], [111.30488434193893, 30.706578883308794], [111.30492267014512, 30.70658908611756], [111.304961932747, 30.706596364330778], [111.30499997317025, 30.706602506700392], [111.3050094592192, 30.70660404004451], [111.30507035231494, 30.70661497220334], [111.30511180476617, 30.70662572809499], [111.3051481778462, 30.706636065801888], [111.3052171450554, 30.706655652136703], [111.3052555236236, 30.70667134440714], [111.30529073567891, 30.706692909250364], [111.30532541533574, 30.70672131613594], [111.30534351059458, 30.706745374799254], [111.3053621976074, 30.70677104774569], [111.30538407181757, 30.706804339748658], [111.30540960177188, 30.706845437866775], [111.30543165584635, 30.70688370222115], [111.30544613043463, 30.706923225626497], [111.30545022864533, 30.706963722098067], [111.30543447072432, 30.707029128891293], [111.30541978029873, 30.707067826718855], [111.30540740382872, 30.707100427143075], [111.30540022364147, 30.707122885912497], [111.30538709623755, 30.7071679716247], [111.30536978518757, 30.707220885935328], [111.30591411064779, 30.707241707039316], [111.30607623233243, 30.70725804862019], [111.30642994288769, 30.707268510433437], [111.30647188097265, 30.70726974969938], [111.30732774418016, 30.707340394144012], [111.3075796856541, 30.707361188268294], [111.30774991112958, 30.70737157723653], [111.30840400604006, 30.707411488249704], [111.30910586934056, 30.707457252950007], [111.30942016171116, 30.707477745801498], [111.3097502920424, 30.70751577633206], [111.30984624520818, 30.70780517726729], [111.3098849277473, 30.7080155889484], [111.31001233020493, 30.708012802848714], [111.31077277624263, 30.707812121832035], [111.31080301504716, 30.707663232772006], [111.31074805477903, 30.707533396749], [111.31069312508782, 30.707413560287705], [111.31064153457925, 30.707303710797703], [111.3106974796051, 30.707225027313257], [111.31077138409228, 30.707076317218366], [111.31096705318703, 30.70658073411363], [111.31099318838505, 30.706514533219263], [111.31107928498102, 30.706297876645692], [111.31133145488286, 30.70566330601679], [111.31145940232966, 30.705331053285477], [111.31151796618138, 30.70518942804972], [111.31155045958616, 30.705110845289312], [111.31161804723524, 30.704906552595446], [111.31168862692863, 30.704665986646035], [111.31179336287352, 30.70429040637731], [111.31184086506397, 30.704120062191237], [111.31193911599757, 30.70365196596549], [111.31194938175861, 30.703595618043437], [111.31199784802232, 30.703278564753987], [111.31201243142863, 30.70316574480347], [111.31205373639091, 30.70276629832614], [111.31207746140592, 30.702434577094152], [111.31209474187898, 30.702097319635755], [111.31209268512936, 30.701743445403793], [111.31208910492836, 30.701484512600246]]]}}, {"type": "Feature", "properties": {"社区": "新隆康路社区"}, "geometry": {"type": "Polygon", "coordinates": [[[111.29084052976674, 30.695763077903905], [111.29095454401704, 30.695602199082373], [111.29097777980081, 30.69560953305364], [111.29101274364331, 30.695571089734187], [111.29105791838833, 30.69559100971736], [111.29141614893632, 30.695747846086306], [111.29161983009107, 30.695386048827174], [111.29168295170695, 30.695273925850984], [111.29180098502746, 30.69506426510378], [111.2917954362104, 30.69506163638556], [111.29221117660455, 30.694292677365354], [111.29191072030363, 30.694100086649712], [111.29164494725649, 30.693881119718014], [111.29132361319438, 30.693552494851815], [111.2908745933878, 30.693004590089913], [111.29042460681023, 30.69248283491504], [111.2904404016034, 30.692472839849813], [111.2899810971499, 30.69192973297089], [111.28971522877498, 30.69160738357391], [111.28966491980037, 30.69155028921466], [111.28955799130836, 30.691428875342467], [111.28918594717385, 30.69097269423463], [111.28917851787435, 30.69096395822021], [111.28886556729208, 30.690595925061984], [111.2888431552874, 30.690569567731416], [111.288793374215, 30.69050860718653], [111.28849278031765, 30.690140506579098], [111.28827848356525, 30.68985972114939], [111.28763744141486, 30.68891678558134], [111.28758072656939, 30.688981552956477], [111.28754720883666, 30.689011433830785], [111.2875174673573, 30.689035282952034], [111.28747237894731, 30.6890714338997], [111.28742120302621, 30.68910752818988], [111.28736189093871, 30.689145769162053], [111.28727508387817, 30.689194514215558], [111.28719915321852, 30.68923355558428], [111.28716925076043, 30.689251074377637], [111.28708959241084, 30.68929236405154], [111.2870565036547, 30.68930715610054], [111.28700937198494, 30.68933161406278], [111.28691652507774, 30.689376763626854], [111.2868634569831, 30.6894108038656], [111.28684533114716, 30.68942334760959], [111.28683033675065, 30.689431018826497], [111.28671869311324, 30.689488125776393], [111.28664942283268, 30.68953024372587], [111.28662641727539, 30.68954533974579], [111.28659943311737, 30.689566757100238], [111.28651827379935, 30.68961404615135], [111.28648469491287, 30.689635876294744], [111.28634494476347, 30.689717619272812], [111.2862780334047, 30.689751057865124], [111.28624455164493, 30.689770597435256], [111.28616055226786, 30.689814373734464], [111.28608813975598, 30.689854605805465], [111.28601326759826, 30.689890478862537], [111.28596790939162, 30.689913469131454], [111.28596643540271, 30.689914264132142], [111.28593747633363, 30.689929840389937], [111.28590870881987, 30.689946781818605], [111.28583898078449, 30.689980745615003], [111.28575035619411, 30.690023913972425], [111.28556289341282, 30.69011708733376], [111.28549656301601, 30.690144176712465], [111.28541587224481, 30.690183444710385], [111.28540527193587, 30.69018909425148], [111.28536550301567, 30.690213727581522], [111.28533953239355, 30.690226601376708], [111.28528989970908, 30.690244066210767], [111.28519487644252, 30.69028346281175], [111.2851008001619, 30.69032847208149], [111.28505309562394, 30.690352644059317], [111.28498764836144, 30.690381454740475], [111.28495588430673, 30.690393760164], [111.28493532670399, 30.690403703068625], [111.28491225819425, 30.69041701393411], [111.2848881536654, 30.69042976991807], [111.28488588377655, 30.690430971412297], [111.2845371060028, 30.69061552758461], [111.28443900435673, 30.69066376721912], [111.2842528662768, 30.690744983194577], [111.28416073792778, 30.690797457736608], [111.28407889422567, 30.690840351800887], [111.28399707840254, 30.690891628446025], [111.28382179963648, 30.69097771604885], [111.28380917855077, 30.690984978973688], [111.28385365182476, 30.691054716901704], [111.28428134960467, 30.691725403404803], [111.28514452609909, 30.693162491256032], [111.28517830643386, 30.69321873036023], [111.28537022985233, 30.69333787884011], [111.28542593655771, 30.693372462269394], [111.28656857737809, 30.69378516475365], [111.28679767697128, 30.693867912274357], [111.28690373042298, 30.69390621529959], [111.28690383834163, 30.69390748424314], [111.286939340878, 30.69390615414585], [111.28694334915633, 30.693989468239465], [111.28694330419017, 30.694101487793603], [111.28694319357356, 30.694358217257957], [111.28693879139223, 30.69456152339575], [111.28693285137007, 30.69466859038323], [111.28693144662901, 30.694678598038877], [111.28692734841854, 30.694865512233775], [111.28692717934592, 30.694873354322], [111.28718496641318, 30.69499066278894], [111.28746748663536, 30.695119229868567], [111.28750748038607, 30.695137430348268], [111.28762966407783, 30.695193030034375], [111.28762969285606, 30.695193041725645], [111.28781298188375, 30.695276451147436], [111.287848629211, 30.69524106192557], [111.28791723938912, 30.695163856027193], [111.28796084841451, 30.695114233235415], [111.28799673765951, 30.695072884206354], [111.28806174605285, 30.694996118076517], [111.28808492787732, 30.6949651760022], [111.2881386677654, 30.694891470265247], [111.2881758052693, 30.694839377935125], [111.28822478414662, 30.694767955576822], [111.28828215369856, 30.694683760147484], [111.28832273560585, 30.694624203444278], [111.28833879300106, 30.694599640261345], [111.28835893241887, 30.69457025671204], [111.28836670615874, 30.69455891356307], [111.2883788047381, 30.69453979307707], [111.28838688514679, 30.69452751013654], [111.28839904757803, 30.694509005686086], [111.28839918877156, 30.694508797043397], [111.28841275864198, 30.69448813601872], [111.28841906918484, 30.694478759687172], [111.28843435136423, 30.694456050006806], [111.2884574603437, 30.6944230448878], [111.2884859616579, 30.694382659032613], [111.28848703544838, 30.69438122371463], [111.28848841770639, 30.694379352225326], [111.28850002795411, 30.694363563727563], [111.28856263785553, 30.694278391634498], [111.2886131159027, 30.69421068707362], [111.28861950288785, 30.694216047033024], [111.28862372970144, 30.694212403879362], [111.28869295231806, 30.694152721271166], [111.28870273244519, 30.69415956601125], [111.28870858523311, 30.69416366062461], [111.28874542775947, 30.694129506171805], [111.2887772745517, 30.69409428961984], [111.2888165551401, 30.694053969415222], [111.28882337829634, 30.69405665119359], [111.28882784432955, 30.694052722954893], [111.28890384603585, 30.693985930306496], [111.28890954414021, 30.693983323171892], [111.28893180326025, 30.69400444375026], [111.28893948526911, 30.69399514655879], [111.28896648561488, 30.693955016111204], [111.28896887421422, 30.693953427009205], [111.28899832880995, 30.69391072629901], [111.28904147288586, 30.69384818114878], [111.2891231097438, 30.693729835763406], [111.2891629146369, 30.693679275877855], [111.2891743153425, 30.69366479859167], [111.28921456270194, 30.693604859676668], [111.28921479832445, 30.69358281009869], [111.28924786909403, 30.69360193687993], [111.28931558174872, 30.693640570855734], [111.28934717493229, 30.693658301889286], [111.28942839090757, 30.693693138927244], [111.28942853929567, 30.693692923989317], [111.28943556210169, 30.69368287316621], [111.28946013517714, 30.693644472114784], [111.2894606495895, 30.69364366991954], [111.28946900519048, 30.6936381597734], [111.28950167216453, 30.6936143232424], [111.28954442683403, 30.693614473429307], [111.2895598942738, 30.693616210020252], [111.28958379285785, 30.69361673792224], [111.28958985788563, 30.693616871921222], [111.28965374122731, 30.693618521277926], [111.28969936743198, 30.69361964812839], [111.28986341096771, 30.69369845661862], [111.28986243970002, 30.69370043512714], [111.28988890315048, 30.693713549041206], [111.29001964838824, 30.69378342006894], [111.29008131400144, 30.69381666170966], [111.29009114269218, 30.693821777952735], [111.29014111801831, 30.69384780882939], [111.29017449275881, 30.693863909392064], [111.29034252029112, 30.69392266030269], [111.29063809057544, 30.69391850723349], [111.29098717321966, 30.69390084634705], [111.29100079525062, 30.693899984796587], [111.29107770976862, 30.69389512216219], [111.29107455494693, 30.69389053202252], [111.2911703399393, 30.693863208820176], [111.29134822314205, 30.693782859791213], [111.29157948740351, 30.694005665029465], [111.29130178664832, 30.694161291810303], [111.29128563032776, 30.694148695006334], [111.2912583943596, 30.694181710917405], [111.29096068728603, 30.69454258637137], [111.29086934494433, 30.694653310901685], [111.29081310943764, 30.694720002826045], [111.29062480309233, 30.69469558982979], [111.29060941029616, 30.694693595133288], [111.29053600942945, 30.69475048264883], [111.29049493469364, 30.694800037092193], [111.2904597891881, 30.694842449119847], [111.29038248706217, 30.694920673950037], [111.29029492007453, 30.694990777902206], [111.2902540701694, 30.695029310254597], [111.29023218696591, 30.69504994609821], [111.290222178411, 30.69504325424282], [111.29011371387696, 30.695088637630704], [111.29010076363943, 30.695084194080437], [111.29004780526219, 30.69519389877945], [111.2900369090762, 30.695208181812177], [111.2900194181617, 30.695248728645993], [111.2899769701612, 30.695365556875004], [111.28998100002315, 30.695366679228982], [111.29005423991129, 30.695386340207563], [111.29005766812702, 30.69537822472546], [111.29013058156107, 30.69539829309673], [111.29013568971038, 30.695401181719262], [111.29018612369072, 30.695432874727487], [111.29020141666206, 30.69544268093506], [111.2902581027293, 30.695478262611857], [111.29028298427232, 30.695492026735735], [111.29031952282782, 30.695514623101417], [111.29034118389859, 30.695518356187222], [111.29054877980246, 30.695641217967932], [111.29054938864346, 30.695641716192313], [111.29055419282184, 30.695643225254685], [111.29060709993786, 30.69569129042077], [111.29069152019758, 30.69576917530719], [111.29069504913724, 30.69577084265046], [111.2907309860463, 30.695785583438067], [111.2908034992821, 30.695815329414074], [111.29084052976674, 30.695763077903905]]]}}, {"type": "Feature", "properties": {"社区": "西峡社区"}, "geometry": {"type": "Polygon", "coordinates": [[[111.28647277439921, 30.72094312302687], [111.28665681166268, 30.7208941963101], [111.28673775424403, 30.720896805243456], [111.28626151285869, 30.718871749631717], [111.28615430557687, 30.71841587609191], [111.28615444137455, 30.71841638600739], [111.28637567189986, 30.718391229271845], [111.28671118287491, 30.718387017746863], [111.28725075901531, 30.71838024495247], [111.28815986658464, 30.71836882626036], [111.28816296924572, 30.71811834438614], [111.28816407631126, 30.718016487171212], [111.28817662005508, 30.717893964434893], [111.28819886838323, 30.71767665225582], [111.28832166361394, 30.7169157943286], [111.28840208998457, 30.71649925803439], [111.28848336801315, 30.716078290780672], [111.28856888184862, 30.715608668405366], [111.2886505879543, 30.715159950771294], [111.28868455265007, 30.71497341698978], [111.28870632973349, 30.714853824244642], [111.28877259627848, 30.714489897390877], [111.28904314202748, 30.71303319262779], [111.28882134133198, 30.713033686355516], [111.28827242393334, 30.713034904937047], [111.28812898386565, 30.71303522329697], [111.28750586700232, 30.713036602857073], [111.28744610885099, 30.7130367350573], [111.28700482681148, 30.713037707224487], [111.28609060659636, 30.7130393439906], [111.28608994739318, 30.7130585849859], [111.28584329123493, 30.71304831832532], [111.2858314687474, 30.713426762035624], [111.28580425975895, 30.713435255232866], [111.28579427008958, 30.713786410814294], [111.2857868479847, 30.714047311334525], [111.28578615101014, 30.714071807068308], [111.28578147993147, 30.71423601787808], [111.28577897891682, 30.714323893333074], [111.28576664561427, 30.7147120758018], [111.28572661319276, 30.71597201429705], [111.28547106993403, 30.715962342088574], [111.28518636885588, 30.71597940672433], [111.28481061142077, 30.71604034568543], [111.28448118435932, 30.716131259949805], [111.28448054314265, 30.716131437116132], [111.28426150516447, 30.716215003020068], [111.28381072718349, 30.716386911127188], [111.2836682808665, 30.71644292630009], [111.28301078831743, 30.716733632151488], [111.28375813303154, 30.717920887438993], [111.28392244096801, 30.718184322248817], [111.28408340972175, 30.718442401595667], [111.28422380468493, 30.7186674956086], [111.2842313517956, 30.718679594188018], [111.28423507768684, 30.718685565686485], [111.28451176490609, 30.71912917157414], [111.28497037508276, 30.71994832625444], [111.28504868714737, 30.720077792656127], [111.28531025136704, 30.720510219071514], [111.28533292237665, 30.720499804922156], [111.28549316807533, 30.72074822914749], [111.28581381865291, 30.721245321314598], [111.28647277439921, 30.72094312302687]]]}}, {"type": "Feature", "properties": {"社区": "桥北社区"}, "geometry": {"type": "Polygon", "coordinates": [[[111.27385068516105, 30.72473273123063], [111.2740952396037, 30.724625749678637], [111.2749334626094, 30.72425698537171], [111.27493688093244, 30.724262664590412], [111.27554035300494, 30.724000031975947], [111.27585325862117, 30.72386385123582], [111.27611180831343, 30.723750744401514], [111.27616490518625, 30.723727515812357], [111.27621822599042, 30.723704190096385], [111.27622685408613, 30.72370041384312], [111.27621847959927, 30.72368504712722], [111.27623895536362, 30.72367657641297], [111.27714788756515, 30.723300544684548], [111.27699312143545, 30.722965231560238], [111.27673364004545, 30.722438141607086], [111.27657757799295, 30.722156446063195], [111.2762776873654, 30.721615136029754], [111.27596377720675, 30.721159525092162], [111.27574299004698, 30.720839069667477], [111.27537115725329, 30.72026902899256], [111.27512469894583, 30.719856573821914], [111.27339499058638, 30.72062741782122], [111.2729146932586, 30.720841455568745], [111.27201800802476, 30.721203161996414], [111.27201400694105, 30.721194765925702], [111.27122733757176, 30.721523830560443], [111.27139240813324, 30.72211273361586], [111.27108988339148, 30.722239892357322], [111.27113835235309, 30.7223167052519], [111.2713608383321, 30.722714504171165], [111.27141804870416, 30.72281679575866], [111.27141948042487, 30.72281935522915], [111.27148398609711, 30.722934688785017], [111.27157541927033, 30.723132060296507], [111.27169991691773, 30.723400808300823], [111.27169648510483, 30.723417368416904], [111.27177259383024, 30.723559313811393], [111.27186146303626, 30.72377690657902], [111.27186837432612, 30.72379382912203], [111.2720985998705, 30.724357533173645], [111.27212302096075, 30.72435566797975], [111.27220414340655, 30.724644466369057], [111.27220900064492, 30.72464257779285], [111.27228751325822, 30.724894772875587], [111.27237693284923, 30.725182008243166], [111.27236516072372, 30.7251862071779], [111.27247375206213, 30.72533444782664], [111.27249659034538, 30.72532594563603], [111.2724969590675, 30.725322090242344], [111.27266513139068, 30.725250110304444], [111.27279591709794, 30.72519413200365], [111.27355739016156, 30.724861032111107], [111.27384370912, 30.724735782630262], [111.27385068516105, 30.72473273123063]]]}}, {"type": "Feature", "properties": {"社区": "幸福路社区"}, "geometry": {"type": "Polygon", "coordinates": [[[111.27989641089067, 30.729277283419947], [111.2797543153095, 30.72895179898643], [111.27974387058322, 30.728926896758935], [111.27965942873982, 30.72872557272717], [111.27946681644056, 30.728266354608706], [111.27932063344065, 30.727917825946975], [111.2792670311486, 30.72779002868691], [111.27893389258509, 30.727050946044358], [111.27887424235246, 30.726918609906022], [111.27864409594827, 30.726444845253468], [111.27861482301574, 30.726385463018858], [111.27828982331681, 30.725726191610534], [111.27825843787679, 30.725662525904966], [111.27807761568948, 30.72529572211988], [111.27797667398437, 30.725090956382587], [111.27771905688905, 30.724538019913666], [111.27751744327543, 30.72410121380011], [111.27714788756515, 30.723300544684548], [111.27623895536362, 30.72367657641297], [111.27621847959927, 30.72368504712722], [111.27622685408613, 30.72370041384312], [111.27621822599042, 30.723704190096385], [111.27616490518625, 30.723727515812357], [111.27611180831343, 30.723750744401514], [111.27585325862117, 30.72386385123582], [111.27554035300494, 30.724000031975947], [111.27493688093244, 30.724262664590412], [111.27512900759774, 30.724582012949725], [111.27512594001013, 30.724608688640217], [111.27523892723468, 30.724786265174146], [111.27546276489477, 30.72513805837474], [111.27545453429934, 30.72514177167551], [111.27556550164667, 30.72533679505716], [111.27558389637989, 30.725369122087443], [111.27562026766134, 30.72543530319672], [111.27563128705435, 30.725455351783182], [111.2758593146558, 30.72587026030442], [111.27587899991596, 30.725906080301513], [111.2758832743936, 30.725913856739112], [111.27588602721846, 30.72591886596308], [111.27593023699097, 30.725999304924017], [111.27625257469668, 30.726585804091656], [111.27626501142123, 30.726614309902516], [111.27646742183407, 30.727078283635876], [111.2764711783023, 30.72707426096855], [111.27654055470293, 30.727242212957947], [111.2765414971924, 30.727244490940507], [111.27654180565992, 30.727245240075888], [111.27684689796604, 30.72798381370211], [111.27684318916192, 30.72799002442008], [111.27688576756424, 30.72808885631582], [111.27700857988225, 30.7283739252166], [111.27701370062198, 30.728372263269364], [111.27720348815063, 30.72891072874728], [111.27722484704907, 30.7289378487028], [111.27724842097803, 30.72901088624343], [111.2768344396577, 30.72915260860617], [111.27673541530737, 30.72908732591935], [111.27662325096236, 30.728807436214367], [111.2765197210083, 30.728563147071668], [111.27651703923016, 30.728556817643152], [111.27640473009427, 30.728291816214494], [111.27610727483102, 30.72838284739055], [111.27599147992294, 30.728418284276472], [111.27590216105597, 30.728445617371392], [111.27567738270523, 30.72847120128506], [111.27550803137063, 30.72848596455566], [111.27563848972466, 30.728833109160803], [111.27567852664276, 30.72893964824624], [111.27569799516647, 30.72899442595218], [111.2756704201538, 30.729002819324762], [111.27569125204963, 30.729053864844047], [111.27566939762471, 30.729061128668263], [111.27568590468087, 30.729188095854], [111.27575737380374, 30.72919601528406], [111.27592932687708, 30.72929736168396], [111.27595067408441, 30.729463550102935], [111.27615822232417, 30.72997512315351], [111.27621214567404, 30.730056535181006], [111.27524980183688, 30.73035760571912], [111.274685543803, 30.730534131844763], [111.27488361228887, 30.731014552379747], [111.2750011959485, 30.73109296157105], [111.2753504512624, 30.73132586079987], [111.27634059314397, 30.731836233255592], [111.27757836155229, 30.732497647748403], [111.27865102432543, 30.733207803697212], [111.27900480322921, 30.7334787703291], [111.2791261559475, 30.733614398885493], [111.27916314416387, 30.733697963889995], [111.2795513248339, 30.734574966561524], [111.28008983707633, 30.73579160629771], [111.28210286065865, 30.735227673818144], [111.2816657721578, 30.734015914702866], [111.2812455279589, 30.732850853783987], [111.28112474541086, 30.732516001112742], [111.28071710970698, 30.731953590286025], [111.28061718603442, 30.73159237219039], [111.28011576632974, 30.729779740043114], [111.27989641089067, 30.729277283419947]]]}}, {"type": "Feature", "properties": {"社区": "果园路社区"}, "geometry": {"type": "Polygon", "coordinates": [[[111.29225147162822, 30.69428988856754], [111.2922207184115, 30.694275032666667], [111.292217201163, 30.694281533865876], [111.29221117660455, 30.694292677365354], [111.2917954362104, 30.69506163638556], [111.29180098502746, 30.69506426510378], [111.29168295170695, 30.695273925850984], [111.29161983009107, 30.695386048827174], [111.29141614893632, 30.695747846086306], [111.29137026912275, 30.695835711648783], [111.29115258282548, 30.696230424994212], [111.29109174189057, 30.69634074482957], [111.29107190284617, 30.69637671771153], [111.29091987964875, 30.69665382131683], [111.29091362036735, 30.696665232814325], [111.29077699716089, 30.696914258686263], [111.29061699787633, 30.69723674478007], [111.29060173638112, 30.697275143133368], [111.29054342344034, 30.697421861229884], [111.29044602056757, 30.697666925588237], [111.2902686472803, 30.698185850596587], [111.29015049614856, 30.698534690423685], [111.29003708084673, 30.698869535900542], [111.29003467605958, 30.698876638745958], [111.28995404914025, 30.699114682996196], [111.2899073923125, 30.69924157104174], [111.28988999043077, 30.699288895166433], [111.28983067564536, 30.699450201165916], [111.28970719423182, 30.69969621520829], [111.28954314709875, 30.70002304682623], [111.28921347182433, 30.700484676926408], [111.28913152559954, 30.700576879919254], [111.28903821913855, 30.7006823137379], [111.28897154160336, 30.700757657140343], [111.28885009985231, 30.700894880194596], [111.28863173636557, 30.701101607353337], [111.28850097943672, 30.7012253954357], [111.28846724496748, 30.70125789333713], [111.28791369426176, 30.70179117242469], [111.28787523925104, 30.701823771050385], [111.28760936188274, 30.702049162738774], [111.28719888611982, 30.70243717793352], [111.28712789903341, 30.7025390486383], [111.28689778860223, 30.70286925990854], [111.28684609467166, 30.702985499981025], [111.2866875783692, 30.703341945374575], [111.28658469772563, 30.703776316124276], [111.28657470985502, 30.703887974150746], [111.28653961920821, 30.70428042929842], [111.28647856873096, 30.70496326384358], [111.28640416422087, 30.705795439807787], [111.28687776879406, 30.705855083745234], [111.2873600824019, 30.70587058625864], [111.28846812990031, 30.70595899321313], [111.28916031469691, 30.706007331773094], [111.29083164176706, 30.706135645243876], [111.29100982714198, 30.70542312317872], [111.29105867741617, 30.7052367332887], [111.29119551735931, 30.704747728724783], [111.29132800458387, 30.70422229802068], [111.29147670658477, 30.703699955588604], [111.2915280120082, 30.703491177975593], [111.29197657495905, 30.70187746417372], [111.29199142726259, 30.701824041746193], [111.2919943086905, 30.701814714877344], [111.29208277859749, 30.701513789130047], [111.29222831768277, 30.700944448127814], [111.29225344564009, 30.700855938650705], [111.29232887357864, 30.700590266327822], [111.29241570761889, 30.70027474188589], [111.29246668478982, 30.700089506725533], [111.29247882563743, 30.700045389583238], [111.2925798617714, 30.699700729804988], [111.29263525371414, 30.699563140726355], [111.29275917939276, 30.699255318078656], [111.29284512220471, 30.699083433353906], [111.29299264429528, 30.698786134572572], [111.29300568356558, 30.698759263729073], [111.29326660477, 30.698221576164883], [111.2933457334189, 30.69804337370283], [111.29343961184873, 30.697832987202617], [111.2934875556063, 30.69772398037736], [111.29365677114316, 30.697357801621422], [111.29370192790168, 30.697260083086462], [111.29389991724753, 30.69692854711485], [111.2939872908808, 30.696780937790095], [111.29430304644848, 30.69624751031438], [111.29441566135375, 30.696004887615572], [111.29442685791321, 30.695977387246614], [111.29432245112031, 30.695884952228937], [111.29430287917461, 30.695867624990967], [111.29417459628064, 30.69572061641344], [111.29408662639679, 30.695560585652686], [111.29393893343513, 30.69529190779548], [111.29379186820029, 30.695098909686976], [111.29378646867076, 30.69509457405553], [111.29361799237648, 30.69495926655702], [111.29358896675745, 30.69493595702886], [111.29352539817876, 30.694905252375634], [111.29326132574977, 30.694777693435867], [111.29319529932366, 30.694745800778264], [111.29225147162822, 30.69428988856754]]]}}]}