{"type": "FeatureCollection", "features": [{"type": "Feature", "geometry": {"type": "Point", "coordinates": [111.406349, 30.647459]}, "properties": {"办件编号": "20241227000036", "事件": "建议", "类9": "管网安全", "方面": "安全韧性", "geocode_status": "ok", "board": "安全韧性底线", "project_type": "市政管网", "社区": null, "村": "共升村"}}, {"type": "Feature", "geometry": {"type": "Point", "coordinates": [111.355256, 30.691889]}, "properties": {"办件编号": "20241212000524", "事件": "投诉", "类9": "出行安全", "方面": "安全韧性", "geocode_status": "ok", "board": "安全韧性底线", "project_type": "交通设施", "社区": null, "村": "旭光村"}}, {"type": "Feature", "geometry": {"type": "Point", "coordinates": [111.406349, 30.647459]}, "properties": {"办件编号": "20241203000119", "事件": "求助", "类9": "出行安全", "方面": "安全韧性", "geocode_status": "ok", "board": "安全韧性底线", "project_type": "交通设施", "社区": null, "村": "共升村"}}, {"type": "Feature", "geometry": {"type": "Point", "coordinates": [111.354693, 30.664327]}, "properties": {"办件编号": "20241128000051", "事件": "投诉", "类9": "管网安全", "方面": "安全韧性", "geocode_status": "ok", "board": "安全韧性底线", "project_type": "市政管网", "社区": null, "村": "火光村"}}, {"type": "Feature", "geometry": {"type": "Point", "coordinates": [111.393046, 30.629154]}, "properties": {"办件编号": "20241126001050", "事件": "求助", "类9": "管网安全", "方面": "安全韧性", "geocode_status": "ok", "board": "安全韧性底线", "project_type": "市政管网", "社区": null, "村": "共升村"}}, {"type": "Feature", "geometry": {"type": "Point", "coordinates": [111.349078, 30.657798]}, "properties": {"办件编号": "20241123000457", "事件": "投诉", "类9": "消防安全", "方面": "安全韧性", "geocode_status": "ok", "board": "安全韧性底线", "project_type": "安全消防", "社区": null, "村": "火光村"}}, {"type": "Feature", "geometry": {"type": "Point", "coordinates": [111.417521, 30.642867]}, "properties": {"办件编号": "20241106000803", "事件": "投诉", "类9": "出行安全", "方面": "安全韧性", "geocode_status": "ok", "board": "安全韧性底线", "project_type": "交通设施", "社区": null, "村": "灵宝村"}}, {"type": "Feature", "geometry": {"type": "Point", "coordinates": [111.384657, 30.623383]}, "properties": {"办件编号": "20241103000081", "事件": "投诉", "类9": "管网安全", "方面": "安全韧性", "geocode_status": "ok", "board": "安全韧性底线", "project_type": "市政管网", "社区": null, "村": "共联村"}}, {"type": "Feature", "geometry": {"type": "Point", "coordinates": [111.354693, 30.664327]}, "properties": {"办件编号": "20241026000358", "事件": "求助", "类9": "出行安全", "方面": "安全韧性", "geocode_status": "ok", "board": "安全韧性底线", "project_type": "交通设施", "社区": null, "村": "火光村"}}, {"type": "Feature", "geometry": {"type": "Point", "coordinates": [111.354693, 30.664327]}, "properties": {"办件编号": "20241024000693", "事件": "求助", "类9": "出行安全", "方面": "安全韧性", "geocode_status": "ok", "board": "安全韧性底线", "project_type": "交通设施", "社区": null, "村": "火光村"}}, {"type": "Feature", "geometry": {"type": "Point", "coordinates": [111.340912, 30.668696]}, "properties": {"办件编号": "20241015000087", "事件": "投诉", "类9": "管网安全", "方面": "安全韧性", "geocode_status": "ok", "board": "安全韧性底线", "project_type": "市政管网", "社区": null, "村": "火光村"}}, {"type": "Feature", "geometry": {"type": "Point", "coordinates": [111.34597, 30.663595]}, "properties": {"办件编号": "20241013000774", "事件": "投诉", "类9": "消防安全", "方面": "安全韧性", "geocode_status": "ok", "board": "安全韧性底线", "project_type": "安全消防", "社区": null, "村": "火光村"}}, {"type": "Feature", "geometry": {"type": "Point", "coordinates": [111.354693, 30.664327]}, "properties": {"办件编号": "20241008000847", "事件": "建议", "类9": "出行安全", "方面": "安全韧性", "geocode_status": "ok", "board": "安全韧性底线", "project_type": "交通设施", "社区": null, "村": "火光村"}}, {"type": "Feature", "geometry": {"type": "Point", "coordinates": [111.351919, 30.674621]}, "properties": {"办件编号": "20241003000809", "事件": "投诉", "类9": "消防安全", "方面": "安全韧性", "geocode_status": "ok", "board": "安全韧性底线", "project_type": "安全消防", "社区": null, "村": "联丰村"}}, {"type": "Feature", "geometry": {"type": "Point", "coordinates": [111.361111, 30.645268]}, "properties": {"办件编号": "20240925001072", "事件": "投诉", "类9": "出行安全", "方面": "安全韧性", "geocode_status": "ok", "board": "安全韧性底线", "project_type": "交通设施", "社区": null, "村": "共勤村"}}, {"type": "Feature", "geometry": {"type": "Point", "coordinates": [111.359789, 30.661309]}, "properties": {"办件编号": "20240915000708", "事件": "求助", "类9": "管网安全", "方面": "安全韧性", "geocode_status": "ok", "board": "安全韧性底线", "project_type": "市政管网", "社区": null, "村": "共前村"}}, {"type": "Feature", "geometry": {"type": "Point", "coordinates": [111.384703, 30.630331]}, "properties": {"办件编号": "20240808001100", "事件": "投诉", "类9": "出行安全", "方面": "安全韧性", "geocode_status": "ok", "board": "安全韧性底线", "project_type": "交通设施", "社区": null, "村": "共联村"}}, {"type": "Feature", "geometry": {"type": "Point", "coordinates": [111.355256, 30.691889]}, "properties": {"办件编号": "20240516001334", "事件": "投诉", "类9": "消防安全", "方面": "安全韧性", "geocode_status": "ok", "board": "安全韧性底线", "project_type": "安全消防", "社区": null, "村": "旭光村"}}, {"type": "Feature", "geometry": {"type": "Point", "coordinates": [111.408577, 30.652788]}, "properties": {"办件编号": "20240515000216", "事件": "投诉", "类9": "出行安全", "方面": "安全韧性", "geocode_status": "ok", "board": "安全韧性底线", "project_type": "交通设施", "社区": null, "村": "共升村"}}, {"type": "Feature", "geometry": {"type": "Point", "coordinates": [111.398349, 30.657789]}, "properties": {"办件编号": "20240511001163", "事件": "投诉", "类9": "出行安全", "方面": "安全韧性", "geocode_status": "ok", "board": "安全韧性底线", "project_type": "交通设施", "社区": null, "村": "共升村"}}, {"type": "Feature", "geometry": {"type": "Point", "coordinates": [111.408264, 30.647203]}, "properties": {"办件编号": "20240509000422", "事件": "求助", "类9": "出行安全", "方面": "安全韧性", "geocode_status": "ok", "board": "安全韧性底线", "project_type": "交通设施", "社区": null, "村": "共升村"}}, {"type": "Feature", "geometry": {"type": "Point", "coordinates": [111.360683, 30.645366]}, "properties": {"办件编号": "20240430000068", "事件": "投诉", "类9": "出行安全", "方面": "安全韧性", "geocode_status": "ok", "board": "安全韧性底线", "project_type": "交通设施", "社区": null, "村": "共勤村"}}, {"type": "Feature", "geometry": {"type": "Point", "coordinates": [111.355256, 30.691889]}, "properties": {"办件编号": "20240423000724", "事件": "投诉", "类9": "消防安全", "方面": "安全韧性", "geocode_status": "ok", "board": "安全韧性底线", "project_type": "安全消防", "社区": null, "村": "旭光村"}}, {"type": "Feature", "geometry": {"type": "Point", "coordinates": [111.354693, 30.664327]}, "properties": {"办件编号": "20240417000058", "事件": "建议", "类9": "出行安全", "方面": "安全韧性", "geocode_status": "ok", "board": "安全韧性底线", "project_type": "交通设施", "社区": null, "村": "火光村"}}, {"type": "Feature", "geometry": {"type": "Point", "coordinates": [111.417521, 30.642867]}, "properties": {"办件编号": "20240407000303", "事件": "投诉", "类9": "消防安全", "方面": "安全韧性", "geocode_status": "ok", "board": "安全韧性底线", "project_type": "安全消防", "社区": null, "村": "灵宝村"}}, {"type": "Feature", "geometry": {"type": "Point", "coordinates": [111.417521, 30.642867]}, "properties": {"办件编号": "20240407000238", "事件": "投诉", "类9": "消防安全", "方面": "安全韧性", "geocode_status": "ok", "board": "安全韧性底线", "project_type": "安全消防", "社区": null, "村": "灵宝村"}}, {"type": "Feature", "geometry": {"type": "Point", "coordinates": [111.4308, 30.651204]}, "properties": {"办件编号": "20240327001217", "事件": "投诉", "类9": "出行安全", "方面": "安全韧性", "geocode_status": "ok", "board": "安全韧性底线", "project_type": "交通设施", "社区": null, "村": "灵宝村"}}, {"type": "Feature", "geometry": {"type": "Point", "coordinates": [111.406349, 30.647459]}, "properties": {"办件编号": "20240319000212", "事件": "求助", "类9": "管网安全", "方面": "安全韧性", "geocode_status": "ok", "board": "安全韧性底线", "project_type": "市政管网", "社区": null, "村": "共升村"}}, {"type": "Feature", "geometry": {"type": "Point", "coordinates": [111.354693, 30.664327]}, "properties": {"办件编号": "20240315001042", "事件": "投诉", "类9": "管网安全", "方面": "安全韧性", "geocode_status": "ok", "board": "安全韧性底线", "project_type": "市政管网", "社区": null, "村": "火光村"}}, {"type": "Feature", "geometry": {"type": "Point", "coordinates": [111.354381, 30.664189]}, "properties": {"办件编号": "20240305000981", "事件": "求助", "类9": "出行安全", "方面": "安全韧性", "geocode_status": "ok", "board": "安全韧性底线", "project_type": "交通设施", "社区": null, "村": "火光村"}}, {"type": "Feature", "geometry": {"type": "Point", "coordinates": [111.354693, 30.664327]}, "properties": {"办件编号": "20240305000972", "事件": "求助", "类9": "管网安全", "方面": "安全韧性", "geocode_status": "ok", "board": "安全韧性底线", "project_type": "市政管网", "社区": null, "村": "火光村"}}, {"type": "Feature", "geometry": {"type": "Point", "coordinates": [111.402835, 30.65622]}, "properties": {"办件编号": "20240301000088", "事件": "投诉", "类9": "出行安全", "方面": "安全韧性", "geocode_status": "ok", "board": "安全韧性底线", "project_type": "交通设施", "社区": null, "村": "共升村"}}, {"type": "Feature", "geometry": {"type": "Point", "coordinates": [111.406349, 30.647459]}, "properties": {"办件编号": "20240226001015", "事件": "求助", "类9": "管网安全", "方面": "安全韧性", "geocode_status": "ok", "board": "安全韧性底线", "project_type": "市政管网", "社区": null, "村": "共升村"}}, {"type": "Feature", "geometry": {"type": "Point", "coordinates": [111.351934, 30.664438]}, "properties": {"办件编号": "20240223000176", "事件": "求助", "类9": "出行安全", "方面": "安全韧性", "geocode_status": "ok", "board": "安全韧性底线", "project_type": "交通设施", "社区": null, "村": "火光村"}}, {"type": "Feature", "geometry": {"type": "Point", "coordinates": [111.408264, 30.647203]}, "properties": {"办件编号": "20240218000772", "事件": "求助", "类9": "出行安全", "方面": "安全韧性", "geocode_status": "ok", "board": "安全韧性底线", "project_type": "交通设施", "社区": null, "村": "共升村"}}, {"type": "Feature", "geometry": {"type": "Point", "coordinates": [111.351919, 30.674621]}, "properties": {"办件编号": "20240205001626", "事件": "投诉", "类9": "管网安全", "方面": "安全韧性", "geocode_status": "ok", "board": "安全韧性底线", "project_type": "市政管网", "社区": null, "村": "联丰村"}}, {"type": "Feature", "geometry": {"type": "Point", "coordinates": [111.354693, 30.664327]}, "properties": {"办件编号": "20240124000406", "事件": "求助", "类9": "管网安全", "方面": "安全韧性", "geocode_status": "ok", "board": "安全韧性底线", "project_type": "市政管网", "社区": null, "村": "火光村"}}, {"type": "Feature", "geometry": {"type": "Point", "coordinates": [111.349078, 30.657798]}, "properties": {"办件编号": "20240116001173", "事件": "投诉", "类9": "消防安全", "方面": "安全韧性", "geocode_status": "ok", "board": "安全韧性底线", "project_type": "安全消防", "社区": null, "村": "火光村"}}]}