{"type": "FeatureCollection", "features": [{"type": "Feature", "geometry": {"type": "Point", "coordinates": [111.354693, 30.664327]}, "properties": {"办件编号": "20241228000906", "事件": "投诉", "类9": "物业", "方面": "民生基础", "geocode_status": "ok", "board": "民生基础需求", "project_type": "公服设施", "社区": null, "村": "火光村"}}, {"type": "Feature", "geometry": {"type": "Point", "coordinates": [111.355256, 30.691889]}, "properties": {"办件编号": "20241220001254", "事件": "投诉", "类9": "停车", "方面": "民生基础", "geocode_status": "ok", "board": "民生基础需求", "project_type": "停车设施", "社区": null, "村": "旭光村"}}, {"type": "Feature", "geometry": {"type": "Point", "coordinates": [111.417521, 30.642867]}, "properties": {"办件编号": "20241217001768", "事件": "投诉", "类9": "噪声", "方面": "民生基础", "geocode_status": "ok", "board": "民生基础需求", "project_type": "噪声治理", "社区": null, "村": "灵宝村"}}, {"type": "Feature", "geometry": {"type": "Point", "coordinates": [111.354693, 30.664327]}, "properties": {"办件编号": "20241217001014", "事件": "投诉", "类9": "噪声", "方面": "民生基础", "geocode_status": "ok", "board": "民生基础需求", "project_type": "噪声治理", "社区": null, "村": "火光村"}}, {"type": "Feature", "geometry": {"type": "Point", "coordinates": [111.354693, 30.664327]}, "properties": {"办件编号": "20241215000517", "事件": "投诉", "类9": "物业", "方面": "民生基础", "geocode_status": "ok", "board": "民生基础需求", "project_type": "环境治理", "社区": null, "村": "火光村"}}, {"type": "Feature", "geometry": {"type": "Point", "coordinates": [111.354693, 30.664327]}, "properties": {"办件编号": "20241211001643", "事件": "投诉", "类9": "噪声", "方面": "民生基础", "geocode_status": "ok", "board": "民生基础需求", "project_type": "噪声治理", "社区": null, "村": "火光村"}}, {"type": "Feature", "geometry": {"type": "Point", "coordinates": [111.354693, 30.664327]}, "properties": {"办件编号": "20241211001293", "事件": "投诉", "类9": "停车", "方面": "民生基础", "geocode_status": "ok", "board": "民生基础需求", "project_type": "停车设施", "社区": null, "村": "火光村"}}, {"type": "Feature", "geometry": {"type": "Point", "coordinates": [111.357486, 30.691518]}, "properties": {"办件编号": "20241209001781", "事件": "投诉", "类9": "停车", "方面": "民生基础", "geocode_status": "ok", "board": "民生基础需求", "project_type": "停车设施", "社区": null, "村": "旭光村"}}, {"type": "Feature", "geometry": {"type": "Point", "coordinates": [111.354693, 30.664327]}, "properties": {"办件编号": "20241207000901", "事件": "投诉", "类9": "噪声", "方面": "民生基础", "geocode_status": "ok", "board": "民生基础需求", "project_type": "噪声治理", "社区": null, "村": "火光村"}}, {"type": "Feature", "geometry": {"type": "Point", "coordinates": [111.349078, 30.657798]}, "properties": {"办件编号": "20241205001349", "事件": "投诉", "类9": "物业", "方面": "民生基础", "geocode_status": "ok", "board": "民生基础需求", "project_type": "物业管理", "社区": null, "村": "火光村"}}, {"type": "Feature", "geometry": {"type": "Point", "coordinates": [111.354693, 30.664327]}, "properties": {"办件编号": "20241204000067", "事件": "投诉", "类9": "停车", "方面": "民生基础", "geocode_status": "ok", "board": "民生基础需求", "project_type": "停车设施", "社区": null, "村": "火光村"}}, {"type": "Feature", "geometry": {"type": "Point", "coordinates": [111.354693, 30.664327]}, "properties": {"办件编号": "20241203001822", "事件": "求助", "类9": "噪声", "方面": "民生基础", "geocode_status": "ok", "board": "民生基础需求", "project_type": "噪声治理", "社区": null, "村": "火光村"}}, {"type": "Feature", "geometry": {"type": "Point", "coordinates": [111.354693, 30.664327]}, "properties": {"办件编号": "20241203000700", "事件": "投诉", "类9": "噪声", "方面": "民生基础", "geocode_status": "ok", "board": "民生基础需求", "project_type": "施工管理", "社区": null, "村": "火光村"}}, {"type": "Feature", "geometry": {"type": "Point", "coordinates": [111.354693, 30.664327]}, "properties": {"办件编号": "20241130000080", "事件": "投诉", "类9": "噪声", "方面": "民生基础", "geocode_status": "ok", "board": "民生基础需求", "project_type": "噪声治理", "社区": null, "村": "火光村"}}, {"type": "Feature", "geometry": {"type": "Point", "coordinates": [111.406531, 30.655526]}, "properties": {"办件编号": "20241125000955", "事件": "求助", "类9": "出行", "方面": "民生基础", "geocode_status": "ok", "board": "民生基础需求", "project_type": "交通设施", "社区": null, "村": "共升村"}}, {"type": "Feature", "geometry": {"type": "Point", "coordinates": [111.339452, 30.686616]}, "properties": {"办件编号": "20241124000334", "事件": "投诉", "类9": "住宅", "方面": "民生基础", "geocode_status": "ok", "board": "民生基础需求", "project_type": "住房", "社区": null, "村": "旭光村"}}, {"type": "Feature", "geometry": {"type": "Point", "coordinates": [111.375173, 30.647312]}, "properties": {"办件编号": "20241122000796", "事件": "求助", "类9": "物业", "方面": "民生基础", "geocode_status": "ok", "board": "民生基础需求", "project_type": "环境治理", "社区": null, "村": "共谊村"}}, {"type": "Feature", "geometry": {"type": "Point", "coordinates": [111.406531, 30.655526]}, "properties": {"办件编号": "20241121001239", "事件": "求助", "类9": "出行", "方面": "民生基础", "geocode_status": "ok", "board": "民生基础需求", "project_type": "交通设施", "社区": null, "村": "共升村"}}, {"type": "Feature", "geometry": {"type": "Point", "coordinates": [111.358933, 30.677486]}, "properties": {"办件编号": "20241120001118", "事件": "求助", "类9": "出行", "方面": "民生基础", "geocode_status": "ok", "board": "民生基础需求", "project_type": "交通设施", "社区": null, "村": "联丰村"}}, {"type": "Feature", "geometry": {"type": "Point", "coordinates": [111.375173, 30.647312]}, "properties": {"办件编号": "20241114000986", "事件": "求助", "类9": "物业", "方面": "民生基础", "geocode_status": "ok", "board": "民生基础需求", "project_type": "环境治理", "社区": null, "村": "共谊村"}}, {"type": "Feature", "geometry": {"type": "Point", "coordinates": [111.354693, 30.664327]}, "properties": {"办件编号": "20241114000618", "事件": "投诉", "类9": "出行", "方面": "民生基础", "geocode_status": "ok", "board": "民生基础需求", "project_type": "交通设施", "社区": null, "村": "火光村"}}, {"type": "Feature", "geometry": {"type": "Point", "coordinates": [111.354693, 30.664327]}, "properties": {"办件编号": "20241106000707", "事件": "投诉", "类9": "噪声", "方面": "民生基础", "geocode_status": "ok", "board": "民生基础需求", "project_type": "噪声治理", "社区": null, "村": "火光村"}}, {"type": "Feature", "geometry": {"type": "Point", "coordinates": [111.384657, 30.623383]}, "properties": {"办件编号": "20241101001094", "事件": "投诉", "类9": "物业", "方面": "民生基础", "geocode_status": "ok", "board": "民生基础需求", "project_type": "环境治理", "社区": null, "村": "共联村"}}, {"type": "Feature", "geometry": {"type": "Point", "coordinates": [111.354693, 30.664327]}, "properties": {"办件编号": "20241030000029", "事件": "投诉", "类9": "噪声", "方面": "民生基础", "geocode_status": "ok", "board": "民生基础需求", "project_type": "噪声治理", "社区": null, "村": "火光村"}}, {"type": "Feature", "geometry": {"type": "Point", "coordinates": [111.354693, 30.664327]}, "properties": {"办件编号": "20241025000673", "事件": "投诉", "类9": "噪声", "方面": "民生基础", "geocode_status": "ok", "board": "民生基础需求", "project_type": "噪声治理", "社区": null, "村": "火光村"}}, {"type": "Feature", "geometry": {"type": "Point", "coordinates": [111.432811, 30.666081]}, "properties": {"办件编号": "20241024000141", "事件": "建议", "类9": "物业", "方面": "民生基础", "geocode_status": "ok", "board": "民生基础需求", "project_type": "环境治理", "社区": null, "村": "灵宝村"}}, {"type": "Feature", "geometry": {"type": "Point", "coordinates": [111.351919, 30.674621]}, "properties": {"办件编号": "20241023001383", "事件": "投诉", "类9": "噪声", "方面": "民生基础", "geocode_status": "ok", "board": "民生基础需求", "project_type": "噪声治理", "社区": null, "村": "联丰村"}}, {"type": "Feature", "geometry": {"type": "Point", "coordinates": [111.376955, 30.648651]}, "properties": {"办件编号": "20241022000778", "事件": "投诉", "类9": "噪声", "方面": "民生基础", "geocode_status": "ok", "board": "民生基础需求", "project_type": "噪声治理", "社区": null, "村": "共谊村"}}, {"type": "Feature", "geometry": {"type": "Point", "coordinates": [111.354693, 30.664327]}, "properties": {"办件编号": "20241021001299", "事件": "投诉", "类9": "出行", "方面": "民生基础", "geocode_status": "ok", "board": "民生基础需求", "project_type": "交通设施", "社区": null, "村": "火光村"}}, {"type": "Feature", "geometry": {"type": "Point", "coordinates": [111.354693, 30.664327]}, "properties": {"办件编号": "20241019000876", "事件": "投诉", "类9": "噪声", "方面": "民生基础", "geocode_status": "ok", "board": "民生基础需求", "project_type": "噪声治理", "社区": null, "村": "火光村"}}, {"type": "Feature", "geometry": {"type": "Point", "coordinates": [111.354693, 30.664327]}, "properties": {"办件编号": "20241019000875", "事件": "投诉", "类9": "噪声", "方面": "民生基础", "geocode_status": "ok", "board": "民生基础需求", "project_type": "噪声治理", "社区": null, "村": "火光村"}}, {"type": "Feature", "geometry": {"type": "Point", "coordinates": [111.354693, 30.664327]}, "properties": {"办件编号": "20241019000873", "事件": "投诉", "类9": "噪声", "方面": "民生基础", "geocode_status": "ok", "board": "民生基础需求", "project_type": "噪声治理", "社区": null, "村": "火光村"}}, {"type": "Feature", "geometry": {"type": "Point", "coordinates": [111.354693, 30.664327]}, "properties": {"办件编号": "20241019000059", "事件": "投诉", "类9": "噪声", "方面": "民生基础", "geocode_status": "ok", "board": "民生基础需求", "project_type": "噪声治理", "社区": null, "村": "火光村"}}, {"type": "Feature", "geometry": {"type": "Point", "coordinates": [111.395094, 30.658967]}, "properties": {"办件编号": "20241018001224", "事件": "投诉", "类9": "停车", "方面": "民生基础", "geocode_status": "ok", "board": "民生基础需求", "project_type": "停车设施", "社区": null, "村": "共升村"}}, {"type": "Feature", "geometry": {"type": "Point", "coordinates": [111.384703, 30.630331]}, "properties": {"办件编号": "20241015001485", "事件": "投诉", "类9": "物业", "方面": "民生基础", "geocode_status": "ok", "board": "民生基础需求", "project_type": "环境治理", "社区": null, "村": "共联村"}}, {"type": "Feature", "geometry": {"type": "Point", "coordinates": [111.354693, 30.664327]}, "properties": {"办件编号": "20241015000753", "事件": "投诉", "类9": "噪声", "方面": "民生基础", "geocode_status": "ok", "board": "民生基础需求", "project_type": "噪声治理", "社区": null, "村": "火光村"}}, {"type": "Feature", "geometry": {"type": "Point", "coordinates": [111.354693, 30.664327]}, "properties": {"办件编号": "20241015000648", "事件": "投诉", "类9": "噪声", "方面": "民生基础", "geocode_status": "ok", "board": "民生基础需求", "project_type": "噪声治理", "社区": null, "村": "火光村"}}, {"type": "Feature", "geometry": {"type": "Point", "coordinates": [111.354693, 30.664327]}, "properties": {"办件编号": "20241015000009", "事件": "投诉", "类9": "噪声", "方面": "民生基础", "geocode_status": "ok", "board": "民生基础需求", "project_type": "噪声治理", "社区": null, "村": "火光村"}}, {"type": "Feature", "geometry": {"type": "Point", "coordinates": [111.360683, 30.645366]}, "properties": {"办件编号": "20241014000525", "事件": "投诉", "类9": "噪声", "方面": "民生基础", "geocode_status": "ok", "board": "民生基础需求", "project_type": "街面秩序", "社区": null, "村": "共勤村"}}, {"type": "Feature", "geometry": {"type": "Point", "coordinates": [111.384657, 30.623383]}, "properties": {"办件编号": "20240929001353", "事件": "投诉", "类9": "噪声", "方面": "民生基础", "geocode_status": "ok", "board": "民生基础需求", "project_type": "噪声治理", "社区": null, "村": "共联村"}}, {"type": "Feature", "geometry": {"type": "Point", "coordinates": [111.358933, 30.677486]}, "properties": {"办件编号": "20240929001131", "事件": "建议", "类9": "出行", "方面": "民生基础", "geocode_status": "ok", "board": "民生基础需求", "project_type": "交通设施", "社区": null, "村": "联丰村"}}, {"type": "Feature", "geometry": {"type": "Point", "coordinates": [111.355256, 30.691889]}, "properties": {"办件编号": "20240928000826", "事件": "投诉", "类9": "物业", "方面": "民生基础", "geocode_status": "ok", "board": "民生基础需求", "project_type": "环境治理", "社区": null, "村": "旭光村"}}, {"type": "Feature", "geometry": {"type": "Point", "coordinates": [111.354693, 30.664327]}, "properties": {"办件编号": "20240926000190", "事件": "求助", "类9": "物业", "方面": "民生基础", "geocode_status": "ok", "board": "民生基础需求", "project_type": "环境治理", "社区": null, "村": "火光村"}}, {"type": "Feature", "geometry": {"type": "Point", "coordinates": [111.354693, 30.664327]}, "properties": {"办件编号": "20240926000187", "事件": "求助", "类9": "物业", "方面": "民生基础", "geocode_status": "ok", "board": "民生基础需求", "project_type": "环境治理", "社区": null, "村": "火光村"}}, {"type": "Feature", "geometry": {"type": "Point", "coordinates": [111.395094, 30.658967]}, "properties": {"办件编号": "20240923002817", "事件": "投诉", "类9": "停车", "方面": "民生基础", "geocode_status": "ok", "board": "民生基础需求", "project_type": "停车设施", "社区": null, "村": "共升村"}}, {"type": "Feature", "geometry": {"type": "Point", "coordinates": [111.354693, 30.664327]}, "properties": {"办件编号": "20240923002004", "事件": "投诉", "类9": "噪声", "方面": "民生基础", "geocode_status": "ok", "board": "民生基础需求", "project_type": "噪声治理", "社区": null, "村": "火光村"}}, {"type": "Feature", "geometry": {"type": "Point", "coordinates": [111.354693, 30.664327]}, "properties": {"办件编号": "20240923002003", "事件": "投诉", "类9": "噪声", "方面": "民生基础", "geocode_status": "ok", "board": "民生基础需求", "project_type": "噪声治理", "社区": null, "村": "火光村"}}, {"type": "Feature", "geometry": {"type": "Point", "coordinates": [111.354693, 30.664327]}, "properties": {"办件编号": "20240921005486", "事件": "投诉", "类9": "噪声", "方面": "民生基础", "geocode_status": "ok", "board": "民生基础需求", "project_type": "施工管理", "社区": null, "村": "火光村"}}, {"type": "Feature", "geometry": {"type": "Point", "coordinates": [111.355256, 30.691889]}, "properties": {"办件编号": "20240919000287", "事件": "投诉", "类9": "物业", "方面": "民生基础", "geocode_status": "ok", "board": "民生基础需求", "project_type": "物业管理", "社区": null, "村": "旭光村"}}, {"type": "Feature", "geometry": {"type": "Point", "coordinates": [111.384657, 30.623383]}, "properties": {"办件编号": "20240917000583", "事件": "投诉", "类9": "噪声", "方面": "民生基础", "geocode_status": "ok", "board": "民生基础需求", "project_type": "噪声治理", "社区": null, "村": "共联村"}}, {"type": "Feature", "geometry": {"type": "Point", "coordinates": [111.354693, 30.664327]}, "properties": {"办件编号": "20240911001436", "事件": "投诉", "类9": "噪声", "方面": "民生基础", "geocode_status": "ok", "board": "民生基础需求", "project_type": "街面秩序", "社区": null, "村": "火光村"}}, {"type": "Feature", "geometry": {"type": "Point", "coordinates": [111.412151, 30.648667]}, "properties": {"办件编号": "20240911000908", "事件": "求助", "类9": "住宅", "方面": "民生基础", "geocode_status": "ok", "board": "民生基础需求", "project_type": "住房", "社区": null, "村": "灵宝村"}}, {"type": "Feature", "geometry": {"type": "Point", "coordinates": [111.354693, 30.664327]}, "properties": {"办件编号": "20240905000984", "事件": "建议", "类9": "出行", "方面": "民生基础", "geocode_status": "ok", "board": "民生基础需求", "project_type": "交通设施", "社区": null, "村": "火光村"}}, {"type": "Feature", "geometry": {"type": "Point", "coordinates": [111.349078, 30.657798]}, "properties": {"办件编号": "20240904000349", "事件": "投诉", "类9": "停车", "方面": "民生基础", "geocode_status": "ok", "board": "民生基础需求", "project_type": "停车设施", "社区": null, "村": "火光村"}}, {"type": "Feature", "geometry": {"type": "Point", "coordinates": [111.354693, 30.664327]}, "properties": {"办件编号": "20240903000441", "事件": "投诉", "类9": "噪声", "方面": "民生基础", "geocode_status": "ok", "board": "民生基础需求", "project_type": "噪声治理", "社区": null, "村": "火光村"}}, {"type": "Feature", "geometry": {"type": "Point", "coordinates": [111.354693, 30.664327]}, "properties": {"办件编号": "20240903000297", "事件": "求助", "类9": "出行", "方面": "民生基础", "geocode_status": "ok", "board": "民生基础需求", "project_type": "交通设施", "社区": null, "村": "火光村"}}, {"type": "Feature", "geometry": {"type": "Point", "coordinates": [111.354693, 30.664327]}, "properties": {"办件编号": "20240902001547", "事件": "投诉", "类9": "停车", "方面": "民生基础", "geocode_status": "ok", "board": "民生基础需求", "project_type": "停车设施", "社区": null, "村": "火光村"}}, {"type": "Feature", "geometry": {"type": "Point", "coordinates": [111.375173, 30.647312]}, "properties": {"办件编号": "20240902000151", "事件": "投诉", "类9": "停车", "方面": "民生基础", "geocode_status": "ok", "board": "民生基础需求", "project_type": "停车设施", "社区": null, "村": "共谊村"}}, {"type": "Feature", "geometry": {"type": "Point", "coordinates": [111.384657, 30.623383]}, "properties": {"办件编号": "20240901000917", "事件": "投诉", "类9": "噪声", "方面": "民生基础", "geocode_status": "ok", "board": "民生基础需求", "project_type": "噪声治理", "社区": null, "村": "共联村"}}, {"type": "Feature", "geometry": {"type": "Point", "coordinates": [111.354693, 30.664327]}, "properties": {"办件编号": "20240831000263", "事件": "投诉", "类9": "物业", "方面": "民生基础", "geocode_status": "ok", "board": "民生基础需求", "project_type": "公服设施", "社区": null, "村": "火光村"}}, {"type": "Feature", "geometry": {"type": "Point", "coordinates": [111.354693, 30.664327]}, "properties": {"办件编号": "20240831000029", "事件": "建议", "类9": "出行", "方面": "民生基础", "geocode_status": "ok", "board": "民生基础需求", "project_type": "交通设施", "社区": null, "村": "火光村"}}, {"type": "Feature", "geometry": {"type": "Point", "coordinates": [111.359856, 30.64551]}, "properties": {"办件编号": "20240830000628", "事件": "建议", "类9": "出行", "方面": "民生基础", "geocode_status": "ok", "board": "民生基础需求", "project_type": "交通设施", "社区": null, "村": "共勤村"}}, {"type": "Feature", "geometry": {"type": "Point", "coordinates": [111.360404, 30.64648]}, "properties": {"办件编号": "20240829000621", "事件": "求助", "类9": "出行", "方面": "民生基础", "geocode_status": "ok", "board": "民生基础需求", "project_type": "交通设施", "社区": null, "村": "共勤村"}}, {"type": "Feature", "geometry": {"type": "Point", "coordinates": [111.354693, 30.664327]}, "properties": {"办件编号": "20240826000702", "事件": "投诉", "类9": "物业", "方面": "民生基础", "geocode_status": "ok", "board": "民生基础需求", "project_type": "公服设施", "社区": null, "村": "火光村"}}, {"type": "Feature", "geometry": {"type": "Point", "coordinates": [111.349078, 30.657798]}, "properties": {"办件编号": "20240825000755", "事件": "投诉", "类9": "噪声", "方面": "民生基础", "geocode_status": "ok", "board": "民生基础需求", "project_type": "噪声治理", "社区": null, "村": "火光村"}}, {"type": "Feature", "geometry": {"type": "Point", "coordinates": [111.354693, 30.664327]}, "properties": {"办件编号": "20240825000074", "事件": "投诉", "类9": "噪声", "方面": "民生基础", "geocode_status": "ok", "board": "民生基础需求", "project_type": "噪声治理", "社区": null, "村": "火光村"}}, {"type": "Feature", "geometry": {"type": "Point", "coordinates": [111.361317, 30.647375]}, "properties": {"办件编号": "20240824000707", "事件": "投诉", "类9": "停车", "方面": "民生基础", "geocode_status": "ok", "board": "民生基础需求", "project_type": "停车设施", "社区": null, "村": "共勤村"}}, {"type": "Feature", "geometry": {"type": "Point", "coordinates": [111.354693, 30.664327]}, "properties": {"办件编号": "20240818000053", "事件": "投诉", "类9": "噪声", "方面": "民生基础", "geocode_status": "ok", "board": "民生基础需求", "project_type": "噪声治理", "社区": null, "村": "火光村"}}, {"type": "Feature", "geometry": {"type": "Point", "coordinates": [111.384657, 30.623383]}, "properties": {"办件编号": "20240815000124", "事件": "投诉", "类9": "噪声", "方面": "民生基础", "geocode_status": "ok", "board": "民生基础需求", "project_type": "噪声治理", "社区": null, "村": "共联村"}}, {"type": "Feature", "geometry": {"type": "Point", "coordinates": [111.351919, 30.674621]}, "properties": {"办件编号": "20240808000991", "事件": "投诉", "类9": "住宅", "方面": "民生基础", "geocode_status": "ok", "board": "民生基础需求", "project_type": "住房", "社区": null, "村": "联丰村"}}, {"type": "Feature", "geometry": {"type": "Point", "coordinates": [111.351919, 30.674621]}, "properties": {"办件编号": "20240808000115", "事件": "投诉", "类9": "住宅", "方面": "民生基础", "geocode_status": "ok", "board": "民生基础需求", "project_type": "住房", "社区": null, "村": "联丰村"}}, {"type": "Feature", "geometry": {"type": "Point", "coordinates": [111.354693, 30.664327]}, "properties": {"办件编号": "20240806000505", "事件": "建议", "类9": "出行", "方面": "民生基础", "geocode_status": "ok", "board": "民生基础需求", "project_type": "交通设施", "社区": null, "村": "火光村"}}, {"type": "Feature", "geometry": {"type": "Point", "coordinates": [111.348446, 30.655197]}, "properties": {"办件编号": "20240805000441", "事件": "投诉", "类9": "物业", "方面": "民生基础", "geocode_status": "ok", "board": "民生基础需求", "project_type": "公服设施", "社区": null, "村": "火光村"}}, {"type": "Feature", "geometry": {"type": "Point", "coordinates": [111.349078, 30.657798]}, "properties": {"办件编号": "20240802000746", "事件": "投诉", "类9": "住宅", "方面": "民生基础", "geocode_status": "ok", "board": "民生基础需求", "project_type": "住房", "社区": null, "村": "火光村"}}, {"type": "Feature", "geometry": {"type": "Point", "coordinates": [111.354693, 30.664327]}, "properties": {"办件编号": "20240728000330", "事件": "投诉", "类9": "噪声", "方面": "民生基础", "geocode_status": "ok", "board": "民生基础需求", "project_type": "施工管理", "社区": null, "村": "火光村"}}, {"type": "Feature", "geometry": {"type": "Point", "coordinates": [111.357486, 30.691518]}, "properties": {"办件编号": "20240728000140", "事件": "投诉", "类9": "停车", "方面": "民生基础", "geocode_status": "ok", "board": "民生基础需求", "project_type": "停车设施", "社区": null, "村": "旭光村"}}, {"type": "Feature", "geometry": {"type": "Point", "coordinates": [111.360683, 30.645366]}, "properties": {"办件编号": "20240723001219", "事件": "投诉", "类9": "物业", "方面": "民生基础", "geocode_status": "ok", "board": "民生基础需求", "project_type": "环境治理", "社区": null, "村": "共勤村"}}, {"type": "Feature", "geometry": {"type": "Point", "coordinates": [111.340637, 30.692801]}, "properties": {"办件编号": "20240719000696", "事件": "投诉", "类9": "出行", "方面": "民生基础", "geocode_status": "ok", "board": "民生基础需求", "project_type": "交通设施", "社区": null, "村": "旭光村"}}, {"type": "Feature", "geometry": {"type": "Point", "coordinates": [111.354693, 30.664327]}, "properties": {"办件编号": "20240718000316", "事件": "投诉", "类9": "住宅", "方面": "民生基础", "geocode_status": "ok", "board": "民生基础需求", "project_type": "住房", "社区": null, "村": "火光村"}}, {"type": "Feature", "geometry": {"type": "Point", "coordinates": [111.355256, 30.691889]}, "properties": {"办件编号": "20240712000488", "事件": "投诉", "类9": "物业", "方面": "民生基础", "geocode_status": "ok", "board": "民生基础需求", "project_type": "物业管理", "社区": null, "村": "旭光村"}}, {"type": "Feature", "geometry": {"type": "Point", "coordinates": [111.355256, 30.691889]}, "properties": {"办件编号": "20240712000381", "事件": "投诉", "类9": "物业", "方面": "民生基础", "geocode_status": "ok", "board": "民生基础需求", "project_type": "物业管理", "社区": null, "村": "旭光村"}}, {"type": "Feature", "geometry": {"type": "Point", "coordinates": [111.355256, 30.691889]}, "properties": {"办件编号": "20240709000602", "事件": "投诉", "类9": "噪声", "方面": "民生基础", "geocode_status": "ok", "board": "民生基础需求", "project_type": "噪声治理", "社区": null, "村": "旭光村"}}, {"type": "Feature", "geometry": {"type": "Point", "coordinates": [111.354693, 30.664327]}, "properties": {"办件编号": "20240706000055", "事件": "投诉", "类9": "噪声", "方面": "民生基础", "geocode_status": "ok", "board": "民生基础需求", "project_type": "噪声治理", "社区": null, "村": "火光村"}}, {"type": "Feature", "geometry": {"type": "Point", "coordinates": [111.354693, 30.664327]}, "properties": {"办件编号": "20240703000488", "事件": "投诉", "类9": "物业", "方面": "民生基础", "geocode_status": "ok", "board": "民生基础需求", "project_type": "物业管理", "社区": null, "村": "火光村"}}, {"type": "Feature", "geometry": {"type": "Point", "coordinates": [111.349078, 30.657798]}, "properties": {"办件编号": "20240628000622", "事件": "投诉", "类9": "住宅", "方面": "民生基础", "geocode_status": "ok", "board": "民生基础需求", "project_type": "住房", "社区": null, "村": "火光村"}}, {"type": "Feature", "geometry": {"type": "Point", "coordinates": [111.349078, 30.657798]}, "properties": {"办件编号": "20240628000161", "事件": "投诉", "类9": "住宅", "方面": "民生基础", "geocode_status": "ok", "board": "民生基础需求", "project_type": "住房", "社区": null, "村": "火光村"}}, {"type": "Feature", "geometry": {"type": "Point", "coordinates": [111.406531, 30.655526]}, "properties": {"办件编号": "20240625000092", "事件": "投诉", "类9": "停车", "方面": "民生基础", "geocode_status": "ok", "board": "民生基础需求", "project_type": "停车设施", "社区": null, "村": "共升村"}}, {"type": "Feature", "geometry": {"type": "Point", "coordinates": [111.351919, 30.674621]}, "properties": {"办件编号": "20240622000062", "事件": "建议", "类9": "出行", "方面": "民生基础", "geocode_status": "ok", "board": "民生基础需求", "project_type": "交通设施", "社区": null, "村": "联丰村"}}, {"type": "Feature", "geometry": {"type": "Point", "coordinates": [111.355256, 30.691889]}, "properties": {"办件编号": "20240620001331", "事件": "投诉", "类9": "停车", "方面": "民生基础", "geocode_status": "ok", "board": "民生基础需求", "project_type": "停车设施", "社区": null, "村": "旭光村"}}, {"type": "Feature", "geometry": {"type": "Point", "coordinates": [111.360683, 30.645366]}, "properties": {"办件编号": "20240620000095", "事件": "投诉", "类9": "噪声", "方面": "民生基础", "geocode_status": "ok", "board": "民生基础需求", "project_type": "噪声治理", "社区": null, "村": "共勤村"}}, {"type": "Feature", "geometry": {"type": "Point", "coordinates": [111.354693, 30.664327]}, "properties": {"办件编号": "20240618000575", "事件": "建议", "类9": "物业", "方面": "民生基础", "geocode_status": "ok", "board": "民生基础需求", "project_type": "环境治理", "社区": null, "村": "火光村"}}, {"type": "Feature", "geometry": {"type": "Point", "coordinates": [111.354693, 30.664327]}, "properties": {"办件编号": "20240614000730", "事件": "投诉", "类9": "住宅", "方面": "民生基础", "geocode_status": "ok", "board": "民生基础需求", "project_type": "住房", "社区": null, "村": "火光村"}}, {"type": "Feature", "geometry": {"type": "Point", "coordinates": [111.354693, 30.664327]}, "properties": {"办件编号": "20240614000102", "事件": "投诉", "类9": "噪声", "方面": "民生基础", "geocode_status": "ok", "board": "民生基础需求", "project_type": "施工管理", "社区": null, "村": "火光村"}}, {"type": "Feature", "geometry": {"type": "Point", "coordinates": [111.354693, 30.664327]}, "properties": {"办件编号": "20240605000373", "事件": "求助", "类9": "物业", "方面": "民生基础", "geocode_status": "ok", "board": "民生基础需求", "project_type": "环境治理", "社区": null, "村": "火光村"}}, {"type": "Feature", "geometry": {"type": "Point", "coordinates": [111.354693, 30.664327]}, "properties": {"办件编号": "20240604000894", "事件": "投诉", "类9": "噪声", "方面": "民生基础", "geocode_status": "ok", "board": "民生基础需求", "project_type": "噪声治理", "社区": null, "村": "火光村"}}, {"type": "Feature", "geometry": {"type": "Point", "coordinates": [111.355256, 30.691889]}, "properties": {"办件编号": "20240531001356", "事件": "投诉", "类9": "噪声", "方面": "民生基础", "geocode_status": "ok", "board": "民生基础需求", "project_type": "噪声治理", "社区": null, "村": "旭光村"}}, {"type": "Feature", "geometry": {"type": "Point", "coordinates": [111.354693, 30.664327]}, "properties": {"办件编号": "20240531000795", "事件": "投诉", "类9": "噪声", "方面": "民生基础", "geocode_status": "ok", "board": "民生基础需求", "project_type": "噪声治理", "社区": null, "村": "火光村"}}, {"type": "Feature", "geometry": {"type": "Point", "coordinates": [111.355256, 30.691889]}, "properties": {"办件编号": "20240531000694", "事件": "投诉", "类9": "物业", "方面": "民生基础", "geocode_status": "ok", "board": "民生基础需求", "project_type": "环境治理", "社区": null, "村": "旭光村"}}, {"type": "Feature", "geometry": {"type": "Point", "coordinates": [111.354693, 30.664327]}, "properties": {"办件编号": "20240530001222", "事件": "投诉", "类9": "噪声", "方面": "民生基础", "geocode_status": "ok", "board": "民生基础需求", "project_type": "噪声治理", "社区": null, "村": "火光村"}}, {"type": "Feature", "geometry": {"type": "Point", "coordinates": [111.354693, 30.664327]}, "properties": {"办件编号": "20240528001442", "事件": "投诉", "类9": "噪声", "方面": "民生基础", "geocode_status": "ok", "board": "民生基础需求", "project_type": "街面秩序", "社区": null, "村": "火光村"}}, {"type": "Feature", "geometry": {"type": "Point", "coordinates": [111.357486, 30.691518]}, "properties": {"办件编号": "20240528000551", "事件": "求助", "类9": "物业", "方面": "民生基础", "geocode_status": "ok", "board": "民生基础需求", "project_type": "环境治理", "社区": null, "村": "旭光村"}}, {"type": "Feature", "geometry": {"type": "Point", "coordinates": [111.351919, 30.674621]}, "properties": {"办件编号": "20240528000246", "事件": "投诉", "类9": "噪声", "方面": "民生基础", "geocode_status": "ok", "board": "民生基础需求", "project_type": "噪声治理", "社区": null, "村": "联丰村"}}, {"type": "Feature", "geometry": {"type": "Point", "coordinates": [111.349078, 30.657798]}, "properties": {"办件编号": "20240524001092", "事件": "投诉", "类9": "噪声", "方面": "民生基础", "geocode_status": "ok", "board": "民生基础需求", "project_type": "噪声治理", "社区": null, "村": "火光村"}}, {"type": "Feature", "geometry": {"type": "Point", "coordinates": [111.395094, 30.658967]}, "properties": {"办件编号": "20240524000851", "事件": "投诉", "类9": "物业", "方面": "民生基础", "geocode_status": "ok", "board": "民生基础需求", "project_type": "环境治理", "社区": null, "村": "共升村"}}, {"type": "Feature", "geometry": {"type": "Point", "coordinates": [111.354693, 30.664327]}, "properties": {"办件编号": "20240516000978", "事件": "求助", "类9": "物业", "方面": "民生基础", "geocode_status": "ok", "board": "民生基础需求", "project_type": "环境治理", "社区": null, "村": "火光村"}}, {"type": "Feature", "geometry": {"type": "Point", "coordinates": [111.340912, 30.668696]}, "properties": {"办件编号": "20240515000931", "事件": "投诉", "类9": "停车", "方面": "民生基础", "geocode_status": "ok", "board": "民生基础需求", "project_type": "停车设施", "社区": null, "村": "火光村"}}, {"type": "Feature", "geometry": {"type": "Point", "coordinates": [111.355256, 30.691889]}, "properties": {"办件编号": "20240515000814", "事件": "投诉", "类9": "出行", "方面": "民生基础", "geocode_status": "ok", "board": "民生基础需求", "project_type": "交通设施", "社区": null, "村": "旭光村"}}, {"type": "Feature", "geometry": {"type": "Point", "coordinates": [111.351919, 30.674621]}, "properties": {"办件编号": "20240514000891", "事件": "求助", "类9": "物业", "方面": "民生基础", "geocode_status": "ok", "board": "民生基础需求", "project_type": "环境治理", "社区": null, "村": "联丰村"}}, {"type": "Feature", "geometry": {"type": "Point", "coordinates": [111.340912, 30.668696]}, "properties": {"办件编号": "20240513000803", "事件": "求助", "类9": "物业", "方面": "民生基础", "geocode_status": "ok", "board": "民生基础需求", "project_type": "公服设施", "社区": null, "村": "火光村"}}, {"type": "Feature", "geometry": {"type": "Point", "coordinates": [111.354693, 30.664327]}, "properties": {"办件编号": "20240510001291", "事件": "投诉", "类9": "出行", "方面": "民生基础", "geocode_status": "ok", "board": "民生基础需求", "project_type": "交通设施", "社区": null, "村": "火光村"}}, {"type": "Feature", "geometry": {"type": "Point", "coordinates": [111.355256, 30.691889]}, "properties": {"办件编号": "20240510000867", "事件": "建议", "类9": "出行", "方面": "民生基础", "geocode_status": "ok", "board": "民生基础需求", "project_type": "交通设施", "社区": null, "村": "旭光村"}}, {"type": "Feature", "geometry": {"type": "Point", "coordinates": [111.384657, 30.623383]}, "properties": {"办件编号": "20240508000444", "事件": "投诉", "类9": "出行", "方面": "民生基础", "geocode_status": "ok", "board": "民生基础需求", "project_type": "市政管网", "社区": null, "村": "共联村"}}, {"type": "Feature", "geometry": {"type": "Point", "coordinates": [111.355256, 30.691889]}, "properties": {"办件编号": "20240507000226", "事件": "投诉", "类9": "出行", "方面": "民生基础", "geocode_status": "ok", "board": "民生基础需求", "project_type": "交通设施", "社区": null, "村": "旭光村"}}, {"type": "Feature", "geometry": {"type": "Point", "coordinates": [111.432811, 30.666081]}, "properties": {"办件编号": "20240504000242", "事件": "投诉", "类9": "停车", "方面": "民生基础", "geocode_status": "ok", "board": "民生基础需求", "project_type": "停车设施", "社区": null, "村": "灵宝村"}}, {"type": "Feature", "geometry": {"type": "Point", "coordinates": [111.351934, 30.664438]}, "properties": {"办件编号": "20240429000620", "事件": "投诉", "类9": "物业", "方面": "民生基础", "geocode_status": "ok", "board": "民生基础需求", "project_type": "环境治理", "社区": null, "村": "火光村"}}, {"type": "Feature", "geometry": {"type": "Point", "coordinates": [111.363979, 30.645088]}, "properties": {"办件编号": "20240427000332", "事件": "投诉", "类9": "住宅", "方面": "民生基础", "geocode_status": "ok", "board": "民生基础需求", "project_type": "住房", "社区": null, "村": "共勤村"}}, {"type": "Feature", "geometry": {"type": "Point", "coordinates": [111.354693, 30.664327]}, "properties": {"办件编号": "20240426000272", "事件": "求助", "类9": "物业", "方面": "民生基础", "geocode_status": "ok", "board": "民生基础需求", "project_type": "环境治理", "社区": null, "村": "火光村"}}, {"type": "Feature", "geometry": {"type": "Point", "coordinates": [111.354693, 30.664327]}, "properties": {"办件编号": "20240423000318", "事件": "投诉", "类9": "噪声", "方面": "民生基础", "geocode_status": "ok", "board": "民生基础需求", "project_type": "噪声治理", "社区": null, "村": "火光村"}}, {"type": "Feature", "geometry": {"type": "Point", "coordinates": [111.354693, 30.664327]}, "properties": {"办件编号": "20240422001540", "事件": "投诉", "类9": "停车", "方面": "民生基础", "geocode_status": "ok", "board": "民生基础需求", "project_type": "停车设施", "社区": null, "村": "火光村"}}, {"type": "Feature", "geometry": {"type": "Point", "coordinates": [111.354693, 30.664327]}, "properties": {"办件编号": "20240422001515", "事件": "投诉", "类9": "噪声", "方面": "民生基础", "geocode_status": "ok", "board": "民生基础需求", "project_type": "街面秩序", "社区": null, "村": "火光村"}}, {"type": "Feature", "geometry": {"type": "Point", "coordinates": [111.354693, 30.664327]}, "properties": {"办件编号": "20240418000759", "事件": "投诉", "类9": "出行", "方面": "民生基础", "geocode_status": "ok", "board": "民生基础需求", "project_type": "交通设施", "社区": null, "村": "火光村"}}, {"type": "Feature", "geometry": {"type": "Point", "coordinates": [111.349078, 30.657798]}, "properties": {"办件编号": "20240418000390", "事件": "投诉", "类9": "噪声", "方面": "民生基础", "geocode_status": "ok", "board": "民生基础需求", "project_type": "街面秩序", "社区": null, "村": "火光村"}}, {"type": "Feature", "geometry": {"type": "Point", "coordinates": [111.395094, 30.658967]}, "properties": {"办件编号": "20240415001168", "事件": "投诉", "类9": "住宅", "方面": "民生基础", "geocode_status": "ok", "board": "民生基础需求", "project_type": "城市更新", "社区": null, "村": "共升村"}}, {"type": "Feature", "geometry": {"type": "Point", "coordinates": [111.355256, 30.691889]}, "properties": {"办件编号": "20240410000146", "事件": "投诉", "类9": "出行", "方面": "民生基础", "geocode_status": "ok", "board": "民生基础需求", "project_type": "交通设施", "社区": null, "村": "旭光村"}}, {"type": "Feature", "geometry": {"type": "Point", "coordinates": [111.340912, 30.668696]}, "properties": {"办件编号": "20240409001334", "事件": "投诉", "类9": "噪声", "方面": "民生基础", "geocode_status": "ok", "board": "民生基础需求", "project_type": "施工管理", "社区": null, "村": "火光村"}}, {"type": "Feature", "geometry": {"type": "Point", "coordinates": [111.406349, 30.647459]}, "properties": {"办件编号": "20240408001242", "事件": "投诉", "类9": "物业", "方面": "民生基础", "geocode_status": "ok", "board": "民生基础需求", "project_type": "环境治理", "社区": null, "村": "共升村"}}, {"type": "Feature", "geometry": {"type": "Point", "coordinates": [111.360683, 30.645366]}, "properties": {"办件编号": "20240405000321", "事件": "投诉", "类9": "噪声", "方面": "民生基础", "geocode_status": "ok", "board": "民生基础需求", "project_type": "噪声治理", "社区": null, "村": "共勤村"}}, {"type": "Feature", "geometry": {"type": "Point", "coordinates": [111.348446, 30.655197]}, "properties": {"办件编号": "20240403000381", "事件": "投诉", "类9": "住宅", "方面": "民生基础", "geocode_status": "ok", "board": "民生基础需求", "project_type": "住房", "社区": null, "村": "火光村"}}, {"type": "Feature", "geometry": {"type": "Point", "coordinates": [111.354693, 30.664327]}, "properties": {"办件编号": "20240329000181", "事件": "投诉", "类9": "出行", "方面": "民生基础", "geocode_status": "ok", "board": "民生基础需求", "project_type": "交通设施", "社区": null, "村": "火光村"}}, {"type": "Feature", "geometry": {"type": "Point", "coordinates": [111.351919, 30.674621]}, "properties": {"办件编号": "20240328001155", "事件": "投诉", "类9": "住宅", "方面": "民生基础", "geocode_status": "ok", "board": "民生基础需求", "project_type": "住房", "社区": null, "村": "联丰村"}}, {"type": "Feature", "geometry": {"type": "Point", "coordinates": [111.395094, 30.658967]}, "properties": {"办件编号": "20240327000089", "事件": "投诉", "类9": "停车", "方面": "民生基础", "geocode_status": "ok", "board": "民生基础需求", "project_type": "停车设施", "社区": null, "村": "共升村"}}, {"type": "Feature", "geometry": {"type": "Point", "coordinates": [111.376955, 30.648651]}, "properties": {"办件编号": "20240326000398", "事件": "投诉", "类9": "停车", "方面": "民生基础", "geocode_status": "ok", "board": "民生基础需求", "project_type": "停车设施", "社区": null, "村": "共谊村"}}, {"type": "Feature", "geometry": {"type": "Point", "coordinates": [111.350139, 30.659966]}, "properties": {"办件编号": "20240325000308", "事件": "投诉", "类9": "住宅", "方面": "民生基础", "geocode_status": "ok", "board": "民生基础需求", "project_type": "住房", "社区": null, "村": "火光村"}}, {"type": "Feature", "geometry": {"type": "Point", "coordinates": [111.350139, 30.659966]}, "properties": {"办件编号": "20240325000107", "事件": "投诉", "类9": "住宅", "方面": "民生基础", "geocode_status": "ok", "board": "民生基础需求", "project_type": "住房", "社区": null, "村": "火光村"}}, {"type": "Feature", "geometry": {"type": "Point", "coordinates": [111.349078, 30.657798]}, "properties": {"办件编号": "20240322000336", "事件": "投诉", "类9": "住宅", "方面": "民生基础", "geocode_status": "ok", "board": "民生基础需求", "project_type": "住房", "社区": null, "村": "火光村"}}, {"type": "Feature", "geometry": {"type": "Point", "coordinates": [111.384657, 30.623383]}, "properties": {"办件编号": "20240321000015", "事件": "投诉", "类9": "住宅", "方面": "民生基础", "geocode_status": "ok", "board": "民生基础需求", "project_type": "住房", "社区": null, "村": "共联村"}}, {"type": "Feature", "geometry": {"type": "Point", "coordinates": [111.355256, 30.691889]}, "properties": {"办件编号": "20240318000300", "事件": "求助", "类9": "停车", "方面": "民生基础", "geocode_status": "ok", "board": "民生基础需求", "project_type": "停车设施", "社区": null, "村": "旭光村"}}, {"type": "Feature", "geometry": {"type": "Point", "coordinates": [111.351919, 30.674621]}, "properties": {"办件编号": "20240317000441", "事件": "投诉", "类9": "噪声", "方面": "民生基础", "geocode_status": "ok", "board": "民生基础需求", "project_type": "噪声治理", "社区": null, "村": "联丰村"}}, {"type": "Feature", "geometry": {"type": "Point", "coordinates": [111.354693, 30.664327]}, "properties": {"办件编号": "20240310000691", "事件": "投诉", "类9": "噪声", "方面": "民生基础", "geocode_status": "ok", "board": "民生基础需求", "project_type": "噪声治理", "社区": null, "村": "火光村"}}, {"type": "Feature", "geometry": {"type": "Point", "coordinates": [111.354693, 30.664327]}, "properties": {"办件编号": "20240310000091", "事件": "求助", "类9": "物业", "方面": "民生基础", "geocode_status": "ok", "board": "民生基础需求", "project_type": "公服设施", "社区": null, "村": "火光村"}}, {"type": "Feature", "geometry": {"type": "Point", "coordinates": [111.351919, 30.674621]}, "properties": {"办件编号": "20240307000198", "事件": "投诉", "类9": "住宅", "方面": "民生基础", "geocode_status": "ok", "board": "民生基础需求", "project_type": "住房", "社区": null, "村": "联丰村"}}, {"type": "Feature", "geometry": {"type": "Point", "coordinates": [111.354693, 30.664327]}, "properties": {"办件编号": "20240305000980", "事件": "求助", "类9": "物业", "方面": "民生基础", "geocode_status": "ok", "board": "民生基础需求", "project_type": "环境治理", "社区": null, "村": "火光村"}}, {"type": "Feature", "geometry": {"type": "Point", "coordinates": [111.354693, 30.664327]}, "properties": {"办件编号": "20240303000326", "事件": "投诉", "类9": "噪声", "方面": "民生基础", "geocode_status": "ok", "board": "民生基础需求", "project_type": "街面秩序", "社区": null, "村": "火光村"}}, {"type": "Feature", "geometry": {"type": "Point", "coordinates": [111.349078, 30.657798]}, "properties": {"办件编号": "20240229000095", "事件": "投诉", "类9": "住宅", "方面": "民生基础", "geocode_status": "ok", "board": "民生基础需求", "project_type": "住房", "社区": null, "村": "火光村"}}, {"type": "Feature", "geometry": {"type": "Point", "coordinates": [111.355256, 30.691889]}, "properties": {"办件编号": "20240228000147", "事件": "投诉", "类9": "出行", "方面": "民生基础", "geocode_status": "ok", "board": "民生基础需求", "project_type": "交通设施", "社区": null, "村": "旭光村"}}, {"type": "Feature", "geometry": {"type": "Point", "coordinates": [111.357486, 30.691518]}, "properties": {"办件编号": "20240228000120", "事件": "求助", "类9": "出行", "方面": "民生基础", "geocode_status": "ok", "board": "民生基础需求", "project_type": "交通设施", "社区": null, "村": "旭光村"}}, {"type": "Feature", "geometry": {"type": "Point", "coordinates": [111.357486, 30.691518]}, "properties": {"办件编号": "20240227001326", "事件": "求助", "类9": "出行", "方面": "民生基础", "geocode_status": "ok", "board": "民生基础需求", "project_type": "交通设施", "社区": null, "村": "旭光村"}}, {"type": "Feature", "geometry": {"type": "Point", "coordinates": [111.351919, 30.674621]}, "properties": {"办件编号": "20240227000900", "事件": "投诉", "类9": "物业", "方面": "民生基础", "geocode_status": "ok", "board": "民生基础需求", "project_type": "物业管理", "社区": null, "村": "联丰村"}}, {"type": "Feature", "geometry": {"type": "Point", "coordinates": [111.354693, 30.664327]}, "properties": {"办件编号": "20240224000629", "事件": "投诉", "类9": "物业", "方面": "民生基础", "geocode_status": "ok", "board": "民生基础需求", "project_type": "物业管理", "社区": null, "村": "火光村"}}, {"type": "Feature", "geometry": {"type": "Point", "coordinates": [111.417521, 30.642867]}, "properties": {"办件编号": "20240223000579", "事件": "求助", "类9": "住宅", "方面": "民生基础", "geocode_status": "ok", "board": "民生基础需求", "project_type": "住房", "社区": null, "村": "灵宝村"}}, {"type": "Feature", "geometry": {"type": "Point", "coordinates": [111.349078, 30.657798]}, "properties": {"办件编号": "20240219000281", "事件": "投诉", "类9": "物业", "方面": "民生基础", "geocode_status": "ok", "board": "民生基础需求", "project_type": "物业管理", "社区": null, "村": "火光村"}}, {"type": "Feature", "geometry": {"type": "Point", "coordinates": [111.357486, 30.691518]}, "properties": {"办件编号": "20240219000130", "事件": "求助", "类9": "出行", "方面": "民生基础", "geocode_status": "ok", "board": "民生基础需求", "project_type": "交通设施", "社区": null, "村": "旭光村"}}, {"type": "Feature", "geometry": {"type": "Point", "coordinates": [111.349078, 30.657798]}, "properties": {"办件编号": "20240218000301", "事件": "投诉", "类9": "住宅", "方面": "民生基础", "geocode_status": "ok", "board": "民生基础需求", "project_type": "住房", "社区": null, "村": "火光村"}}, {"type": "Feature", "geometry": {"type": "Point", "coordinates": [111.339452, 30.686616]}, "properties": {"办件编号": "20240203000480", "事件": "投诉", "类9": "出行", "方面": "民生基础", "geocode_status": "ok", "board": "民生基础需求", "project_type": "市政管网", "社区": null, "村": "旭光村"}}, {"type": "Feature", "geometry": {"type": "Point", "coordinates": [111.354693, 30.664327]}, "properties": {"办件编号": "20240202000125", "事件": "求助", "类9": "物业", "方面": "民生基础", "geocode_status": "ok", "board": "民生基础需求", "project_type": "环境治理", "社区": null, "村": "火光村"}}, {"type": "Feature", "geometry": {"type": "Point", "coordinates": [111.354693, 30.664327]}, "properties": {"办件编号": "20240128000121", "事件": "投诉", "类9": "物业", "方面": "民生基础", "geocode_status": "ok", "board": "民生基础需求", "project_type": "物业管理", "社区": null, "村": "火光村"}}, {"type": "Feature", "geometry": {"type": "Point", "coordinates": [111.358933, 30.677486]}, "properties": {"办件编号": "20240124000109", "事件": "建议", "类9": "出行", "方面": "民生基础", "geocode_status": "ok", "board": "民生基础需求", "project_type": "交通设施", "社区": null, "村": "联丰村"}}, {"type": "Feature", "geometry": {"type": "Point", "coordinates": [111.348683, 30.656991]}, "properties": {"办件编号": "20240123000398", "事件": "投诉", "类9": "停车", "方面": "民生基础", "geocode_status": "ok", "board": "民生基础需求", "project_type": "停车设施", "社区": null, "村": "火光村"}}, {"type": "Feature", "geometry": {"type": "Point", "coordinates": [111.402835, 30.65622]}, "properties": {"办件编号": "20240122000806", "事件": "求助", "类9": "出行", "方面": "民生基础", "geocode_status": "ok", "board": "民生基础需求", "project_type": "交通设施", "社区": null, "村": "共升村"}}, {"type": "Feature", "geometry": {"type": "Point", "coordinates": [111.358933, 30.677486]}, "properties": {"办件编号": "20240120000028", "事件": "投诉", "类9": "噪声", "方面": "民生基础", "geocode_status": "ok", "board": "民生基础需求", "project_type": "噪声治理", "社区": null, "村": "联丰村"}}, {"type": "Feature", "geometry": {"type": "Point", "coordinates": [111.349078, 30.657798]}, "properties": {"办件编号": "20240117000840", "事件": "投诉", "类9": "物业", "方面": "民生基础", "geocode_status": "ok", "board": "民生基础需求", "project_type": "物业管理", "社区": null, "村": "火光村"}}, {"type": "Feature", "geometry": {"type": "Point", "coordinates": [111.351919, 30.674621]}, "properties": {"办件编号": "20240111000305", "事件": "投诉", "类9": "出行", "方面": "民生基础", "geocode_status": "ok", "board": "民生基础需求", "project_type": "市政管网", "社区": null, "村": "联丰村"}}, {"type": "Feature", "geometry": {"type": "Point", "coordinates": [111.395094, 30.658967]}, "properties": {"办件编号": "20240110000692", "事件": "求助", "类9": "物业", "方面": "民生基础", "geocode_status": "ok", "board": "民生基础需求", "project_type": "环境治理", "社区": null, "村": "共升村"}}, {"type": "Feature", "geometry": {"type": "Point", "coordinates": [111.354693, 30.664327]}, "properties": {"办件编号": "20240110000081", "事件": "投诉", "类9": "住宅", "方面": "民生基础", "geocode_status": "ok", "board": "民生基础需求", "project_type": "住房", "社区": null, "村": "火光村"}}, {"type": "Feature", "geometry": {"type": "Point", "coordinates": [111.395094, 30.658967]}, "properties": {"办件编号": "20240109000952", "事件": "求助", "类9": "物业", "方面": "民生基础", "geocode_status": "ok", "board": "民生基础需求", "project_type": "环境治理", "社区": null, "村": "共升村"}}, {"type": "Feature", "geometry": {"type": "Point", "coordinates": [111.395094, 30.658967]}, "properties": {"办件编号": "20240106000608", "事件": "投诉", "类9": "停车", "方面": "民生基础", "geocode_status": "ok", "board": "民生基础需求", "project_type": "停车设施", "社区": null, "村": "共升村"}}, {"type": "Feature", "geometry": {"type": "Point", "coordinates": [111.349078, 30.657798]}, "properties": {"办件编号": "20240105000989", "事件": "投诉", "类9": "噪声", "方面": "民生基础", "geocode_status": "ok", "board": "民生基础需求", "project_type": "噪声治理", "社区": null, "村": "火光村"}}, {"type": "Feature", "geometry": {"type": "Point", "coordinates": [111.355256, 30.691889]}, "properties": {"办件编号": "20240104000706", "事件": "投诉", "类9": "出行", "方面": "民生基础", "geocode_status": "ok", "board": "民生基础需求", "project_type": "交通设施", "社区": null, "村": "旭光村"}}]}