{"type": "FeatureCollection", "features": [{"type": "Feature", "geometry": {"type": "Point", "coordinates": [111.294712, 30.691096]}, "properties": {"办件编号": "20240906000561", "事件": "投诉", "类9": "其他", "方面": "其他", "geocode_status": "ok", "board": "其他", "project_type": "公服设施", "社区": "胜利二路社区", "村": null}}, {"type": "Feature", "geometry": {"type": "Point", "coordinates": [111.321284, 30.67413]}, "properties": {"办件编号": "20240227000356", "事件": "投诉", "类9": "其他", "方面": "其他", "geocode_status": "ok", "board": "其他", "project_type": "公服设施", "社区": "东星社区", "村": null}}, {"type": "Feature", "geometry": {"type": "Point", "coordinates": [111.334306, 30.721825]}, "properties": {"办件编号": "20240206001366", "事件": "求助", "类9": "其他", "方面": "其他", "geocode_status": "ok", "board": "其他", "project_type": "公服设施", "社区": "汕头路社区", "村": null}}]}