{
"type": "FeatureCollection",
"name": "checkup_project_project_line",
"crs": { "type": "name", "properties": { "name": "urn:ogc:def:crs:OGC:1.3:CRS84" } },
"features": [
{ "type": "Feature", "properties": { "Shape_Length": 871.41005343248753, "XMMC": "宜昌市西陵区运河片区生活污水管网建设项目", "XZQ": "西陵区", "TZE": 12200.0, "MJ": null }, "geometry": { "type": "MultiLineString", "coordinates": [ [ [ 111.302895808006127, 30.696574481979432 ], [ 111.303855338743148, 30.697076140785256 ], [ 111.304703660036665, 30.697530063499254 ], [ 111.304968804039575, 30.697961356393222 ], [ 111.305108960795977, 30.698380944028774 ], [ 111.305277905430458, 30.699124400847953 ], [ 111.305292960819969, 30.699496291438344 ], [ 111.305099795364285, 30.699880669711703 ], [ 111.304712933155344, 30.700481459381663 ], [ 111.304340138253409, 30.701142203120536 ], [ 111.30410542703828, 30.701562670496688 ], [ 111.303967751995287, 30.701934919584431 ], [ 111.303788912572955, 30.702463233621319 ], [ 111.303720919477328, 30.702919302508377 ], [ 111.303707862114308, 30.703183280791048 ] ] ] } },
{ "type": "Feature", "properties": { "Shape_Length": 961.39937875727048, "XMMC": "宜昌市西陵区运河片区生活污水管网建设项目", "XZQ": "西陵区", "TZE": 12200.0, "MJ": null }, "geometry": { "type": "MultiLineString", "coordinates": [ [ [ 111.309823643352914, 30.696571097472209 ], [ 111.309362878372539, 30.696971476755241 ], [ 111.308919269509971, 30.697179852287952 ], [ 111.308466554308467, 30.697319140495789 ], [ 111.307881067602878, 30.697619991134399 ], [ 111.307535630543583, 30.697966341350885 ], [ 111.307314758827104, 30.69836614506783 ], [ 111.307191870235499, 30.698842501895015 ], [ 111.307211294798364, 30.69936459332337 ], [ 111.307256623144241, 30.699648589966831 ], [ 111.307230599007468, 30.699848291479977 ], [ 111.307142350069114, 30.700040462360629 ], [ 111.307027492644352, 30.700248053489965 ], [ 111.306682262831274, 30.700663507369981 ], [ 111.306310323519284, 30.701063665918088 ], [ 111.30597392429641, 30.701463740560762 ], [ 111.30572623581682, 30.701817533304506 ], [ 111.305629145479344, 30.702025081334071 ], [ 111.305585296763027, 30.702209467912542 ], [ 111.305577112362769, 30.702432163152167 ], [ 111.305640983211219, 30.702961827764788 ], [ 111.305615511542769, 30.703338133131123 ], [ 111.305492173057203, 30.703676277051489 ] ] ] } },
{ "type": "Feature", "properties": { "Shape_Length": 2074.5006563885026, "XMMC": "湖北省宜昌市西陵区沙河片区排水防涝能力提升工程", "XZQ": "西陵区", "TZE": 14300.0, "MJ": null }, "geometry": { "type": "MultiLineString", "coordinates": [ [ [ 111.299578314973189, 30.732725717161337 ], [ 111.301424169987257, 30.733133859801502 ], [ 111.303400188180319, 30.733522925766398 ], [ 111.304637382426279, 30.733595013044106 ], [ 111.305852284401311, 30.733479678132916 ], [ 111.307564401549911, 30.73276327624221 ], [ 111.309753248415092, 30.731839506773479 ], [ 111.310858596553302, 30.731405701672369 ], [ 111.31148712829382, 30.731160494397859 ], [ 111.311899195935425, 30.731084519467522 ], [ 111.312354905406423, 30.73108342356706 ], [ 111.312746058575101, 30.731251197554659 ], [ 111.313333003110785, 30.731568467628311 ], [ 111.313681729289627, 30.732036280748776 ], [ 111.314640943992146, 30.733383684933386 ], [ 111.315207486941716, 30.734094664860638 ], [ 111.316143817101022, 30.735067190039103 ], [ 111.316841634123719, 30.736096528135185 ], [ 111.317038114442539, 30.736452225901587 ], [ 111.317147236114081, 30.73663942111882 ] ] ] } },
{ "type": "Feature", "properties": { "Shape_Length": 1201.297428209286, "XMMC": "宜昌市西陵区葛洲坝沿江片区排水管网建设项目", "XZQ": "西陵区", "TZE": 13600.0, "MJ": null }, "geometry": { "type": "MultiLineString", "coordinates": [ [ [ 111.279745217960738, 30.718260386504038 ], [ 111.281184116856181, 30.720619307435982 ], [ 111.283080401845453, 30.723539601273394 ], [ 111.285631819754656, 30.727826901606036 ] ] ] } },
{ "type": "Feature", "properties": { "Shape_Length": 1069.3741323057689, "XMMC": "宜昌市西陵区葛洲坝沿江片区排水管网建设项目", "XZQ": "西陵区", "TZE": 13600.0, "MJ": null }, "geometry": { "type": "MultiLineString", "coordinates": [ [ [ 111.278033148421628, 30.71897642273618 ], [ 111.279701768767822, 30.718241733944353 ], [ 111.281695390408487, 30.717356349519939 ], [ 111.283082220144692, 30.716734705503587 ], [ 111.284274086353747, 30.716225952604688 ], [ 111.284816020619488, 30.716056048336075 ], [ 111.286226168279015, 30.715996707694412 ], [ 111.288395880862524, 30.71599190614193 ] ] ] } },
{ "type": "Feature", "properties": { "Shape_Length": 3867.4880409002262, "XMMC": "西陵区东山片区排水管网建设项目", "XZQ": "西陵区", "TZE": 4700.0, "MJ": null }, "geometry": { "type": "MultiLineString", "coordinates": [ [ [ 111.312140805479402, 30.701618063397301 ], [ 111.313464744722765, 30.70156910712949 ], [ 111.314525350671531, 30.701978448509298 ], [ 111.316064132695004, 30.702844290336746 ], [ 111.317656055644846, 30.703755751901561 ], [ 111.318823385202876, 30.704393633155416 ], [ 111.32115611944532, 30.705074394039006 ], [ 111.322962124314571, 30.706626000937298 ], [ 111.326680552765893, 30.709820406024864 ], [ 111.327265981266677, 30.710642740897903 ], [ 111.327587039595429, 30.71160304279601 ], [ 111.32790748505667, 30.712380276456543 ], [ 111.328387000030148, 30.713202874179927 ], [ 111.329290284985206, 30.71402439589766 ], [ 111.330775949131052, 30.714752893451802 ], [ 111.332315706051929, 30.715801606485364 ], [ 111.334443081658591, 30.718267569407381 ], [ 111.335719970345934, 30.719866123628105 ], [ 111.33726161427785, 30.721418210008004 ], [ 111.340874647433068, 30.72447516799982 ] ] ] } },
{ "type": "Feature", "properties": { "Shape_Length": 873.79763898599629, "XMMC": "西陵区东山片区排水管网建设项目", "XZQ": "西陵区", "TZE": 4700.0, "MJ": null }, "geometry": { "type": "MultiLineString", "coordinates": [ [ [ 111.32751853473647, 30.723413342852734 ], [ 111.334249403600083, 30.718093257352091 ] ] ] } },
{ "type": "Feature", "properties": { "Shape_Length": 2609.2861125162581, "XMMC": "西陵区东山片区排水管网建设项目", "XZQ": "西陵区", "TZE": 4700.0, "MJ": null }, "geometry": { "type": "MultiLineString", "coordinates": [ [ [ 111.315128301614635, 30.688386982490133 ], [ 111.315768287779107, 30.688817343036806 ], [ 111.31618690472034, 30.689476195128876 ], [ 111.316660900693321, 30.690086920874439 ], [ 111.317384435111578, 30.690589056218517 ], [ 111.318191074425258, 30.691030994726148 ], [ 111.319205961482282, 30.691472417456286 ], [ 111.319152246440126, 30.692024441332439 ], [ 111.319252346793817, 30.692912019968038 ], [ 111.319644150137506, 30.693846871620316 ], [ 111.320329446363317, 30.695368883273868 ], [ 111.320625076850149, 30.696603909786646 ], [ 111.32071155055354, 30.697563505901325 ], [ 111.320657048740344, 30.69787557897935 ], [ 111.319991866579983, 30.698249146309621 ], [ 111.318203167798529, 30.698949402906862 ], [ 111.31756711191953, 30.699742803866766 ], [ 111.316862761842529, 30.70088429819722 ], [ 111.316075521859844, 30.702157964172301 ], [ 111.315966169330508, 30.702686125526629 ], [ 111.315939885694732, 30.703142099053089 ], [ 111.316095076782645, 30.703897571764696 ], [ 111.316753679437454, 30.705743599572379 ], [ 111.317469221449556, 30.70800940107474 ] ] ] } },
{ "type": "Feature", "properties": { "Shape_Length": 1608.031618740345, "XMMC": "西陵区东山片区排水管网建设项目", "XZQ": "西陵区", "TZE": 4700.0, "MJ": null }, "geometry": { "type": "MultiLineString", "coordinates": [ [ [ 111.31522689730464, 30.720053705207675 ], [ 111.316679743114506, 30.719768976246797 ], [ 111.317763839493125, 30.71952262555223 ], [ 111.318413296751146, 30.719071125023579 ], [ 111.31904024807136, 30.718375974877603 ], [ 111.3196245376934, 30.717905882257998 ], [ 111.320425608468824, 30.717379012799025 ], [ 111.320836493217129, 30.716965581015881 ], [ 111.321549952833607, 30.716195220261628 ], [ 111.323366380198806, 30.714353577100606 ], [ 111.327171707280115, 30.710407332317367 ] ] ] } },
{ "type": "Feature", "properties": { "Shape_Length": 1316.9298033509137, "XMMC": "西陵区东山片区排水管网建设项目", "XZQ": "西陵区", "TZE": 4700.0, "MJ": null }, "geometry": { "type": "MultiLineString", "coordinates": [ [ [ 111.314068773661873, 30.710852105813075 ], [ 111.316817354902838, 30.708764593400804 ], [ 111.319565199749533, 30.706489561801526 ], [ 111.321317891662517, 30.705098012193957 ], [ 111.321879959637698, 30.704496739690981 ], [ 111.322204318385033, 30.704177248394586 ], [ 111.322504298646621, 30.703051727300316 ], [ 111.322761321233742, 30.702057536343158 ] ] ] } },
{ "type": "Feature", "properties": { "Shape_Length": 1185.119785310508, "XMMC": "西陵区东山片区排水管网建设项目", "XZQ": "西陵区", "TZE": 4700.0, "MJ": null }, "geometry": { "type": "MultiLineString", "coordinates": [ [ [ 111.325474210907416, 30.708855659688204 ], [ 111.321991081990802, 30.711826252273511 ], [ 111.319764172558223, 30.714193782601484 ], [ 111.318315114707644, 30.715603312203154 ], [ 111.317038427065157, 30.716656225135868 ] ] ] } },
{ "type": "Feature", "properties": { "Shape_Length": 442.81750011422412, "XMMC": "宜昌市西陵区西坝片区排水管网建设项目", "XZQ": "西陵区", "TZE": 12300.0, "MJ": null }, "geometry": { "type": "MultiLineString", "coordinates": [ [ [ 111.273067679567333, 30.716571572745682 ], [ 111.272179885929944, 30.716903610915487 ], [ 111.271549494255353, 30.717119928092586 ], [ 111.270794292285331, 30.717198290631828 ], [ 111.269861299943102, 30.717261661076872 ], [ 111.268901580860728, 30.717302045001251 ], [ 111.268581639190288, 30.717302707283594 ] ] ] } },
{ "type": "Feature", "properties": { "Shape_Length": 2573.7767600930938, "XMMC": "宜昌市西陵区西坝片区排水管网建设项目", "XZQ": "西陵区", "TZE": 12300.0, "MJ": null }, "geometry": { "type": "MultiLineString", "coordinates": [ [ [ 111.279689488788705, 30.729020854682631 ], [ 111.279011225602176, 30.727091452047787 ], [ 111.278159665060514, 30.72525614744929 ], [ 111.27778862799876, 30.724507092023156 ], [ 111.27746094162876, 30.723739196612627 ], [ 111.276806333332686, 30.722465848592687 ], [ 111.27610850619574, 30.721248828299931 ], [ 111.275171804227639, 30.719957324906019 ], [ 111.273122467378954, 30.716512338864053 ], [ 111.272947780295098, 30.716119034493339 ], [ 111.272642121669534, 30.715444810308458 ], [ 111.271770981327649, 30.71428436739815 ], [ 111.271182440755538, 30.713310791293452 ], [ 111.269917777027075, 30.711063871526232 ], [ 111.26963275540237, 30.709995924518367 ], [ 111.268802545418055, 30.707916806408605 ], [ 111.268802493441001, 30.70789806030113 ] ] ] } },
{ "type": "Feature", "properties": { "Shape_Length": 128.02988081394523, "XMMC": "西陵区石板片区供排水管网一体化建设项目", "XZQ": "西陵区", "TZE": 13000.0, "MJ": null }, "geometry": { "type": "MultiLineString", "coordinates": [ [ [ 111.343482985875752, 30.735684932116843 ], [ 111.343823553739014, 30.735843837794611 ], [ 111.344374093056146, 30.73599354721053 ], [ 111.344739325192734, 30.736057363918167 ] ] ] } },
{ "type": "Feature", "properties": { "Shape_Length": 1383.8499138315842, "XMMC": "西陵区石板片区供排水管网一体化建设项目", "XZQ": "西陵区", "TZE": 13000.0, "MJ": null }, "geometry": { "type": "MultiLineString", "coordinates": [ [ [ 111.340650500929769, 30.738612642850956 ], [ 111.341101543718906, 30.73843219833115 ], [ 111.3415898026593, 30.738420368888722 ], [ 111.342078806515232, 30.738619430910134 ], [ 111.343020570820613, 30.739123090545615 ], [ 111.343449852151949, 30.739691369796745 ], [ 111.343928942940693, 30.740533678118378 ], [ 111.344150330090031, 30.740997057667624 ], [ 111.344566255802519, 30.74123848278434 ], [ 111.345310928195019, 30.741236503341948 ], [ 111.34645804069045, 30.74111745351945 ], [ 111.346910179763753, 30.741242782126427 ], [ 111.347277736082788, 30.741610863425958 ], [ 111.347730296146594, 30.741852180281064 ], [ 111.348404154646971, 30.742525233263265 ], [ 111.349273997176908, 30.743377015719851 ], [ 111.349739234058347, 30.743744826880533 ], [ 111.350704243421703, 30.74390039336404 ], [ 111.351082885649845, 30.743952092524427 ], [ 111.351522452303684, 30.74397199188493 ], [ 111.35187805885549, 30.744403361354614 ] ] ] } },
{ "type": "Feature", "properties": { "Shape_Length": 128.02988081394523, "XMMC": "西陵区石板片区污水管网建设项目", "XZQ": "西陵区", "TZE": 8600.0, "MJ": null }, "geometry": { "type": "MultiLineString", "coordinates": [ [ [ 111.343482985875752, 30.735684932116843 ], [ 111.343823553739014, 30.735843837794611 ], [ 111.344374093056146, 30.73599354721053 ], [ 111.344739325192734, 30.736057363918167 ] ] ] } },
{ "type": "Feature", "properties": { "Shape_Length": 1383.8499138315842, "XMMC": "西陵区石板片区污水管网建设项目", "XZQ": "西陵区", "TZE": 8600.0, "MJ": null }, "geometry": { "type": "MultiLineString", "coordinates": [ [ [ 111.340650500929769, 30.738612642850956 ], [ 111.341101543718906, 30.73843219833115 ], [ 111.3415898026593, 30.738420368888722 ], [ 111.342078806515232, 30.738619430910134 ], [ 111.343020570820613, 30.739123090545615 ], [ 111.343449852151949, 30.739691369796745 ], [ 111.343928942940693, 30.740533678118378 ], [ 111.344150330090031, 30.740997057667624 ], [ 111.344566255802519, 30.74123848278434 ], [ 111.345310928195019, 30.741236503341948 ], [ 111.34645804069045, 30.74111745351945 ], [ 111.346910179763753, 30.741242782126427 ], [ 111.347277736082788, 30.741610863425958 ], [ 111.347730296146594, 30.741852180281064 ], [ 111.348404154646971, 30.742525233263265 ], [ 111.349273997176908, 30.743377015719851 ], [ 111.349739234058347, 30.743744826880533 ], [ 111.350704243421703, 30.74390039336404 ], [ 111.351082885649845, 30.743952092524427 ], [ 111.351522452303684, 30.74397199188493 ], [ 111.35187805885549, 30.744403361354614 ] ] ] } },
{ "type": "Feature", "properties": { "Shape_Length": 2323.2673379639095, "XMMC": "宜昌高新区善溪窑片区供排水管网一体化改造项目", "XZQ": "高新区", "TZE": 23000.0, "MJ": null }, "geometry": { "type": "MultiLineString", "coordinates": [ [ [ 111.478416687841147, 30.467118260203097 ], [ 111.481318388101684, 30.46409784872068 ], [ 111.486691794601612, 30.458387970899409 ], [ 111.489744908816917, 30.455322869259192 ], [ 111.491990160792582, 30.453007686987796 ], [ 111.494976419036831, 30.453035937507362 ] ] ] } },
{ "type": "Feature", "properties": { "Shape_Length": 6072.9244358738579, "XMMC": "宜昌高新区沙湾片区生活污水厂网一体化项目", "XZQ": "高新区", "TZE": 18700.0, "MJ": null }, "geometry": { "type": "MultiLineString", "coordinates": [ [ [ 111.452538061546491, 30.437501691521391 ], [ 111.449561776171564, 30.436379198705808 ], [ 111.447578092989218, 30.435733811128387 ], [ 111.446664628063914, 30.435222040868076 ], [ 111.445987917065324, 30.434503495599795 ], [ 111.445667264263278, 30.433680751573995 ], [ 111.445701570219242, 30.432513528685941 ], [ 111.445731973375445, 30.430488153536409 ], [ 111.445886204623704, 30.429560807116488 ], [ 111.445960898813354, 30.428565078814465 ], [ 111.446115906114656, 30.42780936347112 ], [ 111.445953247708928, 30.426883099153645 ], [ 111.445628252484411, 30.425099221724455 ], [ 111.44534225473123, 30.423177904039019 ], [ 111.445255867270845, 30.421599170630135 ], [ 111.445329159954454, 30.420294506799209 ], [ 111.445404009891575, 30.419333103600245 ], [ 111.446072648693701, 30.418301019546604 ], [ 111.44702023812053, 30.417645571200449 ], [ 111.448207022117103, 30.417332562324194 ], [ 111.450423876505525, 30.41708464685447 ], [ 111.453354263903094, 30.416971525178049 ], [ 111.456287039061579, 30.417373229914126 ], [ 111.45969543733338, 30.417841848320226 ], [ 111.46306409924523, 30.418276191748422 ], [ 111.465561763828916, 30.418782209946528 ], [ 111.468812316178088, 30.419354132320834 ], [ 111.472735072395267, 30.419683254827916 ], [ 111.474399238166058, 30.419814525402419 ], [ 111.474994344509511, 30.420018321611593 ], [ 111.475234317341673, 30.420498020389861 ], [ 111.47468944935278, 30.422490947156852 ], [ 111.473557385802735, 30.425927719399091 ] ] ] } },
{ "type": "Feature", "properties": { "Shape_Length": 2045.6066893333366, "XMMC": "宜昌高新区沙湾片区生活污水厂网一体化项目", "XZQ": "高新区", "TZE": 18700.0, "MJ": null }, "geometry": { "type": "MultiLineString", "coordinates": [ [ [ 111.456784543182494, 30.43472566868898 ], [ 111.455863472447874, 30.432927428476649 ], [ 111.454764973773408, 30.431129799290002 ], [ 111.453972256502482, 30.429660632808798 ], [ 111.45320349312847, 30.427883810914061 ], [ 111.452791893078839, 30.426589065445224 ], [ 111.452607036821988, 30.424985964449853 ], [ 111.452571242726435, 30.422723274838905 ], [ 111.452554007241645, 30.418988591824853 ], [ 111.452443491684662, 30.417011757625037 ] ] ] } },
{ "type": "Feature", "properties": { "Shape_Length": 1373.82049167326, "XMMC": "宜昌高新区产城服务片区供排水管网改造一体化项目", "XZQ": "高新区", "TZE": 12000.0, "MJ": null }, "geometry": { "type": "MultiLineString", "coordinates": [ [ [ 111.522601245187303, 30.425317703478949 ], [ 111.524625044555449, 30.429263995301284 ], [ 111.526779664710631, 30.433934698009057 ], [ 111.528138478684355, 30.436741227101816 ] ] ] } },
{ "type": "Feature", "properties": { "Shape_Length": 3591.0424108496791, "XMMC": "宜昌高新区产城服务片区供排水管网改造一体化项目", "XZQ": "高新区", "TZE": 12000.0, "MJ": null }, "geometry": { "type": "MultiLineString", "coordinates": [ [ [ 111.516614857826568, 30.434238951453803 ], [ 111.519664577, 30.43563285688079 ], [ 111.522104038455069, 30.436677629263524 ], [ 111.523576380056923, 30.43702323384877 ], [ 111.525149318853096, 30.437214635010289 ], [ 111.526517904779922, 30.437121245532744 ], [ 111.528088127573113, 30.436807337006012 ], [ 111.531123440587692, 30.435498856389181 ], [ 111.54189807499607, 30.430841101566518 ], [ 111.550547211397628, 30.427070199055429 ] ] ] } },
{ "type": "Feature", "properties": { "Shape_Length": 813.37203046708112, "XMMC": "宜昌高新区产城服务片区供排水管网改造一体化项目", "XZQ": "高新区", "TZE": 12000.0, "MJ": null }, "geometry": { "type": "MultiLineString", "coordinates": [ [ [ 111.531460235726627, 30.435331400856985 ], [ 111.530427752758627, 30.433437487210654 ], [ 111.529050489663277, 30.430785717047151 ], [ 111.528019390660887, 30.429130798154667 ], [ 111.527757677863207, 30.428738173380914 ] ] ] } },
{ "type": "Feature", "properties": { "Shape_Length": 412.54558695245163, "XMMC": "宜昌高新区产城服务片区供排水管网改造一体化项目", "XZQ": "高新区", "TZE": 12000.0, "MJ": null }, "geometry": { "type": "MultiLineString", "coordinates": [ [ [ 111.534633710103492, 30.433898371182451 ], [ 111.53294184198586, 30.430478140691889 ] ] ] } },
{ "type": "Feature", "properties": { "Shape_Length": 793.63551429728432, "XMMC": "宜昌高新区白洋渡口沿江街、新民路等老旧街区提质工程", "XZQ": "高新区", "TZE": 15537.0, "MJ": null }, "geometry": { "type": "MultiLineString", "coordinates": [ [ [ 111.502907542499159, 30.423236324854624 ], [ 111.503015947997213, 30.422687231708554 ], [ 111.503090892333148, 30.422286558464645 ], [ 111.50315701433054, 30.421834016643597 ], [ 111.50317245120543, 30.421507718178212 ], [ 111.503308650572905, 30.421373731392542 ], [ 111.503701125925062, 30.421164610461837 ], [ 111.503939834967454, 30.421000569822752 ], [ 111.504486225194469, 30.420776023987464 ], [ 111.505144060124508, 30.4205955317179 ], [ 111.505630826812308, 30.420423112494493 ], [ 111.506082758405711, 30.420132194877791 ], [ 111.506757658185379, 30.419944213722289 ], [ 111.507620536269727, 30.419711011424731 ], [ 111.508859643255036, 30.41943926447394 ] ] ] } },
{ "type": "Feature", "properties": { "Shape_Length": 542.21167542601745, "XMMC": "宜昌高新区白洋渡口沿江街、新民路等老旧街区提质工程", "XZQ": "高新区", "TZE": 15537.0, "MJ": null }, "geometry": { "type": "MultiLineString", "coordinates": [ [ [ 111.506757658185379, 30.419944213722289 ], [ 111.507662932722582, 30.421290142289717 ], [ 111.50827515901473, 30.422214577068701 ], [ 111.509560190855481, 30.424189247087881 ] ] ] } },
{ "type": "Feature", "properties": { "Shape_Length": 2441.8614406413035, "XMMC": "宜昌市夷陵区龙泉片区供水管网完善工程", "XZQ": "夷陵区", "TZE": 25200.0, "MJ": null }, "geometry": { "type": "MultiLineString", "coordinates": [ [ [ 111.478845427679545, 30.724070058126447 ], [ 111.477141568934513, 30.724792796088252 ], [ 111.475438511838632, 30.725684087114768 ], [ 111.474469037659929, 30.726951980920806 ], [ 111.473792864727784, 30.728345231916073 ], [ 111.473700653111791, 30.729441334517091 ], [ 111.473951796880542, 30.730915487773171 ], [ 111.474642236124595, 30.732430179567558 ], [ 111.475331041396416, 30.73360771343679 ], [ 111.476117233014264, 30.734742742708221 ], [ 111.476365733239959, 30.735669016676667 ], [ 111.476567523229335, 30.737016909632906 ], [ 111.476234291241354, 30.738703925034994 ], [ 111.475661235397851, 30.741234714230483 ], [ 111.475281457614997, 30.74338548886066 ] ] ] } },
{ "type": "Feature", "properties": { "Shape_Length": 2659.1375091953742, "XMMC": "宜昌市夷陵区龙泉片区供水管网完善工程", "XZQ": "夷陵区", "TZE": 25200.0, "MJ": null }, "geometry": { "type": "MultiLineString", "coordinates": [ [ [ 111.475211485811002, 30.743444747413527 ], [ 111.474664740796243, 30.74657557629158 ], [ 111.474385406318248, 30.74692724158438 ], [ 111.473948872543318, 30.747063700317842 ], [ 111.472824129014938, 30.746959913256081 ], [ 111.468199744516099, 30.74643722928289 ], [ 111.465605351446868, 30.745934084535168 ], [ 111.465167382531547, 30.74577381983768 ], [ 111.465010077895087, 30.745531629438009 ], [ 111.465068904560241, 30.744776183844021 ], [ 111.465527329947932, 30.742697644666283 ], [ 111.465587708750945, 30.742265865158782 ], [ 111.465962299594878, 30.742237547687431 ], [ 111.467743393954763, 30.74247389410856 ], [ 111.474367165900588, 30.743205083493852 ], [ 111.475304373215153, 30.743282571705826 ], [ 111.475211750615941, 30.743498692210984 ] ] ] } },
{ "type": "Feature", "properties": { "Shape_Length": 7956.5831298210751, "XMMC": "宜昌市夷陵区龙泉片区供水管网完善工程", "XZQ": "夷陵区", "TZE": 25200.0, "MJ": null }, "geometry": { "type": "MultiLineString", "coordinates": [ [ [ 111.321803670044574, 30.751232272070787 ], [ 111.322974659515125, 30.751187216900306 ], [ 111.324049323936791, 30.751521698154079 ], [ 111.326052850936037, 30.75235958026769 ], [ 111.327519775833863, 30.753240931451039 ], [ 111.329380557700219, 30.755132748432061 ], [ 111.330947172679089, 30.756603838183132 ], [ 111.331682636569738, 30.757613440466702 ], [ 111.332757981767116, 30.758116427701292 ], [ 111.335005285837028, 30.75882710892289 ], [ 111.341552336731979, 30.761001576150868 ], [ 111.343993931851685, 30.761416574263546 ], [ 111.351168607029521, 30.761608074409455 ], [ 111.36005232631274, 30.762047314192358 ], [ 111.364249962964806, 30.762204175188739 ], [ 111.366884493854286, 30.761986025838972 ], [ 111.372883925587431, 30.761126020090895 ], [ 111.388744952521037, 30.758914263117251 ], [ 111.397585188851821, 30.757702144747686 ], [ 111.398586746559246, 30.76020142323021 ] ] ] } },
{ "type": "Feature", "properties": { "Shape_Length": 2615.5870135621658, "XMMC": "宜昌市夷陵区城区供水管网完善工程", "XZQ": "夷陵区", "TZE": 16800.0, "MJ": null }, "geometry": { "type": "MultiLineString", "coordinates": [ [ [ 111.369553634284642, 30.783598758365386 ], [ 111.368181245730185, 30.782127594780832 ], [ 111.366807139919132, 30.78019282858325 ], [ 111.365628491471753, 30.778299640297014 ], [ 111.364154174248441, 30.775648663683196 ], [ 111.363317766527999, 30.773880925843844 ], [ 111.362040070874272, 30.771566530997895 ], [ 111.361153200855185, 30.769335325253355 ], [ 111.360414984871412, 30.767693726973544 ], [ 111.360068327782372, 30.766346052720223 ], [ 111.359770483775208, 30.764998241829243 ], [ 111.35961686450257, 30.763060001374861 ], [ 111.359661750452105, 30.762006253318706 ] ] ] } },
{ "type": "Feature", "properties": { "Shape_Length": 898.25495665040137, "XMMC": "夷陵区供水漏损治理与厂网一体化升级改造工程", "XZQ": "夷陵区", "TZE": 15900.0, "MJ": null }, "geometry": { "type": "MultiLineString", "coordinates": [ [ [ 111.321938980815091, 30.781239443779814 ], [ 111.323682065189431, 30.781205973877722 ], [ 111.325627551188333, 30.781162261661532 ], [ 111.326650966402298, 30.781159687612973 ], [ 111.326965863846851, 30.781158893971856 ], [ 111.327774776191916, 30.780914097802075 ], [ 111.330538575396602, 30.780091426993089 ], [ 111.33111199876349, 30.780051122769638 ] ] ] } },
{ "type": "Feature", "properties": { "Shape_Length": 2517.3813795782194, "XMMC": "夷陵区供水漏损治理与厂网一体化升级改造工程", "XZQ": "夷陵区", "TZE": 15900.0, "MJ": null }, "geometry": { "type": "MultiLineString", "coordinates": [ [ [ 111.312954832231611, 30.770273136282771 ], [ 111.316266955019486, 30.772980923934707 ], [ 111.318452144443029, 30.774917615705167 ], [ 111.319368456768487, 30.775704316211808 ], [ 111.319597787679925, 30.775976850094551 ], [ 111.320039886155598, 30.776825401799545 ], [ 111.321667832841072, 30.780235111956003 ], [ 111.321899656720589, 30.781251072386464 ], [ 111.322380386278098, 30.783131226094255 ], [ 111.322681909382396, 30.783964944746103 ], [ 111.323195632197582, 30.785192609608377 ], [ 111.323780984824793, 30.786814568981843 ], [ 111.324099239451243, 30.787390315944709 ], [ 111.324664446206782, 30.788238542174899 ], [ 111.325582725144159, 30.789556215577118 ] ] ] } },
{ "type": "Feature", "properties": { "Shape_Length": 3979.6860239502212, "XMMC": "夷陵区供水漏损治理与厂网一体化升级改造工程", "XZQ": "夷陵区", "TZE": 15900.0, "MJ": null }, "geometry": { "type": "MultiLineString", "coordinates": [ [ [ 111.323860993248758, 30.773978718285026 ], [ 111.324757780405989, 30.774173713902552 ], [ 111.325409035537916, 30.774505869489197 ], [ 111.325796215133494, 30.774686963281582 ], [ 111.326657562306309, 30.774791001784536 ], [ 111.327238646039518, 30.775153669445746 ], [ 111.32886072600202, 30.776772988112295 ], [ 111.330465859882622, 30.778559223361711 ], [ 111.330731151541116, 30.779059228214017 ], [ 111.331297978712684, 30.780377759834998 ], [ 111.33214848387405, 30.782423824782637 ], [ 111.332819795847271, 30.783453809651832 ], [ 111.333207391246049, 30.783741085732878 ], [ 111.333788237969742, 30.784012690110348 ], [ 111.334614899030086, 30.784222969514058 ], [ 111.335019655223718, 30.784388817594721 ], [ 111.33559940456081, 30.784341802412634 ], [ 111.336127068248928, 30.784476985194555 ], [ 111.336918433242701, 30.784641824521341 ], [ 111.338094921668315, 30.784380835255782 ], [ 111.338832879307432, 30.784348565270925 ], [ 111.339430679006668, 30.784438034463864 ], [ 111.340591671064686, 30.784768777299401 ], [ 111.341857893584475, 30.785038543194215 ], [ 111.342596769051426, 30.785264175242336 ], [ 111.343915291468605, 30.78541240551629 ], [ 111.344953189582341, 30.785713091026981 ], [ 111.345974551611221, 30.786302083548136 ], [ 111.347964375506379, 30.787419496147837 ], [ 111.348281135263676, 30.787540022827137 ], [ 111.348684724102355, 30.787372045003973 ], [ 111.349316875860509, 30.787233793950836 ], [ 111.349526879000891, 30.786990473624659 ], [ 111.349771973201257, 30.786731886935019 ], [ 111.350263697321324, 30.786639526817179 ], [ 111.350598361076706, 30.786851031237294 ], [ 111.35077519670314, 30.78715399633062 ], [ 111.35065361398037, 30.78754880033679 ], [ 111.350602103970331, 30.787882726611976 ], [ 111.350795854396651, 30.78800357879188 ], [ 111.351411095494115, 30.788047429470936 ], [ 111.351938357851878, 30.788061171560518 ], [ 111.352694576365934, 30.788210837372585 ], [ 111.35323930364747, 30.788194183046368 ], [ 111.353766067116865, 30.788071369665673 ], [ 111.35413416743441, 30.787812438225654 ], [ 111.354449100699043, 30.787432274857892 ], [ 111.354831928290665, 30.78639952327573 ], [ 111.354900940592813, 30.786050375155412 ] ] ] } },
{ "type": "Feature", "properties": { "Shape_Length": 4334.8822079284755, "XMMC": "夷陵区供水漏损治理与厂网一体化升级改造工程", "XZQ": "夷陵区", "TZE": 15900.0, "MJ": null }, "geometry": { "type": "MultiLineString", "coordinates": [ [ [ 111.282619941809301, 30.785545328905183 ], [ 111.283040900643755, 30.78527131085762 ], [ 111.283706499615946, 30.784526419215666 ], [ 111.284319994971568, 30.783994048962526 ], [ 111.284862924224029, 30.783370797852395 ], [ 111.2853533059276, 30.782808349351068 ], [ 111.28566934708391, 30.782716620468747 ], [ 111.286073250941527, 30.782624696100079 ], [ 111.286512163770041, 30.782487177980787 ], [ 111.286863842668239, 30.782562261107412 ], [ 111.287127748932406, 30.782667882296721 ], [ 111.287461856063331, 30.782743002703747 ], [ 111.287672502879104, 30.782666674871155 ], [ 111.287882788902962, 30.782468969882085 ], [ 111.2881107362698, 30.782301569036779 ], [ 111.288444344846766, 30.782209794366203 ], [ 111.288708251845264, 30.782315412339653 ], [ 111.289024740761548, 30.782375396537674 ], [ 111.289217768363883, 30.782283933155789 ], [ 111.289515594024451, 30.781979824036778 ], [ 111.289865134961389, 30.781341812193222 ], [ 111.290144837686285, 30.780855676116197 ], [ 111.290425494859974, 30.780688154142279 ], [ 111.290706378148855, 30.780596491739207 ], [ 111.291198540925052, 30.780640903488546 ], [ 111.291989297219601, 30.780639125300432 ], [ 111.292358775460272, 30.780790015053807 ], [ 111.29246480632861, 30.78098701424965 ], [ 111.292535922011382, 30.7812599527965 ], [ 111.2925896961099, 30.781608791992152 ], [ 111.292643010224751, 30.781805909953636 ], [ 111.292801439333942, 30.781896585281629 ], [ 111.293099897582906, 30.781804878018693 ], [ 111.293415143984546, 30.781455204559425 ], [ 111.293852703316404, 30.780877671190705 ], [ 111.294062741983012, 30.780604096079514 ], [ 111.294290905131859, 30.780512544569302 ], [ 111.294677588918532, 30.780542011039323 ], [ 111.295064503442291, 30.780647336500856 ], [ 111.295837361990706, 30.780539370274113 ], [ 111.296609892899241, 30.78032519489911 ], [ 111.297311664135336, 30.779959455845006 ], [ 111.298153118313877, 30.779305119717254 ], [ 111.298608539768608, 30.778833733609495 ], [ 111.299169998569965, 30.778559340514487 ], [ 111.299766504199624, 30.778254519345477 ], [ 111.300958418866259, 30.77729591071753 ], [ 111.301746825738348, 30.776550641288598 ], [ 111.30286931650231, 30.775880447923615 ], [ 111.304114075258894, 30.774982376059572 ], [ 111.305078916985551, 30.774479427789981 ], [ 111.305745854757177, 30.774235101794215 ], [ 111.306641791976489, 30.774172298076461 ], [ 111.308170578213819, 30.774199018021825 ], [ 111.308838573284675, 30.774288462886755 ], [ 111.309770428079446, 30.774468306424584 ], [ 111.310685592432336, 30.774921282244375 ], [ 111.311565183325399, 30.775237787967967 ], [ 111.312374493759222, 30.775554456991596 ], [ 111.313447579152907, 30.7759311728928 ], [ 111.314098856095498, 30.776278556668888 ], [ 111.314557097529175, 30.776702267063378 ], [ 111.315844087283367, 30.778003946588157 ], [ 111.317201399559522, 30.779305440022494 ], [ 111.317960141427349, 30.780259428653782 ] ] ] } },
{ "type": "Feature", "properties": { "Shape_Length": 2680.7432211256742, "XMMC": "夷陵区供水漏损治理与厂网一体化升级改造工程", "XZQ": "夷陵区", "TZE": 15900.0, "MJ": null }, "geometry": { "type": "MultiLineString", "coordinates": [ [ [ 111.288459294739909, 30.726978567851635 ], [ 111.29017694488428, 30.727826699803771 ], [ 111.293267625533758, 30.728968048519661 ], [ 111.295799256950488, 30.72955497220984 ], [ 111.297601978602543, 30.730143518777687 ], [ 111.298976845119768, 30.731029360966392 ], [ 111.299365620518032, 30.731954508712406 ], [ 111.299887861260231, 30.734435098595377 ], [ 111.299977294283266, 30.735620226565221 ], [ 111.299894170235959, 30.736472378526802 ], [ 111.300627182659014, 30.73776714229361 ], [ 111.301361713551813, 30.73954343999263 ], [ 111.301665818563194, 30.740802150348298 ], [ 111.302700929937714, 30.742688865688699 ], [ 111.303778269128514, 30.744353222578749 ] ] ] } },
{ "type": "Feature", "properties": { "Shape_Length": 9177.9222041757675, "XMMC": "夷陵区供水漏损治理与厂网一体化升级改造工程", "XZQ": "夷陵区", "TZE": 15900.0, "MJ": null }, "geometry": { "type": "MultiLineString", "coordinates": [ [ [ 111.299311399469303, 30.758245322461068 ], [ 111.299862979738549, 30.759073779620223 ], [ 111.301074570068906, 30.760280010389049 ], [ 111.302341835077556, 30.76172316585232 ], [ 111.303224441345776, 30.763048675191612 ], [ 111.303998231195237, 30.764682618294049 ], [ 111.305075672677191, 30.766837387220274 ], [ 111.305297465847261, 30.767524356052309 ], [ 111.305573119875149, 30.767879305709659 ], [ 111.306040273349524, 30.768020444141978 ], [ 111.307441289708137, 30.768301609589781 ], [ 111.316425431235302, 30.77007657979259 ], [ 111.320173053117045, 30.770980141739646 ], [ 111.321793517835118, 30.771325697973097 ], [ 111.322289017802305, 30.771538092313904 ], [ 111.322718054219209, 30.772051665610153 ], [ 111.32416532616125, 30.774397923601466 ], [ 111.325942006481597, 30.777694935252654 ], [ 111.327107071155098, 30.779682590605407 ], [ 111.328861225620244, 30.782911643723082 ], [ 111.329954972328522, 30.78493567498095 ], [ 111.330921519489308, 30.786545252494161 ], [ 111.331445504885053, 30.787207694997665 ], [ 111.332463509644555, 30.787797750706527 ], [ 111.33331595633129, 30.788151159238659 ], [ 111.336173570036095, 30.788689029512547 ], [ 111.340267710261685, 30.789460662805112 ], [ 111.343812219571632, 30.790091386005688 ], [ 111.344609132278649, 30.790255215266605 ], [ 111.345241715091092, 30.790538009606994 ], [ 111.346453841646607, 30.791625272481255 ], [ 111.349183410486376, 30.794676078457435 ], [ 111.34995488380396, 30.79538519123038 ], [ 111.350478273438341, 30.795834199128709 ], [ 111.351632496745438, 30.796068137730508 ], [ 111.353391648856544, 30.796513775810716 ], [ 111.355151776711239, 30.797220158236055 ], [ 111.35600613566919, 30.798047538471323 ], [ 111.357580044573666, 30.800366433077553 ], [ 111.36135363265754, 30.80336667956297 ], [ 111.364632297563659, 30.806154849005644 ], [ 111.367469193011416, 30.80828040918388 ] ] ] } },
{ "type": "Feature", "properties": { "Shape_Length": 4566.8975235924609, "XMMC": "夷陵区供水漏损治理与厂网一体化升级改造工程", "XZQ": "夷陵区", "TZE": 15900.0, "MJ": null }, "geometry": { "type": "MultiLineString", "coordinates": [ [ [ 111.308064210328638, 30.768388319769858 ], [ 111.308045721903099, 30.768100092027666 ], [ 111.307938755923075, 30.76761483489598 ], [ 111.307672937937653, 30.766902372185644 ], [ 111.307601307995569, 30.766477720204428 ], [ 111.307828507447482, 30.766097876315243 ], [ 111.308213734210184, 30.765687311920733 ], [ 111.308986167158565, 30.765488235529173 ], [ 111.30977665248048, 30.765440833031814 ], [ 111.310689781658283, 30.765286927435273 ], [ 111.311955473179268, 30.765496299594304 ], [ 111.313660753058102, 30.76581080345283 ], [ 111.314347201598707, 30.766188447336425 ], [ 111.31552808240599, 30.767323495115782 ], [ 111.316532098820119, 30.768094831293215 ], [ 111.317869066549832, 30.768592243884118 ], [ 111.319610111809638, 30.769073475152574 ], [ 111.320506896415665, 30.769283672888239 ], [ 111.321438421246583, 30.769372400625457 ], [ 111.3227384181057, 30.769308483873758 ], [ 111.324108997623384, 30.769335410760448 ], [ 111.325164539129233, 30.769727245432797 ], [ 111.326853698849845, 30.770436092137178 ], [ 111.328877033195084, 30.771235102659489 ], [ 111.330126201936594, 30.771717439368818 ], [ 111.330531467418282, 30.772050194371353 ], [ 111.330796585522023, 30.772504684090848 ], [ 111.330851322957457, 30.773096259060878 ], [ 111.330817426612953, 30.773460478188309 ], [ 111.331294702055189, 30.774293729410253 ], [ 111.332070229053429, 30.774989665554731 ], [ 111.33321560182587, 30.775927402139299 ], [ 111.334201122495628, 30.776364859147233 ], [ 111.33495785366749, 30.776696694580384 ], [ 111.335344849183357, 30.776817071874596 ], [ 111.336206648145833, 30.777042423062991 ], [ 111.337526267425375, 30.777539676253113 ], [ 111.338230250215702, 30.777856457424608 ], [ 111.338671829401008, 30.778507707968139 ], [ 111.339288815535809, 30.779067464364591 ], [ 111.339817095359294, 30.779384696369778 ], [ 111.340714071861896, 30.779609925163829 ], [ 111.341611319518819, 30.779911007525882 ], [ 111.342700791633817, 30.779908132826762 ], [ 111.343790101718497, 30.779859732558506 ], [ 111.344738076108143, 30.779599289731465 ], [ 111.34587787251634, 30.7789286795803 ] ] ] } },
{ "type": "Feature", "properties": { "Shape_Length": 602.66805987640657, "XMMC": "夷陵区供水漏损治理与厂网一体化升级改造工程", "XZQ": "夷陵区", "TZE": 15900.0, "MJ": null }, "geometry": { "type": "MultiLineString", "coordinates": [ [ [ 111.309014235896157, 30.77427287212064 ], [ 111.310983187745265, 30.769109619401277 ] ] ] } },
{ "type": "Feature", "properties": { "Shape_Length": 7956.5831298210751, "XMMC": "夷陵区供水漏损治理与厂网一体化升级改造工程", "XZQ": "夷陵区", "TZE": 15900.0, "MJ": null }, "geometry": { "type": "MultiLineString", "coordinates": [ [ [ 111.321803670044574, 30.751232272070787 ], [ 111.322974659515125, 30.751187216900306 ], [ 111.324049323936791, 30.751521698154079 ], [ 111.326052850936037, 30.75235958026769 ], [ 111.327519775833863, 30.753240931451039 ], [ 111.329380557700219, 30.755132748432061 ], [ 111.330947172679089, 30.756603838183132 ], [ 111.331682636569738, 30.757613440466702 ], [ 111.332757981767116, 30.758116427701292 ], [ 111.335005285837028, 30.75882710892289 ], [ 111.341552336731979, 30.761001576150868 ], [ 111.343993931851685, 30.761416574263546 ], [ 111.351168607029521, 30.761608074409455 ], [ 111.36005232631274, 30.762047314192358 ], [ 111.364249962964806, 30.762204175188739 ], [ 111.366884493854286, 30.761986025838972 ], [ 111.372883925587431, 30.761126020090895 ], [ 111.388744952521037, 30.758914263117251 ], [ 111.397585188851821, 30.757702144747686 ], [ 111.398586746559246, 30.76020142323021 ] ] ] } },
{ "type": "Feature", "properties": { "Shape_Length": 2063.9687099048783, "XMMC": "夷陵区城区污水管网提质增效工程", "XZQ": "夷陵区", "TZE": 18700.0, "MJ": null }, "geometry": { "type": "MultiLineString", "coordinates": [ [ [ 111.364439213821868, 30.745003697380973 ], [ 111.363852447790563, 30.746836621134502 ], [ 111.363178101832744, 30.747937277138174 ], [ 111.361737980689327, 30.748380806444718 ], [ 111.3605525502185, 30.748896863654956 ], [ 111.35987842481731, 30.750070752252185 ], [ 111.359632972877037, 30.752488716735822 ], [ 111.359475045564423, 30.755638948460124 ], [ 111.359315205817921, 30.758276426888251 ], [ 111.359662922410962, 30.760546242613152 ], [ 111.359836922745231, 30.761717775008805 ] ] ] } },
{ "type": "Feature", "properties": { "Shape_Length": 3357.980026080676, "XMMC": "夷陵区城区污水管网提质增效工程", "XZQ": "夷陵区", "TZE": 18700.0, "MJ": null }, "geometry": { "type": "MultiLineString", "coordinates": [ [ [ 111.378916044314067, 30.760198428571666 ], [ 111.370523609116731, 30.761467937102626 ], [ 111.366284756416761, 30.762065982442884 ], [ 111.361874014113056, 30.762078362274675 ], [ 111.354408062815523, 30.761659469942433 ], [ 111.344057983115178, 30.761174578946516 ] ] ] } },
{ "type": "Feature", "properties": { "Shape_Length": 617.02202439071289, "XMMC": "夷陵区城区污水管网提质增效工程", "XZQ": "夷陵区", "TZE": 18700.0, "MJ": null }, "geometry": { "type": "MultiLineString", "coordinates": [ [ [ 111.359967506157261, 30.790562040657164 ], [ 111.361048671455649, 30.791579150840818 ], [ 111.361887368026828, 30.792806953481499 ], [ 111.362447823426024, 30.793975521535287 ], [ 111.363250449977855, 30.794843374293464 ], [ 111.363529617682715, 30.795142625970101 ] ] ] } },
{ "type": "Feature", "properties": { "Shape_Length": 4822.9917336191202, "XMMC": "宜昌高铁北站片区综合管网建设项目（小鸦路片区排水防涝与供水管网设施更新改造项目）", "XZQ": "夷陵区", "TZE": 33900.0, "MJ": null }, "geometry": { "type": "MultiLineString", "coordinates": [ [ [ 111.447064174997351, 30.745413376216192 ], [ 111.450960482538719, 30.742915228101527 ], [ 111.454533150379788, 30.740886902667068 ], [ 111.457182371953508, 30.738721093875405 ], [ 111.458156390169506, 30.738108212403823 ], [ 111.45869600053922, 30.737449980074693 ], [ 111.461173071164637, 30.733362597005083 ], [ 111.469521181876033, 30.720206115679193 ], [ 111.471353771703775, 30.717667923494339 ], [ 111.472432581422282, 30.716351345095937 ], [ 111.474054409556331, 30.715126537540076 ], [ 111.476386162958988, 30.714836718996519 ], [ 111.479204839208535, 30.714263778834724 ] ] ] } },
{ "type": "Feature", "properties": { "Shape_Length": 3266.6748112492028, "XMMC": "宜昌高铁北站片区综合管网建设项目（小鸦路片区排水防涝与供水管网设施更新改造项目）", "XZQ": "夷陵区", "TZE": 33900.0, "MJ": null }, "geometry": { "type": "MultiLineString", "coordinates": [ [ [ 111.478968290091629, 30.714268402174223 ], [ 111.479493625022826, 30.715166570401546 ], [ 111.48012121494412, 30.715674311504426 ], [ 111.480716168772915, 30.716602220640183 ], [ 111.482290347900559, 30.718906655941506 ], [ 111.483798890615404, 30.721961404335001 ], [ 111.487317902289533, 30.724228508983412 ], [ 111.491743553869441, 30.727182165396961 ], [ 111.492754996613584, 30.728018427169967 ], [ 111.492722555425061, 30.728468603082447 ], [ 111.492105791128822, 30.730121134076903 ], [ 111.491867702118498, 30.731112151617758 ], [ 111.491839826830827, 30.732462413080963 ], [ 111.492121645466753, 30.733241434585871 ], [ 111.495021589714469, 30.736590792864476 ], [ 111.495999041878719, 30.737547171024904 ] ] ] } },
{ "type": "Feature", "properties": { "Shape_Length": 2112.8126357725146, "XMMC": "宜昌高铁北站片区综合管网建设项目（小鸦路片区排水防涝与供水管网设施更新改造项目）", "XZQ": "夷陵区", "TZE": 33900.0, "MJ": null }, "geometry": { "type": "MultiLineString", "coordinates": [ [ [ 111.476689295783601, 30.738069588206624 ], [ 111.478217886962, 30.738123971437656 ], [ 111.481100805830835, 30.738113315772647 ], [ 111.482593618625984, 30.737957756094325 ], [ 111.483840440358875, 30.737233030020324 ], [ 111.484355292359169, 30.736000967252785 ], [ 111.485041089748236, 30.734228201156455 ], [ 111.485379693704829, 30.732486733606613 ], [ 111.485515462257283, 30.731856152517071 ], [ 111.486274889989716, 30.730923201233914 ], [ 111.488347425780034, 30.728665158440151 ], [ 111.490662820949936, 30.726376161044929 ] ] ] } },
{ "type": "Feature", "properties": { "Shape_Length": 9177.9222041757675, "XMMC": "宜昌市夷陵区城区排涝综合治理项目", "XZQ": "夷陵区", "TZE": 15900.0, "MJ": null }, "geometry": { "type": "MultiLineString", "coordinates": [ [ [ 111.299311399469303, 30.758245322461068 ], [ 111.299862979738549, 30.759073779620223 ], [ 111.301074570068906, 30.760280010389049 ], [ 111.302341835077556, 30.76172316585232 ], [ 111.303224441345776, 30.763048675191612 ], [ 111.303998231195237, 30.764682618294049 ], [ 111.305075672677191, 30.766837387220274 ], [ 111.305297465847261, 30.767524356052309 ], [ 111.305573119875149, 30.767879305709659 ], [ 111.306040273349524, 30.768020444141978 ], [ 111.307441289708137, 30.768301609589781 ], [ 111.316425431235302, 30.77007657979259 ], [ 111.320173053117045, 30.770980141739646 ], [ 111.321793517835118, 30.771325697973097 ], [ 111.322289017802305, 30.771538092313904 ], [ 111.322718054219209, 30.772051665610153 ], [ 111.32416532616125, 30.774397923601466 ], [ 111.325942006481597, 30.777694935252654 ], [ 111.327107071155098, 30.779682590605407 ], [ 111.328861225620244, 30.782911643723082 ], [ 111.329954972328522, 30.78493567498095 ], [ 111.330921519489308, 30.786545252494161 ], [ 111.331445504885053, 30.787207694997665 ], [ 111.332463509644555, 30.787797750706527 ], [ 111.33331595633129, 30.788151159238659 ], [ 111.336173570036095, 30.788689029512547 ], [ 111.340267710261685, 30.789460662805112 ], [ 111.343812219571632, 30.790091386005688 ], [ 111.344609132278649, 30.790255215266605 ], [ 111.345241715091092, 30.790538009606994 ], [ 111.346453841646607, 30.791625272481255 ], [ 111.349183410486376, 30.794676078457435 ], [ 111.34995488380396, 30.79538519123038 ], [ 111.350478273438341, 30.795834199128709 ], [ 111.351632496745438, 30.796068137730508 ], [ 111.353391648856544, 30.796513775810716 ], [ 111.355151776711239, 30.797220158236055 ], [ 111.35600613566919, 30.798047538471323 ], [ 111.357580044573666, 30.800366433077553 ], [ 111.36135363265754, 30.80336667956297 ], [ 111.364632297563659, 30.806154849005644 ], [ 111.367469193011416, 30.80828040918388 ] ] ] } },
{ "type": "Feature", "properties": { "Shape_Length": 9329.7247613464951, "XMMC": "宜昌市夷陵区排水防涝设施改造工程", "XZQ": "夷陵区", "TZE": 11300.0, "MJ": null }, "geometry": { "type": "MultiLineString", "coordinates": [ [ [ 111.343900656541777, 30.761191019035191 ], [ 111.343687985247712, 30.764281858388195 ], [ 111.342137869920322, 30.768663845099994 ], [ 111.339698785863192, 30.77472203831185 ], [ 111.337627053862008, 30.779298473166708 ], [ 111.337408080273732, 30.780651035348875 ], [ 111.338607661712274, 30.782514945154759 ], [ 111.339433094189886, 30.783993539385651 ], [ 111.339811817795308, 30.785666441229942 ], [ 111.339744264423373, 30.787662414290978 ], [ 111.339153348696755, 30.789273474346164 ], [ 111.343257080655889, 30.789906479308112 ], [ 111.345796682454719, 30.791058578443202 ], [ 111.348192764977384, 30.793756144085805 ], [ 111.349766300841651, 30.795812080637369 ], [ 111.353349985330553, 30.796896828443209 ], [ 111.355664495374697, 30.797598682473474 ], [ 111.357613296118402, 30.80023291489508 ], [ 111.359934394302073, 30.80267294200101 ], [ 111.36374874100747, 30.805495025864928 ], [ 111.368087621523685, 30.808894928074039 ], [ 111.370779416016504, 30.810625519413716 ], [ 111.371760463500863, 30.81358419645429 ], [ 111.370729798381049, 30.817128056246851 ], [ 111.369395254285166, 30.819256410826206 ], [ 111.370096726783203, 30.827108775942971 ], [ 111.37025235241488, 30.828782211368363 ] ] ] } },
{ "type": "Feature", "properties": { "Shape_Length": 3180.5139777528511, "XMMC": "葛洲坝库区黄柏河流域综合治理项目", "XZQ": "夷陵区", "TZE": 29500.0, "MJ": null }, "geometry": { "type": "MultiLineString", "coordinates": [ [ [ 111.307739774553255, 30.768354671012688 ], [ 111.307788433140402, 30.767922503441618 ], [ 111.307661322564883, 30.767285528099144 ], [ 111.307496826542646, 30.766691845518174 ], [ 111.307507755040561, 30.766194959546226 ], [ 111.307744171980204, 30.765805551805187 ], [ 111.308406100482856, 30.765490741729145 ], [ 111.309431205241964, 30.765315479387347 ], [ 111.310781688070335, 30.765193436290406 ], [ 111.311895525080743, 30.765385186256388 ], [ 111.31323454587212, 30.76558718432986 ], [ 111.314035621724827, 30.76575806817787 ], [ 111.315063146377781, 30.766328045398993 ], [ 111.315628584898946, 30.767115166577103 ], [ 111.316443810369336, 30.76778286077943 ], [ 111.316782383746386, 30.768041265465261 ], [ 111.318034497412626, 30.768427047980431 ], [ 111.319461702364507, 30.768801585897037 ], [ 111.320475601423794, 30.769015110518023 ], [ 111.321601830897649, 30.769152739639917 ], [ 111.322602473068244, 30.769139453291285 ], [ 111.323528172457188, 30.769158750066222 ], [ 111.323991022266654, 30.769168395975036 ], [ 111.324742183722535, 30.769360940643445 ], [ 111.326558652720493, 30.770166476601045 ], [ 111.328998330229538, 30.771136661604888 ], [ 111.330183522563047, 30.771615888544648 ], [ 111.330723013737469, 30.77205693457385 ], [ 111.330965020087604, 30.772405829636124 ], [ 111.330991244247087, 30.772582730583864 ], [ 111.331024227929916, 30.773237429652564 ], [ 111.331313654707998, 30.773966684051256 ], [ 111.331612196545251, 30.774364099971542 ], [ 111.332038895729667, 30.774778883163556 ], [ 111.33239366724969, 30.77513633507029 ], [ 111.333020065073512, 30.775510785694696 ], [ 111.333066224360394, 30.775523939870112 ] ] ] } },
{ "type": "Feature", "properties": { "Shape_Length": 1312.8252683244359, "XMMC": "葛洲坝库区黄柏河流域综合治理项目", "XZQ": "夷陵区", "TZE": 29500.0, "MJ": null }, "geometry": { "type": "MultiLineString", "coordinates": [ [ [ 111.349586856637416, 30.79484349673227 ], [ 111.351193983010205, 30.794182437696353 ], [ 111.352041515876437, 30.793834499348129 ], [ 111.352633109089723, 30.793570204506384 ], [ 111.353369311585595, 30.793436856822321 ], [ 111.353801205505007, 30.793297423021802 ], [ 111.354121045413621, 30.793172119500657 ], [ 111.354417065211948, 30.79310218264801 ], [ 111.35465797180612, 30.793288169190195 ], [ 111.3549555661331, 30.793646820750094 ], [ 111.355254179410068, 30.794281979509954 ], [ 111.355608823929018, 30.794910071021711 ], [ 111.355914994651954, 30.795420777169394 ], [ 111.356132447785242, 30.795758906593399 ], [ 111.356509545871006, 30.795958340923715 ], [ 111.357182364617628, 30.796004878345631 ], [ 111.359217225351102, 30.796248115978994 ], [ 111.359738107998737, 30.796350363339403 ], [ 111.360307269700456, 30.796514689491794 ], [ 111.360485296538201, 30.797011916010465 ] ] ] } },
{ "type": "Feature", "properties": { "Shape_Length": 2699.333196173925, "XMMC": "宜昌市夷陵区中环物流片区公共空间提升工程", "XZQ": "夷陵区", "TZE": 8800.0, "MJ": null }, "geometry": { "type": "MultiLineString", "coordinates": [ [ [ 111.359983222256204, 30.790676010286933 ], [ 111.361087923456864, 30.791666651943856 ], [ 111.36239671900185, 30.793693632759176 ], [ 111.363252056188145, 30.794900976647803 ], [ 111.364205229832223, 30.795503171018989 ], [ 111.365809526426347, 30.796233137206979 ], [ 111.367364783800795, 30.797222452567201 ], [ 111.36957434371044, 30.799160391523944 ], [ 111.370181888316708, 30.800973263175745 ], [ 111.371245230110731, 30.804167381555047 ], [ 111.371652960194297, 30.806067225514489 ], [ 111.371808275333251, 30.807406130288118 ], [ 111.37181459710115, 30.809047894826659 ], [ 111.370921254330781, 30.811037876243542 ] ] ] } },
{ "type": "Feature", "properties": { "Shape_Length": 626.7292952132716, "XMMC": "夷陵区老城区地下管网建设项目", "XZQ": "夷陵区", "TZE": 28000.0, "MJ": null }, "geometry": { "type": "MultiLineString", "coordinates": [ [ [ 111.323435423665885, 30.785751591221299 ], [ 111.325691396142602, 30.785632684539092 ], [ 111.326845464202052, 30.785527846315873 ], [ 111.327789483549282, 30.785378225949131 ], [ 111.329361593497211, 30.78476264061544 ], [ 111.329767754601903, 30.784614371016488 ] ] ] } },
{ "type": "Feature", "properties": { "Shape_Length": 2189.1297030701508, "XMMC": "猇亭区正大路沿线老旧小区隐患治理和改造提升项目", "XZQ": "猇亭区", "TZE": 5285.74, "MJ": null }, "geometry": { "type": "MultiLineString", "coordinates": [ [ [ 111.414084600186669, 30.525810406634907 ], [ 111.418086495663204, 30.527954498581192 ], [ 111.423399533907002, 30.530398386396687 ], [ 111.429256849885377, 30.533061480021445 ], [ 111.434153688814789, 30.535174468137939 ] ] ] } },
{ "type": "Feature", "properties": { "Shape_Length": 5391.1148941535121, "XMMC": "猇亭区金猇路沿线老旧小区隐患治理和改造提升项目", "XZQ": "猇亭区", "TZE": 6703.56, "MJ": null }, "geometry": { "type": "MultiLineString", "coordinates": [ [ [ 111.411531847746147, 30.53015427381041 ], [ 111.411929178356317, 30.531908284473907 ], [ 111.416616150545934, 30.533716156739455 ], [ 111.432085242023263, 30.539876698609454 ], [ 111.433653195359682, 30.541694259812878 ], [ 111.435613296077051, 30.543983060119398 ], [ 111.439135570113393, 30.546739142314653 ], [ 111.454638332935829, 30.559377799406409 ] ] ] } },
{ "type": "Feature", "properties": { "Shape_Length": 2674.8985025781203, "XMMC": "宜昌市猇亭区临江大道沿线等沿江片区雨污分流及管网修复改造项目", "XZQ": "猇亭区", "TZE": 11183.0, "MJ": null }, "geometry": { "type": "MultiLineString", "coordinates": [ [ [ 111.430604546431681, 30.522463980438413 ], [ 111.434787756315615, 30.516239145178002 ], [ 111.437576974063276, 30.512246701280667 ], [ 111.440901990030326, 30.506092054314195 ], [ 111.443608420021263, 30.501154613546312 ] ] ] } },
{ "type": "Feature", "properties": { "Shape_Length": 7421.3323784307668, "XMMC": "宜昌市猇亭区临江大道沿线等沿江片区雨污分流及管网修复改造项目", "XZQ": "猇亭区", "TZE": 11183.0, "MJ": null }, "geometry": { "type": "MultiLineString", "coordinates": [ [ [ 111.409630680944346, 30.540548398038752 ], [ 111.410223157854546, 30.536538116959736 ], [ 111.40984562076747, 30.533691218819037 ], [ 111.4117779692791, 30.529571219787954 ], [ 111.415648917112591, 30.522913385981145 ], [ 111.417821780246086, 30.518159616732429 ], [ 111.419393430752521, 30.515306475528941 ], [ 111.422301924158461, 30.511710593849326 ], [ 111.425576596364309, 30.508324422690137 ], [ 111.428486968211303, 30.505255821061578 ], [ 111.43382131863666, 30.499436498458941 ], [ 111.43903133568125, 30.493195434025399 ], [ 111.44326822273932, 30.487379411859585 ], [ 111.445317176464371, 30.482625593858295 ] ] ] } },
{ "type": "Feature", "properties": { "Shape_Length": 1213.166522515301, "XMMC": "宜昌市猇亭区临江大道沿线等沿江片区雨污分流及管网修复改造项目", "XZQ": "猇亭区", "TZE": 11183.0, "MJ": null }, "geometry": { "type": "MultiLineString", "coordinates": [ [ [ 111.420520589840379, 30.516697743426029 ], [ 111.423322820970668, 30.512405890954646 ], [ 111.426815782487708, 30.507209147894354 ] ] ] } },
{ "type": "Feature", "properties": { "Shape_Length": 1263.5175883860632, "XMMC": "宜昌市猇亭区金岭路片区生活污水厂网一体化项目", "XZQ": "猇亭区", "TZE": 12069.0, "MJ": null }, "geometry": { "type": "MultiLineString", "coordinates": [ [ [ 111.444125956371494, 30.51138100174337 ], [ 111.446849080533752, 30.51239814425367 ], [ 111.448671774514168, 30.513170568341941 ], [ 111.449920877985591, 30.513661790006346 ], [ 111.452647322573185, 30.515368997444742 ], [ 111.455333641736843, 30.517217865428616 ] ] ] } },
{ "type": "Feature", "properties": { "Shape_Length": 1298.395814513869, "XMMC": "宜昌市猇亭区金岭路片区生活污水厂网一体化项目", "XZQ": "猇亭区", "TZE": 12069.0, "MJ": null }, "geometry": { "type": "MultiLineString", "coordinates": [ [ [ 111.435358563748949, 30.497889730163038 ], [ 111.435768241123981, 30.498100730914821 ], [ 111.438409479501814, 30.499189118835385 ], [ 111.447622805665631, 30.50282118094934 ] ] ] } },
{ "type": "Feature", "properties": { "Shape_Length": 821.28988721342193, "XMMC": "宜昌市猇亭区金岭路片区生活污水厂网一体化项目", "XZQ": "猇亭区", "TZE": 12069.0, "MJ": null }, "geometry": { "type": "MultiLineString", "coordinates": [ [ [ 111.448994529278693, 30.499959388080242 ], [ 111.449989884575956, 30.50023911476746 ], [ 111.450356950611848, 30.50041906884158 ], [ 111.450985036465482, 30.500473529779338 ], [ 111.451339652699261, 30.500789441017837 ], [ 111.451550236343905, 30.501071870351865 ], [ 111.451694899278934, 30.501241265049192 ], [ 111.451851962213851, 30.501263373097817 ], [ 111.4520999542992, 30.501149249671908 ], [ 111.45219062219401, 30.500956386972732 ], [ 111.45211083420142, 30.50067350512969 ], [ 111.452109472196398, 30.500379023723148 ], [ 111.452160323183008, 30.50006170975281 ], [ 111.452237596704464, 30.49980093545593 ], [ 111.452393660492419, 30.49960784570986 ], [ 111.452628831133183, 30.499550397138204 ], [ 111.453021113310186, 30.499526382172895 ], [ 111.454237460293726, 30.499510823030789 ], [ 111.455388356700013, 30.499484155458866 ] ] ] } },
{ "type": "Feature", "properties": { "Shape_Length": 1380.3762020441732, "XMMC": "宜昌市猇亭区金岭路片区生活污水厂网一体化项目", "XZQ": "猇亭区", "TZE": 12069.0, "MJ": null }, "geometry": { "type": "MultiLineString", "coordinates": [ [ [ 111.45735227125266, 30.485919612831172 ], [ 111.456841234526223, 30.485706202283023 ], [ 111.456291811421679, 30.485674146909567 ], [ 111.455847539618233, 30.485754985522263 ], [ 111.454983618826816, 30.485588107407199 ], [ 111.453804681337417, 30.485173139158384 ], [ 111.45262664473168, 30.484950705726408 ], [ 111.450912066252172, 30.4846508331777 ], [ 111.450192330522668, 30.484551381783874 ], [ 111.449655056393027, 30.48431538193282 ], [ 111.447754509068886, 30.483381830023081 ], [ 111.44707324131403, 30.483112334642762 ], [ 111.446653627674252, 30.482864591274723 ], [ 111.446076054730227, 30.48239085990015 ], [ 111.445774554593413, 30.482233321114251 ], [ 111.445590905114045, 30.482109358098942 ], [ 111.445589666927191, 30.481837528576534 ], [ 111.445861293671825, 30.481179669557488 ], [ 111.446003593274, 30.480839390966342 ] ] ] } },
{ "type": "Feature", "properties": { "Shape_Length": 7169.4122612427172, "XMMC": "宜昌市猇亭区金岭路沿线等中心城区排水管网防涝能力提升改造项目", "XZQ": "猇亭区", "TZE": 9113.0, "MJ": null }, "geometry": { "type": "MultiLineString", "coordinates": [ [ [ 111.413483279118665, 30.548983426788066 ], [ 111.416516640325696, 30.546948459957317 ], [ 111.417992828903863, 30.54559352913693 ], [ 111.420005652588955, 30.542076530164685 ], [ 111.425345208723442, 30.532405256521844 ], [ 111.429444066608625, 30.524560627846697 ], [ 111.431689685869202, 30.520975164391661 ], [ 111.43478955910831, 30.516644201280986 ], [ 111.437189235330237, 30.512720575320017 ], [ 111.439278668804945, 30.509203012457274 ], [ 111.443531070717199, 30.501289897980424 ], [ 111.445920787497954, 30.495340827087535 ], [ 111.447464480331419, 30.491960013906422 ] ] ] } },
{ "type": "Feature", "properties": { "Shape_Length": 2189.1297030701508, "XMMC": "宜昌市猇亭区金岭路沿线等中心城区排水管网防涝能力提升改造项目", "XZQ": "猇亭区", "TZE": 9113.0, "MJ": null }, "geometry": { "type": "MultiLineString", "coordinates": [ [ [ 111.414084600186669, 30.525810406634907 ], [ 111.418086495663204, 30.527954498581192 ], [ 111.423399533907002, 30.530398386396687 ], [ 111.429256849885377, 30.533061480021445 ], [ 111.434153688814789, 30.535174468137939 ] ] ] } },
{ "type": "Feature", "properties": { "Shape_Length": 1393.5956526146142, "XMMC": "宜昌市猇亭区金岭路沿线等中心城区排水管网防涝能力提升改造项目", "XZQ": "猇亭区", "TZE": 9113.0, "MJ": null }, "geometry": { "type": "MultiLineString", "coordinates": [ [ [ 111.42299474623843, 30.524817100086928 ], [ 111.428250417619438, 30.526940609957233 ], [ 111.433178673279627, 30.528940405718167 ], [ 111.436153999607797, 30.530131069832144 ] ] ] } },
{ "type": "Feature", "properties": { "Shape_Length": 3052.1672383516534, "XMMC": "宜昌市猇亭区金岭路沿线等中心城区排水管网防涝能力提升改造项目", "XZQ": "猇亭区", "TZE": 9113.0, "MJ": null }, "geometry": { "type": "MultiLineString", "coordinates": [ [ [ 111.426102811068844, 30.520351826710961 ], [ 111.429207378636761, 30.521807204892561 ], [ 111.432663503711822, 30.523288994462845 ], [ 111.438183938011548, 30.525881733765885 ], [ 111.441931631559839, 30.526881729547011 ], [ 111.445213348946098, 30.528288270171029 ], [ 111.448657023554574, 30.530976861678166 ], [ 111.453117859365008, 30.534336925755653 ] ] ] } },
{ "type": "Feature", "properties": { "Shape_Length": 1298.395814513869, "XMMC": "宜昌市猇亭区金岭路沿线等中心城区排水管网防涝能力提升改造项目", "XZQ": "猇亭区", "TZE": 9113.0, "MJ": null }, "geometry": { "type": "MultiLineString", "coordinates": [ [ [ 111.435358563748949, 30.497889730163038 ], [ 111.435768241123981, 30.498100730914821 ], [ 111.438409479501814, 30.499189118835385 ], [ 111.447622805665631, 30.50282118094934 ] ] ] } },
{ "type": "Feature", "properties": { "Shape_Length": 14137.653328884919, "XMMC": "宜昌市猇亭区柳树河片区城市地下管网更新改造项目", "XZQ": "猇亭区", "TZE": 15290.0, "MJ": null }, "geometry": { "type": "MultiLineString", "coordinates": [ [ [ 111.410075082650124, 30.536099767343092 ], [ 111.416480336324582, 30.53844230307223 ], [ 111.42101142803125, 30.540183000960937 ], [ 111.424300931822032, 30.543345301333439 ], [ 111.426732080043493, 30.546375310402482 ], [ 111.42939619220617, 30.549134464943062 ], [ 111.434011415539587, 30.552089604845637 ], [ 111.440349727102145, 30.556523980100671 ], [ 111.446687376698975, 30.560688002454032 ], [ 111.461788220100516, 30.570154187750997 ], [ 111.464662284832784, 30.567511086288924 ], [ 111.462468592460269, 30.565561117356978 ], [ 111.453149904920991, 30.55803279154954 ], [ 111.443990501051047, 30.550908298486714 ], [ 111.439996899059125, 30.547478845443642 ], [ 111.43647457297989, 30.544722787351841 ], [ 111.434908624218508, 30.54337782558683 ], [ 111.433183432997808, 30.541290763166565 ], [ 111.432007249042755, 30.539876957288364 ], [ 111.411772636292085, 30.531773758446015 ], [ 111.411531278648255, 30.530019254685474 ], [ 111.410370014575662, 30.532048224856847 ], [ 111.410223685659375, 30.534344034143931 ], [ 111.410075082650124, 30.536099767343092 ] ] ] } },
{ "type": "Feature", "properties": { "Shape_Length": 23483.148816857181, "XMMC": "宜昌长江生态廊道（猇亭段）建设项目－地下综合管网改造提升工程", "XZQ": "猇亭区", "TZE": 11582.0, "MJ": null }, "geometry": { "type": "MultiLineString", "coordinates": [ [ [ 111.424582197803787, 30.594327785078075 ], [ 111.423828723937916, 30.593336501098548 ], [ 111.42222849457066, 30.592866435944643 ], [ 111.42048013126221, 30.592785684737279 ], [ 111.419531595707682, 30.592875158392228 ], [ 111.418384772728956, 30.59331091173182 ], [ 111.416738323194807, 30.593705049881706 ], [ 111.415590187059422, 30.593838340050386 ], [ 111.413840526567853, 30.593455060983139 ], [ 111.412391083645716, 30.593200425629551 ], [ 111.411939771164143, 30.592769793730412 ], [ 111.411587617003732, 30.592166021171121 ], [ 111.411283767175604, 30.591173240506496 ], [ 111.410779612071181, 30.59005147288789 ], [ 111.409926793641034, 30.589146831681493 ], [ 111.409322965099904, 30.588068578002826 ], [ 111.409166792854094, 30.586556852830796 ], [ 111.408912924697887, 30.585563907485078 ], [ 111.407961733799041, 30.585005211964742 ], [ 111.406760681766229, 30.584404084292952 ], [ 111.405661318408875, 30.584234690594315 ], [ 111.40446423596488, 30.584584065819985 ], [ 111.403119474391218, 30.585452362059993 ], [ 111.40197569295745, 30.586622468162957 ], [ 111.401329327819056, 30.58731576215013 ], [ 111.400631236360312, 30.587577150170308 ], [ 111.39928144041285, 30.587235648660293 ], [ 111.397782186690819, 30.586981002388185 ], [ 111.396533870523854, 30.587028017975587 ], [ 111.395585366898089, 30.587117316866703 ], [ 111.395731149346432, 30.58612313065791 ], [ 111.39627450566131, 30.584652464848478 ], [ 111.396016910228496, 30.582708967331637 ], [ 111.39640674232318, 30.580331436890326 ], [ 111.396948297154537, 30.578428710015704 ], [ 111.397491945949554, 30.577044450307049 ], [ 111.398186441317762, 30.575918963592432 ], [ 111.397783264954384, 30.575012864210322 ], [ 111.397127791149885, 30.573459438828721 ], [ 111.396724108506476, 30.572423717425515 ], [ 111.396820279163094, 30.571516091760177 ], [ 111.397763869626729, 30.570260228977524 ], [ 111.400500673191559, 30.567961902532751 ], [ 111.402539594239883, 30.565968123276843 ], [ 111.403429911587665, 30.563934668660437 ], [ 111.404220517759114, 30.561944723479733 ], [ 111.405212410999169, 30.560343005075016 ], [ 111.406852218476899, 30.558480017024348 ], [ 111.408694374392951, 30.557264469877449 ], [ 111.417954387577225, 30.551186184144544 ], [ 111.423331254329767, 30.547798718254462 ], [ 111.427261457719908, 30.544718229249781 ], [ 111.429997230089725, 30.542505699456832 ], [ 111.431436791829285, 30.540686268733047 ], [ 111.433071742887108, 30.537915630873901 ], [ 111.434947695076985, 30.533243083256586 ], [ 111.43845593516744, 30.525324534550844 ], [ 111.444129917090677, 30.510917536722619 ], [ 111.448029663396781, 30.501657973084711 ], [ 111.451533543653696, 30.493263790662688 ], [ 111.447563270702744, 30.491770429468538 ], [ 111.444813787831592, 30.498029256134181 ], [ 111.441440431027871, 30.504469983208512 ], [ 111.438425865668464, 30.510286049105197 ], [ 111.434324114938178, 30.517185835494793 ], [ 111.431380160683275, 30.521516271349462 ], [ 111.429133627826531, 30.524899201914604 ], [ 111.425654212619762, 30.531729145313367 ], [ 111.421242784602043, 30.539574661938079 ], [ 111.419154960264791, 30.543767022369313 ], [ 111.417528310290933, 30.546405139581857 ], [ 111.415428109565426, 30.547762056926008 ], [ 111.413872421150643, 30.548779660008556 ] ] ] } },
{ "type": "Feature", "properties": { "Shape_Length": 3093.9240558582087, "XMMC": "宜昌市猇亭区七里冲片区污水厂网一体化综合治理项目", "XZQ": "猇亭区", "TZE": 15640.0, "MJ": null }, "geometry": { "type": "MultiLineString", "coordinates": [ [ [ 111.430003121096675, 30.542483212671783 ], [ 111.432167856470031, 30.544358119603629 ], [ 111.432439617445965, 30.544854955350377 ], [ 111.432947345611353, 30.545879853462683 ], [ 111.433614263262228, 30.546328709586316 ], [ 111.434549986848239, 30.546605568410335 ], [ 111.435270690503188, 30.547023127873608 ], [ 111.436929998032085, 30.548355241130444 ], [ 111.43851578663643, 30.54931427829251 ], [ 111.439308552500563, 30.549762680919368 ], [ 111.439993567326255, 30.55022699699385 ], [ 111.440391395824719, 30.550770052221189 ], [ 111.441004818794525, 30.551296822010865 ], [ 111.44179782345843, 30.551791871195235 ], [ 111.442752088015212, 30.552177487403277 ], [ 111.443274470644909, 30.552440133079987 ], [ 111.443905748929708, 30.552935720485458 ], [ 111.445547160326626, 30.554236673817165 ], [ 111.445872862828395, 30.554717741346376 ], [ 111.446181734671342, 30.555447733895914 ], [ 111.446688237359481, 30.556161494483991 ], [ 111.447698694733347, 30.557029063049658 ], [ 111.448635992024776, 30.557616899014807 ], [ 111.450888194310664, 30.558822351870475 ], [ 111.452094329786092, 30.559238135544902 ], [ 111.453968088253902, 30.56021153404113 ] ] ] } },
{ "type": "Feature", "properties": { "Shape_Length": 1590.3984439403202, "XMMC": "宜昌市猇亭区七里冲片区污水厂网一体化综合治理项目", "XZQ": "猇亭区", "TZE": 15640.0, "MJ": null }, "geometry": { "type": "MultiLineString", "coordinates": [ [ [ 111.42541393133456, 30.564626207924022 ], [ 111.428294681549588, 30.561894766737161 ], [ 111.430894762819861, 30.559237101145161 ], [ 111.436318718470147, 30.553823650681711 ] ] ] } },
{ "type": "Feature", "properties": { "Shape_Length": 7421.3323784307668, "XMMC": "猇亭污水处理厂配套污水管网更新改造工程", "XZQ": "猇亭区", "TZE": 10510.0, "MJ": null }, "geometry": { "type": "MultiLineString", "coordinates": [ [ [ 111.409630680944346, 30.540548398038752 ], [ 111.410223157854546, 30.536538116959736 ], [ 111.40984562076747, 30.533691218819037 ], [ 111.4117779692791, 30.529571219787954 ], [ 111.415648917112591, 30.522913385981145 ], [ 111.417821780246086, 30.518159616732429 ], [ 111.419393430752521, 30.515306475528941 ], [ 111.422301924158461, 30.511710593849326 ], [ 111.425576596364309, 30.508324422690137 ], [ 111.428486968211303, 30.505255821061578 ], [ 111.43382131863666, 30.499436498458941 ], [ 111.43903133568125, 30.493195434025399 ], [ 111.44326822273932, 30.487379411859585 ], [ 111.445317176464371, 30.482625593858295 ] ] ] } },
{ "type": "Feature", "properties": { "Shape_Length": 11921.358816157524, "XMMC": "猇亭污水处理厂配套污水管网更新改造工程", "XZQ": "猇亭区", "TZE": 10510.0, "MJ": null }, "geometry": { "type": "MultiLineString", "coordinates": [ [ [ 111.397508601420483, 30.570530351798254 ], [ 111.400070469942904, 30.568204735956968 ], [ 111.402099213716895, 30.566529692553331 ], [ 111.402844954836425, 30.565507568928748 ], [ 111.403693591958543, 30.56346530334401 ], [ 111.404327933019616, 30.561423697402216 ], [ 111.405287100296604, 30.560215474400238 ], [ 111.407102108355332, 30.558726439630775 ], [ 111.411481045987742, 30.555560506854818 ], [ 111.420561018132247, 30.549598005663036 ], [ 111.424726494023616, 30.546803160810697 ], [ 111.428249469239546, 30.544103008591346 ], [ 111.430275592463275, 30.542056690889435 ], [ 111.432299988271367, 30.539639503523802 ], [ 111.433359527317577, 30.537040075305118 ], [ 111.435373407022766, 30.532305098411332 ], [ 111.441837189407423, 30.516986001950386 ], [ 111.447661679184222, 30.502781296455669 ], [ 111.451370027659323, 30.494331768403359 ], [ 111.452744592178348, 30.490618541988159 ], [ 111.453271259716786, 30.48876248079549 ], [ 111.453474614230572, 30.486443984254535 ], [ 111.453888608355385, 30.48338306081742 ], [ 111.453227441515168, 30.479306047243753 ], [ 111.453227871003492, 30.479398757195916 ] ] ] } },
{ "type": "Feature", "properties": { "Shape_Length": 2224.8276830396467, "XMMC": "猇亭污水处理厂配套污水管网更新改造工程", "XZQ": "猇亭区", "TZE": 10510.0, "MJ": null }, "geometry": { "type": "MultiLineString", "coordinates": [ [ [ 111.414964047299804, 30.537682926534206 ], [ 111.416075620497992, 30.534981674594295 ], [ 111.416744153754195, 30.533740050327285 ], [ 111.418473802852432, 30.531158316952073 ], [ 111.420063930908057, 30.528795743361876 ], [ 111.426118392053709, 30.520148272786898 ] ] ] } },
{ "type": "Feature", "properties": { "Shape_Length": 514.09634895189959, "XMMC": "猇亭区沿江道路改造提升项目", "XZQ": "猇亭区", "TZE": 10400.0, "MJ": null }, "geometry": { "type": "MultiLineString", "coordinates": [ [ [ 111.411621074095365, 30.530068010912576 ], [ 111.411832816458286, 30.529149634592873 ], [ 111.412581803188004, 30.527809589033591 ], [ 111.413723344877297, 30.525830565075935 ] ] ] } },
{ "type": "Feature", "properties": { "Shape_Length": 602.62634185294905, "XMMC": "猇亭区老旧小区及配套道路雨污分流改造项目", "XZQ": "猇亭区", "TZE": 8000.0, "MJ": null }, "geometry": { "type": "MultiLineString", "coordinates": [ [ [ 111.452726426454049, 30.557642013988431 ], [ 111.453012258256351, 30.557367066125906 ], [ 111.453364816338762, 30.557193821440492 ], [ 111.453871817239815, 30.556988182233411 ], [ 111.454430258964862, 30.556763248879047 ], [ 111.45480471931954, 30.556551697615333 ], [ 111.455164127181817, 30.556270117163553 ], [ 111.455456833427164, 30.555893202917961 ], [ 111.455785659310266, 30.555369628328652 ], [ 111.456216261316413, 30.554571742510429 ], [ 111.456435016204651, 30.554125004329347 ], [ 111.456624443669739, 30.553703853080794 ], [ 111.456639076566503, 30.553684688184806 ] ] ] } },
{ "type": "Feature", "properties": { "Shape_Length": 2922.4290065609148, "XMMC": "宜昌市猇亭区马鬃岭路沿线地下管网提档升级项目", "XZQ": "猇亭区", "TZE": 12000.0, "MJ": null }, "geometry": { "type": "MultiLineString", "coordinates": [ [ [ 111.425414673606426, 30.564796330020226 ], [ 111.428148589134608, 30.566998990279181 ], [ 111.433362500577445, 30.57106473010192 ], [ 111.436235357188394, 30.572853594100518 ], [ 111.441982268401034, 30.576625552079914 ], [ 111.445334393370146, 30.578728528577706 ], [ 111.446312816159292, 30.577704432020447 ], [ 111.448988811378996, 30.57934786461033 ] ] ] } },
{ "type": "Feature", "properties": { "Shape_Length": 6702.065075099662, "XMMC": "宜昌市猇亭区虎牙片区排水防涝设施建设工程", "XZQ": "猇亭区", "TZE": 11474.0, "MJ": null }, "geometry": { "type": "MultiLineString", "coordinates": [ [ [ 111.440539762325173, 30.575656358421412 ], [ 111.444083437766551, 30.57222238788626 ], [ 111.444996139368882, 30.571332680373043 ], [ 111.44739104982348, 30.568322505164193 ], [ 111.455261292125243, 30.558355592133079 ], [ 111.45969035515563, 30.552525225075691 ], [ 111.462686316595224, 30.548183174875941 ], [ 111.465131344582147, 30.543368344586643 ], [ 111.468596504980027, 30.536918090452168 ], [ 111.469119990372519, 30.534413015291257 ], [ 111.469104843691937, 30.531260900847375 ], [ 111.470255223952918, 30.525508678522318 ], [ 111.470669287235097, 30.52254043292222 ] ] ] } },
{ "type": "Feature", "properties": { "Shape_Length": 1657.2603916624012, "XMMC": "宜昌市猇亭区虎牙片区排水防涝设施建设工程", "XZQ": "猇亭区", "TZE": 11474.0, "MJ": null }, "geometry": { "type": "MultiLineString", "coordinates": [ [ [ 111.433446327103781, 30.570967237036474 ], [ 111.437049523724468, 30.566507648102963 ], [ 111.443333292509294, 30.558709276364787 ] ] ] } },
{ "type": "Feature", "properties": { "Shape_Length": 14334.415153426922, "XMMC": "猇亭区机场片区供水管网更新改造工程", "XZQ": "猇亭区", "TZE": 9280.0, "MJ": null }, "geometry": { "type": "MultiLineString", "coordinates": [ [ [ 111.446535462979526, 30.569303399894046 ], [ 111.451207206740847, 30.571245336994455 ], [ 111.458894883464694, 30.572879834526454 ], [ 111.462514236374929, 30.569722291139403 ], [ 111.464697978919276, 30.56751913378567 ], [ 111.465445139638092, 30.566033099142196 ], [ 111.464814747522396, 30.56324662183518 ], [ 111.46460142110972, 30.56164534645476 ], [ 111.467944507994233, 30.558191962819929 ], [ 111.474912573998381, 30.553004617081839 ], [ 111.475655997450161, 30.550806518079753 ], [ 111.475650790232066, 30.54973851233672 ], [ 111.480088750185274, 30.546043473727842 ], [ 111.487051749460065, 30.540143480390331 ], [ 111.491286191353836, 30.537042170097976 ], [ 111.492922899596962, 30.535374612275017 ], [ 111.493120740344537, 30.533831158364503 ], [ 111.481386335062027, 30.53114564152353 ], [ 111.469382680842486, 30.529350056141514 ], [ 111.468651235131006, 30.534040150148506 ], [ 111.467985423746867, 30.53813665301249 ], [ 111.464451770109804, 30.544616800732108 ], [ 111.460983123856579, 30.550443937477191 ], [ 111.456217539717599, 30.557580894035684 ], [ 111.451855231112177, 30.563114236309403 ], [ 111.446398597297687, 30.569363204258124 ] ] ] } },
{ "type": "Feature", "properties": { "Shape_Length": 1273.7178825138328, "XMMC": "猇亭区机场片区地下燃气管网配套改造工程", "XZQ": "猇亭区", "TZE": 6010.0, "MJ": null }, "geometry": { "type": "MultiLineString", "coordinates": [ [ [ 111.46494295911063, 30.543539901284628 ], [ 111.466878429694361, 30.54459625830123 ], [ 111.475716115865467, 30.548513604070269 ], [ 111.475808309373107, 30.549424649329996 ] ] ] } },
{ "type": "Feature", "properties": { "Shape_Length": 1319.1698967487891, "XMMC": "猇亭区机场片区地下燃气管网配套改造工程", "XZQ": "猇亭区", "TZE": 6010.0, "MJ": null }, "geometry": { "type": "MultiLineString", "coordinates": [ [ [ 111.454662337050905, 30.559297547728576 ], [ 111.464662063621361, 30.567464674287322 ] ] ] } },
{ "type": "Feature", "properties": { "Shape_Length": 14334.415153426922, "XMMC": "猇亭区机场片区地下燃气管网配套改造工程", "XZQ": "猇亭区", "TZE": 6010.0, "MJ": null }, "geometry": { "type": "MultiLineString", "coordinates": [ [ [ 111.446535462979526, 30.569303399894046 ], [ 111.451207206740847, 30.571245336994455 ], [ 111.458894883464694, 30.572879834526454 ], [ 111.462514236374929, 30.569722291139403 ], [ 111.464697978919276, 30.56751913378567 ], [ 111.465445139638092, 30.566033099142196 ], [ 111.464814747522396, 30.56324662183518 ], [ 111.46460142110972, 30.56164534645476 ], [ 111.467944507994233, 30.558191962819929 ], [ 111.474912573998381, 30.553004617081839 ], [ 111.475655997450161, 30.550806518079753 ], [ 111.475650790232066, 30.54973851233672 ], [ 111.480088750185274, 30.546043473727842 ], [ 111.487051749460065, 30.540143480390331 ], [ 111.491286191353836, 30.537042170097976 ], [ 111.492922899596962, 30.535374612275017 ], [ 111.493120740344537, 30.533831158364503 ], [ 111.481386335062027, 30.53114564152353 ], [ 111.469382680842486, 30.529350056141514 ], [ 111.468651235131006, 30.534040150148506 ], [ 111.467985423746867, 30.53813665301249 ], [ 111.464451770109804, 30.544616800732108 ], [ 111.460983123856579, 30.550443937477191 ], [ 111.456217539717599, 30.557580894035684 ], [ 111.451855231112177, 30.563114236309403 ], [ 111.446398597297687, 30.569363204258124 ] ] ] } },
{ "type": "Feature", "properties": { "Shape_Length": 1101.1779746489592, "XMMC": "宜昌市猇亭区中心城区老旧街区改造提升工程", "XZQ": "猇亭区", "TZE": 12889.0, "MJ": null }, "geometry": { "type": "MultiLineString", "coordinates": [ [ [ 111.408271992152237, 30.545570677848495 ], [ 111.409747347902012, 30.545986012571813 ], [ 111.410881401298241, 30.546433515341878 ], [ 111.411926792712791, 30.547161266301014 ], [ 111.414057922406457, 30.549643199665411 ], [ 111.416387181761536, 30.552202233852483 ] ] ] } },
{ "type": "Feature", "properties": { "Shape_Length": 6062.4629996916883, "XMMC": "宜昌市猇亭区中心城区老旧街区改造提升工程", "XZQ": "猇亭区", "TZE": 12889.0, "MJ": null }, "geometry": { "type": "MultiLineString", "coordinates": [ [ [ 111.409781262078681, 30.54042134295042 ], [ 111.418219026760966, 30.543774250430072 ], [ 111.419407834621595, 30.544757762719996 ], [ 111.421920263443468, 30.547445830911546 ], [ 111.423860963777528, 30.549793941796779 ], [ 111.425890837916739, 30.552445524728789 ], [ 111.429292733575096, 30.557750761698852 ], [ 111.430487020285454, 30.55991135503691 ], [ 111.435769918789831, 30.563767158481753 ], [ 111.438059440742506, 30.565468317237798 ], [ 111.445094142393529, 30.568406447908103 ], [ 111.446897898357562, 30.569387598114044 ], [ 111.449184945426154, 30.570480979053375 ], [ 111.451557879283357, 30.571156306175173 ], [ 111.457840190656242, 30.572577381621485 ] ] ] } },
{ "type": "Feature", "properties": { "Shape_Length": 6290.1315062399699, "XMMC": "宜昌市猇亭区中心城区老旧街区改造提升工程", "XZQ": "猇亭区", "TZE": 12889.0, "MJ": null }, "geometry": { "type": "MultiLineString", "coordinates": [ [ [ 111.410214599871594, 30.53630810936879 ], [ 111.413802149443782, 30.537408986024495 ], [ 111.418182414187243, 30.538956387809048 ], [ 111.420137622495602, 30.539677318181422 ], [ 111.42152498704327, 30.540507002251886 ], [ 111.4231631884753, 30.54219141278822 ], [ 111.4260188256616, 30.54536904446902 ], [ 111.428874086289412, 30.54841828011115 ], [ 111.429816730988193, 30.549227948692426 ], [ 111.432369787458555, 30.550951993903393 ], [ 111.436411184311623, 30.553890171748243 ], [ 111.441046838141503, 30.557018708901591 ], [ 111.457431561345246, 30.567314344151885 ], [ 111.461844747408705, 30.570164854614635 ] ] ] } },
{ "type": "Feature", "properties": { "Shape_Length": 2176.1860579637319, "XMMC": "宜昌市猇亭区中心城区老旧街区改造提升工程", "XZQ": "猇亭区", "TZE": 12889.0, "MJ": null }, "geometry": { "type": "MultiLineString", "coordinates": [ [ [ 111.414173119065765, 30.525836401026179 ], [ 111.419373616109368, 30.528643105505761 ], [ 111.420364207885299, 30.529174636124822 ], [ 111.431058179446211, 30.533759696994107 ], [ 111.434128119964171, 30.535118391266582 ] ] ] } },
{ "type": "Feature", "properties": { "Shape_Length": 7169.4122612427172, "XMMC": "宜昌市猇亭区中心城区老旧街区改造提升工程", "XZQ": "猇亭区", "TZE": 12889.0, "MJ": null }, "geometry": { "type": "MultiLineString", "coordinates": [ [ [ 111.413483279118665, 30.548983426788066 ], [ 111.416516640325696, 30.546948459957317 ], [ 111.417992828903863, 30.54559352913693 ], [ 111.420005652588955, 30.542076530164685 ], [ 111.425345208723442, 30.532405256521844 ], [ 111.429444066608625, 30.524560627846697 ], [ 111.431689685869202, 30.520975164391661 ], [ 111.43478955910831, 30.516644201280986 ], [ 111.437189235330237, 30.512720575320017 ], [ 111.439278668804945, 30.509203012457274 ], [ 111.443531070717199, 30.501289897980424 ], [ 111.445920787497954, 30.495340827087535 ], [ 111.447464480331419, 30.491960013906422 ] ] ] } },
{ "type": "Feature", "properties": { "Shape_Length": 1807.0008853137788, "XMMC": "宜昌市猇亭区中心城区老旧街区改造提升工程", "XZQ": "猇亭区", "TZE": 12889.0, "MJ": null }, "geometry": { "type": "MultiLineString", "coordinates": [ [ [ 111.424294409190168, 30.543416255990874 ], [ 111.427204842421133, 30.537925843884789 ], [ 111.430157387892308, 30.533304149886515 ], [ 111.432298949612075, 30.528685080755015 ] ] ] } },
{ "type": "Feature", "properties": { "Shape_Length": 2241.3295282869117, "XMMC": "宜昌市猇亭区中心城区老旧街区改造提升工程", "XZQ": "猇亭区", "TZE": 12889.0, "MJ": null }, "geometry": { "type": "MultiLineString", "coordinates": [ [ [ 111.414926413943263, 30.537765010654535 ], [ 111.416763221934289, 30.533915829010503 ], [ 111.418488080334058, 30.531002744738011 ], [ 111.420061724326402, 30.528858788722381 ], [ 111.424013527810374, 30.523197975463688 ], [ 111.426277824036319, 30.520149347923791 ] ] ] } },
{ "type": "Feature", "properties": { "Shape_Length": 5737.6277947246544, "XMMC": "宜昌市猇亭区中心城区老旧街区改造提升工程", "XZQ": "猇亭区", "TZE": 12889.0, "MJ": null }, "geometry": { "type": "MultiLineString", "coordinates": [ [ [ 111.426082293128545, 30.520279657635932 ], [ 111.432716333680389, 30.523209469642289 ], [ 111.436925124620842, 30.525163205318027 ], [ 111.438459700198422, 30.525778329119181 ], [ 111.440785678722449, 30.526561870169488 ], [ 111.442839529971749, 30.527260740286813 ], [ 111.44479575199162, 30.528216576475934 ], [ 111.448935792580343, 30.531239597798468 ], [ 111.455879978176299, 30.536204775132134 ], [ 111.459380175733997, 30.538885012805697 ], [ 111.461176128006784, 30.539939362206734 ], [ 111.463828619718527, 30.542704067802379 ], [ 111.465152977434585, 30.543678447158946 ], [ 111.467326142123753, 30.544731362334929 ], [ 111.47554553119646, 30.548454832419576 ] ] ] } },
{ "type": "Feature", "properties": { "Shape_Length": 1393.5956526146142, "XMMC": "宜昌市猇亭区中心城区老旧街区改造提升工程", "XZQ": "猇亭区", "TZE": 12889.0, "MJ": null }, "geometry": { "type": "MultiLineString", "coordinates": [ [ [ 111.42299474623843, 30.524817100086928 ], [ 111.428250417619438, 30.526940609957233 ], [ 111.433178673279627, 30.528940405718167 ], [ 111.436153999607797, 30.530131069832144 ] ] ] } },
{ "type": "Feature", "properties": { "Shape_Length": 6062.4629996916883, "XMMC": "宜昌市猇亭区城北片区老旧街区改造提升工程", "XZQ": "猇亭区", "TZE": 21987.0, "MJ": null }, "geometry": { "type": "MultiLineString", "coordinates": [ [ [ 111.409781262078681, 30.54042134295042 ], [ 111.418219026760966, 30.543774250430072 ], [ 111.419407834621595, 30.544757762719996 ], [ 111.421920263443468, 30.547445830911546 ], [ 111.423860963777528, 30.549793941796779 ], [ 111.425890837916739, 30.552445524728789 ], [ 111.429292733575096, 30.557750761698852 ], [ 111.430487020285454, 30.55991135503691 ], [ 111.435769918789831, 30.563767158481753 ], [ 111.438059440742506, 30.565468317237798 ], [ 111.445094142393529, 30.568406447908103 ], [ 111.446897898357562, 30.569387598114044 ], [ 111.449184945426154, 30.570480979053375 ], [ 111.451557879283357, 30.571156306175173 ], [ 111.457840190656242, 30.572577381621485 ] ] ] } },
{ "type": "Feature", "properties": { "Shape_Length": 6290.1315062399699, "XMMC": "宜昌市猇亭区城北片区老旧街区改造提升工程", "XZQ": "猇亭区", "TZE": 21987.0, "MJ": null }, "geometry": { "type": "MultiLineString", "coordinates": [ [ [ 111.410214599871594, 30.53630810936879 ], [ 111.413802149443782, 30.537408986024495 ], [ 111.418182414187243, 30.538956387809048 ], [ 111.420137622495602, 30.539677318181422 ], [ 111.42152498704327, 30.540507002251886 ], [ 111.4231631884753, 30.54219141278822 ], [ 111.4260188256616, 30.54536904446902 ], [ 111.428874086289412, 30.54841828011115 ], [ 111.429816730988193, 30.549227948692426 ], [ 111.432369787458555, 30.550951993903393 ], [ 111.436411184311623, 30.553890171748243 ], [ 111.441046838141503, 30.557018708901591 ], [ 111.457431561345246, 30.567314344151885 ], [ 111.461844747408705, 30.570164854614635 ] ] ] } },
{ "type": "Feature", "properties": { "Shape_Length": 5391.1148941535121, "XMMC": "宜昌市猇亭区城北片区老旧街区改造提升工程", "XZQ": "猇亭区", "TZE": 21987.0, "MJ": null }, "geometry": { "type": "MultiLineString", "coordinates": [ [ [ 111.411531847746147, 30.53015427381041 ], [ 111.411929178356317, 30.531908284473907 ], [ 111.416616150545934, 30.533716156739455 ], [ 111.432085242023263, 30.539876698609454 ], [ 111.433653195359682, 30.541694259812878 ], [ 111.435613296077051, 30.543983060119398 ], [ 111.439135570113393, 30.546739142314653 ], [ 111.454638332935829, 30.559377799406409 ] ] ] } },
{ "type": "Feature", "properties": { "Shape_Length": 5737.6277947246544, "XMMC": "宜昌市猇亭区城北片区老旧街区改造提升工程", "XZQ": "猇亭区", "TZE": 21987.0, "MJ": null }, "geometry": { "type": "MultiLineString", "coordinates": [ [ [ 111.426082293128545, 30.520279657635932 ], [ 111.432716333680389, 30.523209469642289 ], [ 111.436925124620842, 30.525163205318027 ], [ 111.438459700198422, 30.525778329119181 ], [ 111.440785678722449, 30.526561870169488 ], [ 111.442839529971749, 30.527260740286813 ], [ 111.44479575199162, 30.528216576475934 ], [ 111.448935792580343, 30.531239597798468 ], [ 111.455879978176299, 30.536204775132134 ], [ 111.459380175733997, 30.538885012805697 ], [ 111.461176128006784, 30.539939362206734 ], [ 111.463828619718527, 30.542704067802379 ], [ 111.465152977434585, 30.543678447158946 ], [ 111.467326142123753, 30.544731362334929 ], [ 111.47554553119646, 30.548454832419576 ] ] ] } },
{ "type": "Feature", "properties": { "Shape_Length": 3093.9240558582087, "XMMC": "宜昌市猇亭区城北片区老旧街区改造提升工程", "XZQ": "猇亭区", "TZE": 21987.0, "MJ": null }, "geometry": { "type": "MultiLineString", "coordinates": [ [ [ 111.430003121096675, 30.542483212671783 ], [ 111.432167856470031, 30.544358119603629 ], [ 111.432439617445965, 30.544854955350377 ], [ 111.432947345611353, 30.545879853462683 ], [ 111.433614263262228, 30.546328709586316 ], [ 111.434549986848239, 30.546605568410335 ], [ 111.435270690503188, 30.547023127873608 ], [ 111.436929998032085, 30.548355241130444 ], [ 111.43851578663643, 30.54931427829251 ], [ 111.439308552500563, 30.549762680919368 ], [ 111.439993567326255, 30.55022699699385 ], [ 111.440391395824719, 30.550770052221189 ], [ 111.441004818794525, 30.551296822010865 ], [ 111.44179782345843, 30.551791871195235 ], [ 111.442752088015212, 30.552177487403277 ], [ 111.443274470644909, 30.552440133079987 ], [ 111.443905748929708, 30.552935720485458 ], [ 111.445547160326626, 30.554236673817165 ], [ 111.445872862828395, 30.554717741346376 ], [ 111.446181734671342, 30.555447733895914 ], [ 111.446688237359481, 30.556161494483991 ], [ 111.447698694733347, 30.557029063049658 ], [ 111.448635992024776, 30.557616899014807 ], [ 111.450888194310664, 30.558822351870475 ], [ 111.452094329786092, 30.559238135544902 ], [ 111.453968088253902, 30.56021153404113 ] ] ] } },
{ "type": "Feature", "properties": { "Shape_Length": 1590.3984439403202, "XMMC": "宜昌市猇亭区城北片区老旧街区改造提升工程", "XZQ": "猇亭区", "TZE": 21987.0, "MJ": null }, "geometry": { "type": "MultiLineString", "coordinates": [ [ [ 111.42541393133456, 30.564626207924022 ], [ 111.428294681549588, 30.561894766737161 ], [ 111.430894762819861, 30.559237101145161 ], [ 111.436318718470147, 30.553823650681711 ] ] ] } },
{ "type": "Feature", "properties": { "Shape_Length": 6702.065075099662, "XMMC": "宜昌市猇亭区城北片区老旧街区改造提升工程", "XZQ": "猇亭区", "TZE": 21987.0, "MJ": null }, "geometry": { "type": "MultiLineString", "coordinates": [ [ [ 111.440539762325173, 30.575656358421412 ], [ 111.444083437766551, 30.57222238788626 ], [ 111.444996139368882, 30.571332680373043 ], [ 111.44739104982348, 30.568322505164193 ], [ 111.455261292125243, 30.558355592133079 ], [ 111.45969035515563, 30.552525225075691 ], [ 111.462686316595224, 30.548183174875941 ], [ 111.465131344582147, 30.543368344586643 ], [ 111.468596504980027, 30.536918090452168 ], [ 111.469119990372519, 30.534413015291257 ], [ 111.469104843691937, 30.531260900847375 ], [ 111.470255223952918, 30.525508678522318 ], [ 111.470669287235097, 30.52254043292222 ] ] ] } },
{ "type": "Feature", "properties": { "Shape_Length": 3375.599952104857, "XMMC": "宜昌市猇亭区城北片区老旧街区改造提升工程", "XZQ": "猇亭区", "TZE": 21987.0, "MJ": null }, "geometry": { "type": "MultiLineString", "coordinates": [ [ [ 111.452300946478999, 30.571261114297297 ], [ 111.452679714833366, 30.569655641992995 ], [ 111.453831657984978, 30.568214576006493 ], [ 111.456748500317673, 30.564294244708233 ], [ 111.458590894330058, 30.561881534041628 ], [ 111.460203071858501, 30.559803809606866 ], [ 111.460701779208321, 30.559100227378885 ], [ 111.461856171751421, 30.55822721943164 ], [ 111.46505257860197, 30.556377745935688 ], [ 111.466399177056459, 30.555336912323071 ], [ 111.467012063508392, 30.554298697157648 ], [ 111.467428340026018, 30.552525945399662 ], [ 111.467612440430372, 30.55065376650391 ], [ 111.467647208568764, 30.549851562105445 ], [ 111.467914455476475, 30.549215622595923 ], [ 111.47017796303534, 30.546166252814469 ] ] ] } },
{ "type": "Feature", "properties": { "Shape_Length": 7169.4122612427172, "XMMC": "宜昌市猇亭区城东片区老旧街区改造提升工程", "XZQ": "猇亭区", "TZE": 8911.0, "MJ": null }, "geometry": { "type": "MultiLineString", "coordinates": [ [ [ 111.413483279118665, 30.548983426788066 ], [ 111.416516640325696, 30.546948459957317 ], [ 111.417992828903863, 30.54559352913693 ], [ 111.420005652588955, 30.542076530164685 ], [ 111.425345208723442, 30.532405256521844 ], [ 111.429444066608625, 30.524560627846697 ], [ 111.431689685869202, 30.520975164391661 ], [ 111.43478955910831, 30.516644201280986 ], [ 111.437189235330237, 30.512720575320017 ], [ 111.439278668804945, 30.509203012457274 ], [ 111.443531070717199, 30.501289897980424 ], [ 111.445920787497954, 30.495340827087535 ], [ 111.447464480331419, 30.491960013906422 ] ] ] } },
{ "type": "Feature", "properties": { "Shape_Length": 1653.7385674885547, "XMMC": "宜昌市猇亭区城东片区老旧街区改造提升工程", "XZQ": "猇亭区", "TZE": 8911.0, "MJ": null }, "geometry": { "type": "MultiLineString", "coordinates": [ [ [ 111.428413197057495, 30.505337173011299 ], [ 111.444187758604897, 30.51133343707745 ] ] ] } },
{ "type": "Feature", "properties": { "Shape_Length": 1259.2763496665125, "XMMC": "宜昌市猇亭区城东片区老旧街区改造提升工程", "XZQ": "猇亭区", "TZE": 8911.0, "MJ": null }, "geometry": { "type": "MultiLineString", "coordinates": [ [ [ 111.444249655428592, 30.511363973148494 ], [ 111.447095663034844, 30.512487854704069 ], [ 111.448704112204936, 30.513081217877371 ], [ 111.450907434464938, 30.51410028156803 ], [ 111.455393314983482, 30.517207465955124 ] ] ] } },
{ "type": "Feature", "properties": { "Shape_Length": 2326.7705819189509, "XMMC": "宜昌市猇亭区城东片区老旧街区改造提升工程", "XZQ": "猇亭区", "TZE": 8911.0, "MJ": null }, "geometry": { "type": "MultiLineString", "coordinates": [ [ [ 111.450764409400307, 30.527645941983696 ], [ 111.452394481780459, 30.527941447706979 ], [ 111.453312556885564, 30.528143590271302 ], [ 111.454278264560173, 30.528386626233559 ], [ 111.454991294650867, 30.528698982387958 ], [ 111.455625905560495, 30.529148498380756 ], [ 111.456435612821252, 30.529843796338355 ], [ 111.457357817705102, 30.530921983896221 ], [ 111.45804233360532, 30.531891488922817 ], [ 111.458773465843393, 30.532682870621798 ], [ 111.459108182211693, 30.533242934528367 ], [ 111.459647960912193, 30.5336927644524 ], [ 111.460171480408704, 30.534046826037031 ], [ 111.460725789916694, 30.534222822205347 ], [ 111.461105635974008, 30.534289923017742 ], [ 111.46164361705425, 30.534356462456671 ], [ 111.462117696570132, 30.534286336993933 ], [ 111.462623013220849, 30.534133966175215 ], [ 111.463081083642493, 30.534022828158594 ], [ 111.463617049186666, 30.533665011414708 ], [ 111.464325654786279, 30.533032800363255 ], [ 111.465537987891736, 30.531919675457249 ], [ 111.466545510761378, 30.530971540106865 ], [ 111.467600451560472, 30.530023226786952 ], [ 111.46842048112498, 30.529554859905605 ], [ 111.469541141268891, 30.529126471637458 ] ] ] } }
]
}
