{"type": "FeatureCollection", "features": [{"type": "Feature", "geometry": {"type": "Point", "coordinates": [111.288826, 30.692108]}, "properties": {"指标": "不达标的步行道长度（千米）", "中类": "交通设施", "board": "民生基础需求"}}, {"type": "Feature", "geometry": {"type": "Point", "coordinates": [111.293781, 30.725716]}, "properties": {"指标": "不达标的步行道长度（千米）", "中类": "交通设施", "board": "民生基础需求"}}, {"type": "Feature", "geometry": {"type": "Point", "coordinates": [111.296196, 30.734839]}, "properties": {"指标": "不达标的步行道长度（千米）", "中类": "交通设施", "board": "民生基础需求"}}, {"type": "Feature", "geometry": {"type": "Point", "coordinates": [111.292172, 30.727385]}, "properties": {"指标": "不达标的步行道长度（千米）", "中类": "交通设施", "board": "民生基础需求"}}, {"type": "Feature", "geometry": {"type": "Point", "coordinates": [111.27621, 30.729025]}, "properties": {"指标": "不达标的步行道长度（千米）", "中类": "交通设施", "board": "民生基础需求"}}, {"type": "Feature", "geometry": {"type": "Point", "coordinates": [111.307838, 30.702262]}, "properties": {"指标": "不达标的步行道长度（千米）", "中类": "交通设施", "board": "民生基础需求"}}, {"type": "Feature", "geometry": {"type": "Point", "coordinates": [111.297536, 30.705377]}, "properties": {"指标": "不达标的步行道长度（千米）", "中类": "交通设施", "board": "民生基础需求"}}, {"type": "Feature", "geometry": {"type": "Point", "coordinates": [111.290042, 30.718507]}, "properties": {"指标": "不达标的步行道长度（千米）", "中类": "交通设施", "board": "民生基础需求"}}, {"type": "Feature", "geometry": {"type": "Point", "coordinates": [111.287817, 30.692548]}, "properties": {"指标": "不达标的步行道长度（千米）", "中类": "交通设施", "board": "民生基础需求"}}, {"type": "Feature", "geometry": {"type": "Point", "coordinates": [111.287253, 30.707905]}, "properties": {"指标": "不达标的步行道长度（千米）", "中类": "交通设施", "board": "民生基础需求"}}, {"type": "Feature", "geometry": {"type": "Point", "coordinates": [111.278072, 30.729168]}, "properties": {"指标": "不达标的步行道长度（千米）", "中类": "交通设施", "board": "民生基础需求"}}, {"type": "Feature", "geometry": {"type": "Point", "coordinates": [111.300258, 30.706491]}, "properties": {"指标": "不达标的步行道长度（千米）", "中类": "交通设施", "board": "民生基础需求"}}, {"type": "Feature", "geometry": {"type": "Point", "coordinates": [111.289093, 30.738541]}, "properties": {"指标": "不达标的步行道长度（千米）", "中类": "交通设施", "board": "民生基础需求"}}, {"type": "Feature", "geometry": {"type": "Point", "coordinates": [111.276497, 30.711097]}, "properties": {"指标": "不达标的步行道长度（千米）", "中类": "交通设施", "board": "民生基础需求"}}, {"type": "Feature", "geometry": {"type": "Point", "coordinates": [111.29416, 30.728932]}, "properties": {"指标": "不达标的步行道长度（千米）", "中类": "交通设施", "board": "民生基础需求"}}, {"type": "Feature", "geometry": {"type": "Point", "coordinates": [111.308457, 30.704208]}, "properties": {"指标": "不达标的步行道长度（千米）", "中类": "交通设施", "board": "民生基础需求"}}, {"type": "Feature", "geometry": {"type": "Point", "coordinates": [111.354307, 30.651865]}, "properties": {"指标": "不达标的步行道长度（千米）", "中类": "交通设施", "board": "民生基础需求"}}, {"type": "Feature", "geometry": {"type": "Point", "coordinates": [111.29549, 30.727942]}, "properties": {"指标": "不达标的步行道长度（千米）", "中类": "交通设施", "board": "民生基础需求"}}, {"type": "Feature", "geometry": {"type": "Point", "coordinates": [111.292344, 30.723835]}, "properties": {"指标": "不达标的步行道长度（千米）", "中类": "交通设施", "board": "民生基础需求"}}, {"type": "Feature", "geometry": {"type": "Point", "coordinates": [111.354609, 30.650614]}, "properties": {"指标": "不达标的步行道长度（千米）", "中类": "交通设施", "board": "民生基础需求"}}, {"type": "Feature", "geometry": {"type": "Point", "coordinates": [111.279346, 30.728679]}, "properties": {"指标": "不达标的步行道长度（千米）", "中类": "交通设施", "board": "民生基础需求"}}, {"type": "Feature", "geometry": {"type": "Point", "coordinates": [111.293109, 30.699708]}, "properties": {"指标": "不达标的步行道长度（千米）", "中类": "交通设施", "board": "民生基础需求"}}, {"type": "Feature", "geometry": {"type": "Point", "coordinates": [111.288664, 30.691223]}, "properties": {"指标": "不达标的步行道长度（千米）", "中类": "交通设施", "board": "民生基础需求"}}, {"type": "Feature", "geometry": {"type": "Point", "coordinates": [111.290929, 30.69517]}, "properties": {"指标": "不达标的步行道长度（千米）", "中类": "交通设施", "board": "民生基础需求"}}]}