{"type": "FeatureCollection", "features": [{"type": "Feature", "geometry": {"type": "Point", "coordinates": [111.2768149682492, 30.72684672273511]}, "properties": {"指标": "存在燃气安全隐患的住宅数量（栋）", "中类": "市政管网", "board": "安全韧性底线"}}, {"type": "Feature", "geometry": {"type": "Point", "coordinates": [111.27385438007423, 30.704280894519847]}, "properties": {"指标": "存在燃气安全隐患的住宅数量（栋）", "中类": "市政管网", "board": "安全韧性底线"}}, {"type": "Feature", "geometry": {"type": "Point", "coordinates": [111.27808214429935, 30.72645597522787]}, "properties": {"指标": "存在燃气安全隐患的住宅数量（栋）", "中类": "市政管网", "board": "安全韧性底线"}}, {"type": "Feature", "geometry": {"type": "Point", "coordinates": [111.27337286782085, 30.7042271092195]}, "properties": {"指标": "存在燃气安全隐患的住宅数量（栋）", "中类": "市政管网", "board": "安全韧性底线"}}, {"type": "Feature", "geometry": {"type": "Point", "coordinates": [111.28887757565111, 30.691096262381127]}, "properties": {"指标": "存在燃气安全隐患的住宅数量（栋）", "中类": "市政管网", "board": "安全韧性底线"}}, {"type": "Feature", "geometry": {"type": "Point", "coordinates": [111.28817112436474, 30.69305667102723]}, "properties": {"指标": "存在燃气安全隐患的住宅数量（栋）", "中类": "市政管网", "board": "安全韧性底线"}}, {"type": "Feature", "geometry": {"type": "Point", "coordinates": [111.32391670057204, 30.670405154432665]}, "properties": {"指标": "存在管线管道破损的住宅数量（栋）", "中类": "市政管网", "board": "安全韧性底线"}}, {"type": "Feature", "geometry": {"type": "Point", "coordinates": [111.28625125583054, 30.71669908684682]}, "properties": {"指标": "存在管线管道破损的住宅数量（栋）", "中类": "市政管网", "board": "安全韧性底线"}}, {"type": "Feature", "geometry": {"type": "Point", "coordinates": [111.29463908333199, 30.72964801274824]}, "properties": {"指标": "存在管线管道破损的住宅数量（栋）", "中类": "市政管网", "board": "安全韧性底线"}}, {"type": "Feature", "geometry": {"type": "Point", "coordinates": [111.27988339248789, 30.70500237733354]}, "properties": {"指标": "存在管线管道破损的住宅数量（栋）", "中类": "市政管网", "board": "安全韧性底线"}}, {"type": "Feature", "geometry": {"type": "Point", "coordinates": [111.31064638099623, 30.705631225949475]}, "properties": {"指标": "存在管线管道破损的住宅数量（栋）", "中类": "市政管网", "board": "安全韧性底线"}}, {"type": "Feature", "geometry": {"type": "Point", "coordinates": [111.29970987909333, 30.707353121615636]}, "properties": {"指标": "存在管线管道破损的住宅数量（栋）", "中类": "市政管网", "board": "安全韧性底线"}}, {"type": "Feature", "geometry": {"type": "Point", "coordinates": [111.28792758314117, 30.717605531624205]}, "properties": {"指标": "存在管线管道破损的住宅数量（栋）", "中类": "市政管网", "board": "安全韧性底线"}}, {"type": "Feature", "geometry": {"type": "Point", "coordinates": [111.28895831717618, 30.702638461144524]}, "properties": {"指标": "存在管线管道破损的住宅数量（栋）", "中类": "市政管网", "board": "安全韧性底线"}}, {"type": "Feature", "geometry": {"type": "Point", "coordinates": [111.33640252652054, 30.72507776399974]}, "properties": {"指标": "存在管线管道破损的住宅数量（栋）", "中类": "市政管网", "board": "安全韧性底线"}}, {"type": "Feature", "geometry": {"type": "Point", "coordinates": [111.27971076281028, 30.715970218690707]}, "properties": {"指标": "存在管线管道破损的住宅数量（栋）", "中类": "市政管网", "board": "安全韧性底线"}}, {"type": "Feature", "geometry": {"type": "Point", "coordinates": [111.29521865164762, 30.730612107158887]}, "properties": {"指标": "存在管线管道破损的住宅数量（栋）", "中类": "市政管网", "board": "安全韧性底线"}}, {"type": "Feature", "geometry": {"type": "Point", "coordinates": [111.27252201739614, 30.720630892591178]}, "properties": {"指标": "存在管线管道破损的住宅数量（栋）", "中类": "市政管网", "board": "安全韧性底线"}}, {"type": "Feature", "geometry": {"type": "Point", "coordinates": [111.30886006106672, 30.704504341004224]}, "properties": {"指标": "存在管线管道破损的住宅数量（栋）", "中类": "市政管网", "board": "安全韧性底线"}}, {"type": "Feature", "geometry": {"type": "Point", "coordinates": [111.29336879115972, 30.726374580458792]}, "properties": {"指标": "存在管线管道破损的住宅数量（栋）", "中类": "市政管网", "board": "安全韧性底线"}}, {"type": "Feature", "geometry": {"type": "Point", "coordinates": [111.27325338816395, 30.718121269741957]}, "properties": {"指标": "存在管线管道破损的住宅数量（栋）", "中类": "市政管网", "board": "安全韧性底线"}}, {"type": "Feature", "geometry": {"type": "Point", "coordinates": [111.27117516794826, 30.718160037625523]}, "properties": {"指标": "存在管线管道破损的住宅数量（栋）", "中类": "市政管网", "board": "安全韧性底线"}}, {"type": "Feature", "geometry": {"type": "Point", "coordinates": [111.28808839446903, 30.716889236325372]}, "properties": {"指标": "存在管线管道破损的住宅数量（栋）", "中类": "市政管网", "board": "安全韧性底线"}}, {"type": "Feature", "geometry": {"type": "Point", "coordinates": [111.29272153548168, 30.72633090033462]}, "properties": {"指标": "存在管线管道破损的住宅数量（栋）", "中类": "市政管网", "board": "安全韧性底线"}}, {"type": "Feature", "geometry": {"type": "Point", "coordinates": [111.28936239180268, 30.692055964660952]}, "properties": {"指标": "存在管线管道破损的住宅数量（栋）", "中类": "市政管网", "board": "安全韧性底线"}}, {"type": "Feature", "geometry": {"type": "Point", "coordinates": [111.2705774310014, 30.719762171132402]}, "properties": {"指标": "存在管线管道破损的住宅数量（栋）", "中类": "市政管网", "board": "安全韧性底线"}}, {"type": "Feature", "geometry": {"type": "Point", "coordinates": [111.29926835018941, 30.70724489695396]}, "properties": {"指标": "存在管线管道破损的住宅数量（栋）", "中类": "市政管网", "board": "安全韧性底线"}}, {"type": "Feature", "geometry": {"type": "Point", "coordinates": [111.27579644428012, 30.72758250628896]}, "properties": {"指标": "存在管线管道破损的住宅数量（栋）", "中类": "市政管网", "board": "安全韧性底线"}}, {"type": "Feature", "geometry": {"type": "Point", "coordinates": [111.29361157585484, 30.724569008298573]}, "properties": {"指标": "存在管线管道破损的住宅数量（栋）", "中类": "市政管网", "board": "安全韧性底线"}}, {"type": "Feature", "geometry": {"type": "Point", "coordinates": [111.27216459818942, 30.718881155667503]}, "properties": {"指标": "存在管线管道破损的住宅数量（栋）", "中类": "市政管网", "board": "安全韧性底线"}}, {"type": "Feature", "geometry": {"type": "Point", "coordinates": [111.29438470787296, 30.725804356232004]}, "properties": {"指标": "存在管线管道破损的住宅数量（栋）", "中类": "市政管网", "board": "安全韧性底线"}}, {"type": "Feature", "geometry": {"type": "Point", "coordinates": [111.29397985105065, 30.725736616948986]}, "properties": {"指标": "存在管线管道破损的住宅数量（栋）", "中类": "市政管网", "board": "安全韧性底线"}}, {"type": "Feature", "geometry": {"type": "Point", "coordinates": [111.27257917762452, 30.719524105983346]}, "properties": {"指标": "存在管线管道破损的住宅数量（栋）", "中类": "市政管网", "board": "安全韧性底线"}}, {"type": "Feature", "geometry": {"type": "Point", "coordinates": [111.27795872279924, 30.714549774243096]}, "properties": {"指标": "存在管线管道破损的住宅数量（栋）", "中类": "市政管网", "board": "安全韧性底线"}}, {"type": "Feature", "geometry": {"type": "Point", "coordinates": [111.28309558065689, 30.723239152060614]}, "properties": {"指标": "存在管线管道破损的住宅数量（栋）", "中类": "市政管网", "board": "安全韧性底线"}}, {"type": "Feature", "geometry": {"type": "Point", "coordinates": [111.35479700968132, 30.65270650878004]}, "properties": {"指标": "存在管线管道破损的住宅数量（栋）", "中类": "市政管网", "board": "安全韧性底线"}}, {"type": "Feature", "geometry": {"type": "Point", "coordinates": [111.2734425897926, 30.723204235373103]}, "properties": {"指标": "存在管线管道破损的住宅数量（栋）", "中类": "市政管网", "board": "安全韧性底线"}}, {"type": "Feature", "geometry": {"type": "Point", "coordinates": [111.28785092892142, 30.718044170140477]}, "properties": {"指标": "存在管线管道破损的住宅数量（栋）", "中类": "市政管网", "board": "安全韧性底线"}}, {"type": "Feature", "geometry": {"type": "Point", "coordinates": [111.30742504355685, 30.704194430131444]}, "properties": {"指标": "存在管线管道破损的住宅数量（栋）", "中类": "市政管网", "board": "安全韧性底线"}}, {"type": "Feature", "geometry": {"type": "Point", "coordinates": [111.29648910865724, 30.727947466566746]}, "properties": {"指标": "存在管线管道破损的住宅数量（栋）", "中类": "市政管网", "board": "安全韧性底线"}}, {"type": "Feature", "geometry": {"type": "Point", "coordinates": [111.28642101857045, 30.72589938414082]}, "properties": {"指标": "存在管线管道破损的住宅数量（栋）", "中类": "市政管网", "board": "安全韧性底线"}}, {"type": "Feature", "geometry": {"type": "Point", "coordinates": [111.31687881417695, 30.692231757163615]}, "properties": {"指标": "存在管线管道破损的住宅数量（栋）", "中类": "市政管网", "board": "安全韧性底线"}}, {"type": "Feature", "geometry": {"type": "Point", "coordinates": [111.28303364610805, 30.701095082313756]}, "properties": {"指标": "存在管线管道破损的住宅数量（栋）", "中类": "市政管网", "board": "安全韧性底线"}}, {"type": "Feature", "geometry": {"type": "Point", "coordinates": [111.31228632496513, 30.689990627456613]}, "properties": {"指标": "存在管线管道破损的住宅数量（栋）", "中类": "市政管网", "board": "安全韧性底线"}}, {"type": "Feature", "geometry": {"type": "Point", "coordinates": [111.32403746802521, 30.66954856425387]}, "properties": {"指标": "存在管线管道破损的住宅数量（栋）", "中类": "市政管网", "board": "安全韧性底线"}}, {"type": "Feature", "geometry": {"type": "Point", "coordinates": [111.35392806588195, 30.652198238647046]}, "properties": {"指标": "存在管线管道破损的住宅数量（栋）", "中类": "市政管网", "board": "安全韧性底线"}}, {"type": "Feature", "geometry": {"type": "Point", "coordinates": [111.29007185229287, 30.715354040108505]}, "properties": {"指标": "存在管线管道破损的住宅数量（栋）", "中类": "市政管网", "board": "安全韧性底线"}}, {"type": "Feature", "geometry": {"type": "Point", "coordinates": [111.32711886139694, 30.714913977251072]}, "properties": {"指标": "存在管线管道破损的住宅数量（栋）", "中类": "市政管网", "board": "安全韧性底线"}}, {"type": "Feature", "geometry": {"type": "Point", "coordinates": [111.2889099338066, 30.69113198671983]}, "properties": {"指标": "存在管线管道破损的住宅数量（栋）", "中类": "市政管网", "board": "安全韧性底线"}}, {"type": "Feature", "geometry": {"type": "Point", "coordinates": [111.30891773129447, 30.704494955944806]}, "properties": {"指标": "存在管线管道破损的住宅数量（栋）", "中类": "市政管网", "board": "安全韧性底线"}}, {"type": "Feature", "geometry": {"type": "Point", "coordinates": [111.27489969697402, 30.72379421733508]}, "properties": {"指标": "存在管线管道破损的住宅数量（栋）", "中类": "市政管网", "board": "安全韧性底线"}}, {"type": "Feature", "geometry": {"type": "Point", "coordinates": [111.33640252652054, 30.72507776399974]}, "properties": {"指标": "存在管线管道破损的住宅数量（栋）", "中类": "市政管网", "board": "安全韧性底线"}}, {"type": "Feature", "geometry": {"type": "Point", "coordinates": [111.27810179321104, 30.71511866833988]}, "properties": {"指标": "存在管线管道破损的住宅数量（栋）", "中类": "市政管网", "board": "安全韧性底线"}}, {"type": "Feature", "geometry": {"type": "Point", "coordinates": [111.2736707408953, 30.72266614564009]}, "properties": {"指标": "存在管线管道破损的住宅数量（栋）", "中类": "市政管网", "board": "安全韧性底线"}}, {"type": "Feature", "geometry": {"type": "Point", "coordinates": [111.28793317397341, 30.71804112677371]}, "properties": {"指标": "存在管线管道破损的住宅数量（栋）", "中类": "市政管网", "board": "安全韧性底线"}}, {"type": "Feature", "geometry": {"type": "Point", "coordinates": [111.29269711241854, 30.726618830826105]}, "properties": {"指标": "存在管线管道破损的住宅数量（栋）", "中类": "市政管网", "board": "安全韧性底线"}}, {"type": "Feature", "geometry": {"type": "Point", "coordinates": [111.28807158568704, 30.69368581680918]}, "properties": {"指标": "存在管线管道破损的住宅数量（栋）", "中类": "市政管网", "board": "安全韧性底线"}}, {"type": "Feature", "geometry": {"type": "Point", "coordinates": [111.29375235803732, 30.72524766615506]}, "properties": {"指标": "存在管线管道破损的住宅数量（栋）", "中类": "市政管网", "board": "安全韧性底线"}}, {"type": "Feature", "geometry": {"type": "Point", "coordinates": [111.2970391759922, 30.727240535571955]}, "properties": {"指标": "存在管线管道破损的住宅数量（栋）", "中类": "市政管网", "board": "安全韧性底线"}}, {"type": "Feature", "geometry": {"type": "Point", "coordinates": [111.27748316344193, 30.726933833125422]}, "properties": {"指标": "存在管线管道破损的住宅数量（栋）", "中类": "市政管网", "board": "安全韧性底线"}}, {"type": "Feature", "geometry": {"type": "Point", "coordinates": [111.2829847370516, 30.723281897627658]}, "properties": {"指标": "存在管线管道破损的住宅数量（栋）", "中类": "市政管网", "board": "安全韧性底线"}}, {"type": "Feature", "geometry": {"type": "Point", "coordinates": [111.2755576507187, 30.72350252458124]}, "properties": {"指标": "存在管线管道破损的住宅数量（栋）", "中类": "市政管网", "board": "安全韧性底线"}}, {"type": "Feature", "geometry": {"type": "Point", "coordinates": [111.31150143085381, 30.688509084299973]}, "properties": {"指标": "存在管线管道破损的住宅数量（栋）", "中类": "市政管网", "board": "安全韧性底线"}}, {"type": "Feature", "geometry": {"type": "Point", "coordinates": [111.28637760063573, 30.71736914284141]}, "properties": {"指标": "存在管线管道破损的住宅数量（栋）", "中类": "市政管网", "board": "安全韧性底线"}}, {"type": "Feature", "geometry": {"type": "Point", "coordinates": [111.3088565790407, 30.703874839345517]}, "properties": {"指标": "存在管线管道破损的住宅数量（栋）", "中类": "市政管网", "board": "安全韧性底线"}}, {"type": "Feature", "geometry": {"type": "Point", "coordinates": [111.29756731463783, 30.730591411212984]}, "properties": {"指标": "存在管线管道破损的住宅数量（栋）", "中类": "市政管网", "board": "安全韧性底线"}}, {"type": "Feature", "geometry": {"type": "Point", "coordinates": [111.29009345121862, 30.71665639038676]}, "properties": {"指标": "存在管线管道破损的住宅数量（栋）", "中类": "市政管网", "board": "安全韧性底线"}}, {"type": "Feature", "geometry": {"type": "Point", "coordinates": [111.28799249963996, 30.716873568290485]}, "properties": {"指标": "存在管线管道破损的住宅数量（栋）", "中类": "市政管网", "board": "安全韧性底线"}}, {"type": "Feature", "geometry": {"type": "Point", "coordinates": [111.28347638089609, 30.723895668976148]}, "properties": {"指标": "存在管线管道破损的住宅数量（栋）", "中类": "市政管网", "board": "安全韧性底线"}}, {"type": "Feature", "geometry": {"type": "Point", "coordinates": [111.28645953495126, 30.717675654923926]}, "properties": {"指标": "存在管线管道破损的住宅数量（栋）", "中类": "市政管网", "board": "安全韧性底线"}}, {"type": "Feature", "geometry": {"type": "Point", "coordinates": [111.30744774287164, 30.704378611957214]}, "properties": {"指标": "存在管线管道破损的住宅数量（栋）", "中类": "市政管网", "board": "安全韧性底线"}}, {"type": "Feature", "geometry": {"type": "Point", "coordinates": [111.2942361097265, 30.697144255296564]}, "properties": {"指标": "存在管线管道破损的住宅数量（栋）", "中类": "市政管网", "board": "安全韧性底线"}}, {"type": "Feature", "geometry": {"type": "Point", "coordinates": [111.30157515032474, 30.706117640815236]}, "properties": {"指标": "存在管线管道破损的住宅数量（栋）", "中类": "市政管网", "board": "安全韧性底线"}}, {"type": "Feature", "geometry": {"type": "Point", "coordinates": [111.29350181055486, 30.725687745511028]}, "properties": {"指标": "存在管线管道破损的住宅数量（栋）", "中类": "市政管网", "board": "安全韧性底线"}}, {"type": "Feature", "geometry": {"type": "Point", "coordinates": [111.28625125583054, 30.71669908684682]}, "properties": {"指标": "存在管线管道破损的住宅数量（栋）", "中类": "市政管网", "board": "安全韧性底线"}}, {"type": "Feature", "geometry": {"type": "Point", "coordinates": [111.27867611534937, 30.704841662887397]}, "properties": {"指标": "存在管线管道破损的住宅数量（栋）", "中类": "市政管网", "board": "安全韧性底线"}}, {"type": "Feature", "geometry": {"type": "Point", "coordinates": [111.29519259313709, 30.732103782108375]}, "properties": {"指标": "存在管线管道破损的住宅数量（栋）", "中类": "市政管网", "board": "安全韧性底线"}}, {"type": "Feature", "geometry": {"type": "Point", "coordinates": [111.27096582329968, 30.717697726793883]}, "properties": {"指标": "存在管线管道破损的住宅数量（栋）", "中类": "市政管网", "board": "安全韧性底线"}}, {"type": "Feature", "geometry": {"type": "Point", "coordinates": [111.29002065157319, 30.716301122284065]}, "properties": {"指标": "存在管线管道破损的住宅数量（栋）", "中类": "市政管网", "board": "安全韧性底线"}}, {"type": "Feature", "geometry": {"type": "Point", "coordinates": [111.31703640002858, 30.69874988460614]}, "properties": {"指标": "存在管线管道破损的住宅数量（栋）", "中类": "市政管网", "board": "安全韧性底线"}}, {"type": "Feature", "geometry": {"type": "Point", "coordinates": [111.29445331713926, 30.729874020758732]}, "properties": {"指标": "存在管线管道破损的住宅数量（栋）", "中类": "市政管网", "board": "安全韧性底线"}}, {"type": "Feature", "geometry": {"type": "Point", "coordinates": [111.28920367536016, 30.724797472774036]}, "properties": {"指标": "存在管线管道破损的住宅数量（栋）", "中类": "市政管网", "board": "安全韧性底线"}}, {"type": "Feature", "geometry": {"type": "Point", "coordinates": [111.29023124660176, 30.714387363899966]}, "properties": {"指标": "存在管线管道破损的住宅数量（栋）", "中类": "市政管网", "board": "安全韧性底线"}}, {"type": "Feature", "geometry": {"type": "Point", "coordinates": [111.28629417941964, 30.7179569992791]}, "properties": {"指标": "存在管线管道破损的住宅数量（栋）", "中类": "市政管网", "board": "安全韧性底线"}}, {"type": "Feature", "geometry": {"type": "Point", "coordinates": [111.2763483642828, 30.72967390055473]}, "properties": {"指标": "存在管线管道破损的住宅数量（栋）", "中类": "市政管网", "board": "安全韧性底线"}}, {"type": "Feature", "geometry": {"type": "Point", "coordinates": [111.29548854641826, 30.727852233312856]}, "properties": {"指标": "存在管线管道破损的住宅数量（栋）", "中类": "市政管网", "board": "安全韧性底线"}}, {"type": "Feature", "geometry": {"type": "Point", "coordinates": [111.30921349884719, 30.707947556867275]}, "properties": {"指标": "存在管线管道破损的住宅数量（栋）", "中类": "市政管网", "board": "安全韧性底线"}}, {"type": "Feature", "geometry": {"type": "Point", "coordinates": [111.29624545656236, 30.73164683354655]}, "properties": {"指标": "存在管线管道破损的住宅数量（栋）", "中类": "市政管网", "board": "安全韧性底线"}}, {"type": "Feature", "geometry": {"type": "Point", "coordinates": [111.28924458793124, 30.724488094427304]}, "properties": {"指标": "存在管线管道破损的住宅数量（栋）", "中类": "市政管网", "board": "安全韧性底线"}}, {"type": "Feature", "geometry": {"type": "Point", "coordinates": [111.2715285221832, 30.7191907909304]}, "properties": {"指标": "存在管线管道破损的住宅数量（栋）", "中类": "市政管网", "board": "安全韧性底线"}}, {"type": "Feature", "geometry": {"type": "Point", "coordinates": [111.29317572409282, 30.72705687227951]}, "properties": {"指标": "存在管线管道破损的住宅数量（栋）", "中类": "市政管网", "board": "安全韧性底线"}}, {"type": "Feature", "geometry": {"type": "Point", "coordinates": [111.29045043569444, 30.714971642379062]}, "properties": {"指标": "存在管线管道破损的住宅数量（栋）", "中类": "市政管网", "board": "安全韧性底线"}}, {"type": "Feature", "geometry": {"type": "Point", "coordinates": [111.29747019705049, 30.730790024291387]}, "properties": {"指标": "存在管线管道破损的住宅数量（栋）", "中类": "市政管网", "board": "安全韧性底线"}}, {"type": "Feature", "geometry": {"type": "Point", "coordinates": [111.30848004987301, 30.704368847419527]}, "properties": {"指标": "存在管线管道破损的住宅数量（栋）", "中类": "市政管网", "board": "安全韧性底线"}}, {"type": "Feature", "geometry": {"type": "Point", "coordinates": [111.2720975258992, 30.719907253926788]}, "properties": {"指标": "存在管线管道破损的住宅数量（栋）", "中类": "市政管网", "board": "安全韧性底线"}}, {"type": "Feature", "geometry": {"type": "Point", "coordinates": [111.29007696742549, 30.71564357522609]}, "properties": {"指标": "存在管线管道破损的住宅数量（栋）", "中类": "市政管网", "board": "安全韧性底线"}}, {"type": "Feature", "geometry": {"type": "Point", "coordinates": [111.27350993621756, 30.7011515061492]}, "properties": {"指标": "存在管线管道破损的住宅数量（栋）", "中类": "市政管网", "board": "安全韧性底线"}}, {"type": "Feature", "geometry": {"type": "Point", "coordinates": [111.31754351502506, 30.69340023059829]}, "properties": {"指标": "存在管线管道破损的住宅数量（栋）", "中类": "市政管网", "board": "安全韧性底线"}}, {"type": "Feature", "geometry": {"type": "Point", "coordinates": [111.30742393688713, 30.70452001056286]}, "properties": {"指标": "存在管线管道破损的住宅数量（栋）", "中类": "市政管网", "board": "安全韧性底线"}}, {"type": "Feature", "geometry": {"type": "Point", "coordinates": [111.29660762676869, 30.73218591392967]}, "properties": {"指标": "存在管线管道破损的住宅数量（栋）", "中类": "市政管网", "board": "安全韧性底线"}}, {"type": "Feature", "geometry": {"type": "Point", "coordinates": [111.27840448766602, 30.71327893183551]}, "properties": {"指标": "存在管线管道破损的住宅数量（栋）", "中类": "市政管网", "board": "安全韧性底线"}}, {"type": "Feature", "geometry": {"type": "Point", "coordinates": [111.35605131642396, 30.653005087951243]}, "properties": {"指标": "存在管线管道破损的住宅数量（栋）", "中类": "市政管网", "board": "安全韧性底线"}}, {"type": "Feature", "geometry": {"type": "Point", "coordinates": [111.28996111537926, 30.715949335566965]}, "properties": {"指标": "存在管线管道破损的住宅数量（栋）", "中类": "市政管网", "board": "安全韧性底线"}}, {"type": "Feature", "geometry": {"type": "Point", "coordinates": [111.29555689456213, 30.731153799046353]}, "properties": {"指标": "存在管线管道破损的住宅数量（栋）", "中类": "市政管网", "board": "安全韧性底线"}}, {"type": "Feature", "geometry": {"type": "Point", "coordinates": [111.30615816004898, 30.707778144240983]}, "properties": {"指标": "存在管线管道破损的住宅数量（栋）", "中类": "市政管网", "board": "安全韧性底线"}}, {"type": "Feature", "geometry": {"type": "Point", "coordinates": [111.31379283774787, 30.673854974377917]}, "properties": {"指标": "存在管线管道破损的住宅数量（栋）", "中类": "市政管网", "board": "安全韧性底线"}}, {"type": "Feature", "geometry": {"type": "Point", "coordinates": [111.30788539692261, 30.703723773515687]}, "properties": {"指标": "存在管线管道破损的住宅数量（栋）", "中类": "市政管网", "board": "安全韧性底线"}}, {"type": "Feature", "geometry": {"type": "Point", "coordinates": [111.30624236116404, 30.709049729187996]}, "properties": {"指标": "存在管线管道破损的住宅数量（栋）", "中类": "市政管网", "board": "安全韧性底线"}}, {"type": "Feature", "geometry": {"type": "Point", "coordinates": [111.28894567702592, 30.702623031949724]}, "properties": {"指标": "存在管线管道破损的住宅数量（栋）", "中类": "市政管网", "board": "安全韧性底线"}}, {"type": "Feature", "geometry": {"type": "Point", "coordinates": [111.28885798330516, 30.691076773133926]}, "properties": {"指标": "存在管线管道破损的住宅数量（栋）", "中类": "市政管网", "board": "安全韧性底线"}}, {"type": "Feature", "geometry": {"type": "Point", "coordinates": [111.2891359037874, 30.730292121279533]}, "properties": {"指标": "存在管线管道破损的住宅数量（栋）", "中类": "市政管网", "board": "安全韧性底线"}}, {"type": "Feature", "geometry": {"type": "Point", "coordinates": [111.2860848290818, 30.716396978765484]}, "properties": {"指标": "存在管线管道破损的住宅数量（栋）", "中类": "市政管网", "board": "安全韧性底线"}}, {"type": "Feature", "geometry": {"type": "Point", "coordinates": [111.30791683996326, 30.704019171503727]}, "properties": {"指标": "存在管线管道破损的住宅数量（栋）", "中类": "市政管网", "board": "安全韧性底线"}}, {"type": "Feature", "geometry": {"type": "Point", "coordinates": [111.29614419914567, 30.69736100614122]}, "properties": {"指标": "存在管线管道破损的住宅数量（栋）", "中类": "市政管网", "board": "安全韧性底线"}}, {"type": "Feature", "geometry": {"type": "Point", "coordinates": [111.27972201397692, 30.71478090697686]}, "properties": {"指标": "存在管线管道破损的住宅数量（栋）", "中类": "市政管网", "board": "安全韧性底线"}}, {"type": "Feature", "geometry": {"type": "Point", "coordinates": [111.28894567702592, 30.702623031949724]}, "properties": {"指标": "存在管线管道破损的住宅数量（栋）", "中类": "市政管网", "board": "安全韧性底线"}}, {"type": "Feature", "geometry": {"type": "Point", "coordinates": [111.32564949066759, 30.71261183841058]}, "properties": {"指标": "存在管线管道破损的住宅数量（栋）", "中类": "市政管网", "board": "安全韧性底线"}}, {"type": "Feature", "geometry": {"type": "Point", "coordinates": [111.27170671765258, 30.719276180750214]}, "properties": {"指标": "存在管线管道破损的住宅数量（栋）", "中类": "市政管网", "board": "安全韧性底线"}}, {"type": "Feature", "geometry": {"type": "Point", "coordinates": [111.28995029282828, 30.70000498912378]}, "properties": {"指标": "存在管线管道破损的住宅数量（栋）", "中类": "市政管网", "board": "安全韧性底线"}}, {"type": "Feature", "geometry": {"type": "Point", "coordinates": [111.30848064871842, 30.703725946733467]}, "properties": {"指标": "存在管线管道破损的住宅数量（栋）", "中类": "市政管网", "board": "安全韧性底线"}}, {"type": "Feature", "geometry": {"type": "Point", "coordinates": [111.29505221810456, 30.73163509687088]}, "properties": {"指标": "存在管线管道破损的住宅数量（栋）", "中类": "市政管网", "board": "安全韧性底线"}}, {"type": "Feature", "geometry": {"type": "Point", "coordinates": [111.29242859048868, 30.697077655049906]}, "properties": {"指标": "存在管线管道破损的住宅数量（栋）", "中类": "市政管网", "board": "安全韧性底线"}}, {"type": "Feature", "geometry": {"type": "Point", "coordinates": [111.29837220923038, 30.73103223588979]}, "properties": {"指标": "存在管线管道破损的住宅数量（栋）", "中类": "市政管网", "board": "安全韧性底线"}}, {"type": "Feature", "geometry": {"type": "Point", "coordinates": [111.29217741612396, 30.726584595027376]}, "properties": {"指标": "存在管线管道破损的住宅数量（栋）", "中类": "市政管网", "board": "安全韧性底线"}}, {"type": "Feature", "geometry": {"type": "Point", "coordinates": [111.30554623018418, 30.71029453186861]}, "properties": {"指标": "存在管线管道破损的住宅数量（栋）", "中类": "市政管网", "board": "安全韧性底线"}}, {"type": "Feature", "geometry": {"type": "Point", "coordinates": [111.29064220867673, 30.71576714329182]}, "properties": {"指标": "存在管线管道破损的住宅数量（栋）", "中类": "市政管网", "board": "安全韧性底线"}}, {"type": "Feature", "geometry": {"type": "Point", "coordinates": [111.2899151172236, 30.70148527324513]}, "properties": {"指标": "存在管线管道破损的住宅数量（栋）", "中类": "市政管网", "board": "安全韧性底线"}}, {"type": "Feature", "geometry": {"type": "Point", "coordinates": [111.29697166599043, 30.732183799075685]}, "properties": {"指标": "存在管线管道破损的住宅数量（栋）", "中类": "市政管网", "board": "安全韧性底线"}}, {"type": "Feature", "geometry": {"type": "Point", "coordinates": [111.2948002869007, 30.729997711023213]}, "properties": {"指标": "存在管线管道破损的住宅数量（栋）", "中类": "市政管网", "board": "安全韧性底线"}}, {"type": "Feature", "geometry": {"type": "Point", "coordinates": [111.29066380816779, 30.715470562711893]}, "properties": {"指标": "存在管线管道破损的住宅数量（栋）", "中类": "市政管网", "board": "安全韧性底线"}}, {"type": "Feature", "geometry": {"type": "Point", "coordinates": [111.30744726859326, 30.70401427483216]}, "properties": {"指标": "存在管线管道破损的住宅数量（栋）", "中类": "市政管网", "board": "安全韧性底线"}}, {"type": "Feature", "geometry": {"type": "Point", "coordinates": [111.28360357828925, 30.694868141898265]}, "properties": {"指标": "存在管线管道破损的住宅数量（栋）", "中类": "市政管网", "board": "安全韧性底线"}}, {"type": "Feature", "geometry": {"type": "Point", "coordinates": [111.28336892994245, 30.723945053740795]}, "properties": {"指标": "存在管线管道破损的住宅数量（栋）", "中类": "市政管网", "board": "安全韧性底线"}}, {"type": "Feature", "geometry": {"type": "Point", "coordinates": [111.32597820705759, 30.71267296904164]}, "properties": {"指标": "存在管线管道破损的住宅数量（栋）", "中类": "市政管网", "board": "安全韧性底线"}}, {"type": "Feature", "geometry": {"type": "Point", "coordinates": [111.27181974053397, 30.720892556944197]}, "properties": {"指标": "存在管线管道破损的住宅数量（栋）", "中类": "市政管网", "board": "安全韧性底线"}}, {"type": "Feature", "geometry": {"type": "Point", "coordinates": [111.35419149919369, 30.652785759002242]}, "properties": {"指标": "存在管线管道破损的住宅数量（栋）", "中类": "市政管网", "board": "安全韧性底线"}}, {"type": "Feature", "geometry": {"type": "Point", "coordinates": [111.27919985746891, 30.71636963642715]}, "properties": {"指标": "存在管线管道破损的住宅数量（栋）", "中类": "市政管网", "board": "安全韧性底线"}}, {"type": "Feature", "geometry": {"type": "Point", "coordinates": [111.31674943683821, 30.731749580559384]}, "properties": {"指标": "存在管线管道破损的住宅数量（栋）", "中类": "市政管网", "board": "安全韧性底线"}}, {"type": "Feature", "geometry": {"type": "Point", "coordinates": [111.28628558302835, 30.716992995590125]}, "properties": {"指标": "存在管线管道破损的住宅数量（栋）", "中类": "市政管网", "board": "安全韧性底线"}}, {"type": "Feature", "geometry": {"type": "Point", "coordinates": [111.29190092422365, 30.70980139266428]}, "properties": {"指标": "存在管线管道破损的住宅数量（栋）", "中类": "市政管网", "board": "安全韧性底线"}}, {"type": "Feature", "geometry": {"type": "Point", "coordinates": [111.29061236813446, 30.715307376299396]}, "properties": {"指标": "存在管线管道破损的住宅数量（栋）", "中类": "市政管网", "board": "安全韧性底线"}}, {"type": "Feature", "geometry": {"type": "Point", "coordinates": [111.29676669234814, 30.729523414350748]}, "properties": {"指标": "存在管线管道破损的住宅数量（栋）", "中类": "市政管网", "board": "安全韧性底线"}}, {"type": "Feature", "geometry": {"type": "Point", "coordinates": [111.29443008267687, 30.73174133472665]}, "properties": {"指标": "存在管线管道破损的住宅数量（栋）", "中类": "市政管网", "board": "安全韧性底线"}}, {"type": "Feature", "geometry": {"type": "Point", "coordinates": [111.29375764367539, 30.72496282962545]}, "properties": {"指标": "存在管线管道破损的住宅数量（栋）", "中类": "市政管网", "board": "安全韧性底线"}}, {"type": "Feature", "geometry": {"type": "Point", "coordinates": [111.30792364530059, 30.704370306174393]}, "properties": {"指标": "存在管线管道破损的住宅数量（栋）", "中类": "市政管网", "board": "安全韧性底线"}}, {"type": "Feature", "geometry": {"type": "Point", "coordinates": [111.3074452694984, 30.703735780980868]}, "properties": {"指标": "存在管线管道破损的住宅数量（栋）", "中类": "市政管网", "board": "安全韧性底线"}}, {"type": "Feature", "geometry": {"type": "Point", "coordinates": [111.29462952830508, 30.691039709188956]}, "properties": {"指标": "存在管线管道破损的住宅数量（栋）", "中类": "市政管网", "board": "安全韧性底线"}}, {"type": "Feature", "geometry": {"type": "Point", "coordinates": [111.32304619210207, 30.670097293158744]}, "properties": {"指标": "存在管线管道破损的住宅数量（栋）", "中类": "市政管网", "board": "安全韧性底线"}}, {"type": "Feature", "geometry": {"type": "Point", "coordinates": [111.29688012898187, 30.728134880281456]}, "properties": {"指标": "存在管线管道破损的住宅数量（栋）", "中类": "市政管网", "board": "安全韧性底线"}}, {"type": "Feature", "geometry": {"type": "Point", "coordinates": [111.29098099515105, 30.691944717387276]}, "properties": {"指标": "存在管线管道破损的住宅数量（栋）", "中类": "市政管网", "board": "安全韧性底线"}}, {"type": "Feature", "geometry": {"type": "Point", "coordinates": [111.30848476764051, 30.704659144779114]}, "properties": {"指标": "存在管线管道破损的住宅数量（栋）", "中类": "市政管网", "board": "安全韧性底线"}}, {"type": "Feature", "geometry": {"type": "Point", "coordinates": [111.29027744386603, 30.71263678257667]}, "properties": {"指标": "存在管线管道破损的住宅数量（栋）", "中类": "市政管网", "board": "安全韧性底线"}}, {"type": "Feature", "geometry": {"type": "Point", "coordinates": [111.28875975070144, 30.69153733924071]}, "properties": {"指标": "存在管线管道破损的住宅数量（栋）", "中类": "市政管网", "board": "安全韧性底线"}}, {"type": "Feature", "geometry": {"type": "Point", "coordinates": [111.27181974053397, 30.720892556944197]}, "properties": {"指标": "存在管线管道破损的住宅数量（栋）", "中类": "市政管网", "board": "安全韧性底线"}}, {"type": "Feature", "geometry": {"type": "Point", "coordinates": [111.2918997782277, 30.717788334139104]}, "properties": {"指标": "存在管线管道破损的住宅数量（栋）", "中类": "市政管网", "board": "安全韧性底线"}}, {"type": "Feature", "geometry": {"type": "Point", "coordinates": [111.29033929347192, 30.71467846022701]}, "properties": {"指标": "存在管线管道破损的住宅数量（栋）", "中类": "市政管网", "board": "安全韧性底线"}}, {"type": "Feature", "geometry": {"type": "Point", "coordinates": [111.29269711241854, 30.726618830826105]}, "properties": {"指标": "存在管线管道破损的住宅数量（栋）", "中类": "市政管网", "board": "安全韧性底线"}}, {"type": "Feature", "geometry": {"type": "Point", "coordinates": [111.27541874598906, 30.72441498600128]}, "properties": {"指标": "存在管线管道破损的住宅数量（栋）", "中类": "市政管网", "board": "安全韧性底线"}}, {"type": "Feature", "geometry": {"type": "Point", "coordinates": [111.29519139908642, 30.73089291287161]}, "properties": {"指标": "存在管线管道破损的住宅数量（栋）", "中类": "市政管网", "board": "安全韧性底线"}}, {"type": "Feature", "geometry": {"type": "Point", "coordinates": [111.2723809584923, 30.720392419164707]}, "properties": {"指标": "存在管线管道破损的住宅数量（栋）", "中类": "市政管网", "board": "安全韧性底线"}}, {"type": "Feature", "geometry": {"type": "Point", "coordinates": [111.27882995378441, 30.714416535034566]}, "properties": {"指标": "存在管线管道破损的住宅数量（栋）", "中类": "市政管网", "board": "安全韧性底线"}}, {"type": "Feature", "geometry": {"type": "Point", "coordinates": [111.29812810057828, 30.730844675697483]}, "properties": {"指标": "存在管线管道破损的住宅数量（栋）", "中类": "市政管网", "board": "安全韧性底线"}}, {"type": "Feature", "geometry": {"type": "Point", "coordinates": [111.28891160756204, 30.70374516860671]}, "properties": {"指标": "存在管线管道破损的住宅数量（栋）", "中类": "市政管网", "board": "安全韧性底线"}}, {"type": "Feature", "geometry": {"type": "Point", "coordinates": [111.29427113942907, 30.725233782032028]}, "properties": {"指标": "存在管线管道破损的住宅数量（栋）", "中类": "市政管网", "board": "安全韧性底线"}}, {"type": "Feature", "geometry": {"type": "Point", "coordinates": [111.290372615893, 30.713110429694286]}, "properties": {"指标": "存在管线管道破损的住宅数量（栋）", "中类": "市政管网", "board": "安全韧性底线"}}, {"type": "Feature", "geometry": {"type": "Point", "coordinates": [111.31185527177001, 30.690026869663356]}, "properties": {"指标": "存在管线管道破损的住宅数量（栋）", "中类": "市政管网", "board": "安全韧性底线"}}, {"type": "Feature", "geometry": {"type": "Point", "coordinates": [111.27794844977473, 30.71352607846973]}, "properties": {"指标": "存在管线管道破损的住宅数量（栋）", "中类": "市政管网", "board": "安全韧性底线"}}, {"type": "Feature", "geometry": {"type": "Point", "coordinates": [111.28970721296126, 30.703476575755126]}, "properties": {"指标": "存在管线管道破损的住宅数量（栋）", "中类": "市政管网", "board": "安全韧性底线"}}, {"type": "Feature", "geometry": {"type": "Point", "coordinates": [111.31323298380795, 30.68993835815459]}, "properties": {"指标": "存在管线管道破损的住宅数量（栋）", "中类": "市政管网", "board": "安全韧性底线"}}, {"type": "Feature", "geometry": {"type": "Point", "coordinates": [111.29168592892161, 30.736522598899988]}, "properties": {"指标": "存在管线管道破损的住宅数量（栋）", "中类": "市政管网", "board": "安全韧性底线"}}, {"type": "Feature", "geometry": {"type": "Point", "coordinates": [111.30847802445685, 30.704018647540178]}, "properties": {"指标": "存在管线管道破损的住宅数量（栋）", "中类": "市政管网", "board": "安全韧性底线"}}, {"type": "Feature", "geometry": {"type": "Point", "coordinates": [111.29625935410098, 30.732131326637578]}, "properties": {"指标": "存在管线管道破损的住宅数量（栋）", "中类": "市政管网", "board": "安全韧性底线"}}, {"type": "Feature", "geometry": {"type": "Point", "coordinates": [111.2883366486305, 30.715334212978327]}, "properties": {"指标": "存在管线管道破损的住宅数量（栋）", "中类": "市政管网", "board": "安全韧性底线"}}, {"type": "Feature", "geometry": {"type": "Point", "coordinates": [111.27884403514182, 30.71471361228518]}, "properties": {"指标": "存在管线管道破损的住宅数量（栋）", "中类": "市政管网", "board": "安全韧性底线"}}, {"type": "Feature", "geometry": {"type": "Point", "coordinates": [111.29458883018529, 30.730110953587733]}, "properties": {"指标": "存在管线管道破损的住宅数量（栋）", "中类": "市政管网", "board": "安全韧性底线"}}, {"type": "Feature", "geometry": {"type": "Point", "coordinates": [111.29569442004022, 30.731670197760227]}, "properties": {"指标": "存在管线管道破损的住宅数量（栋）", "中类": "市政管网", "board": "安全韧性底线"}}, {"type": "Feature", "geometry": {"type": "Point", "coordinates": [111.32330379126948, 30.669369770046938]}, "properties": {"指标": "存在管线管道破损的住宅数量（栋）", "中类": "市政管网", "board": "安全韧性底线"}}, {"type": "Feature", "geometry": {"type": "Point", "coordinates": [111.29324583577343, 30.72665171722983]}, "properties": {"指标": "存在管线管道破损的住宅数量（栋）", "中类": "市政管网", "board": "安全韧性底线"}}, {"type": "Feature", "geometry": {"type": "Point", "coordinates": [111.2928385688599, 30.708344265389282]}, "properties": {"指标": "存在管线管道破损的住宅数量（栋）", "中类": "市政管网", "board": "安全韧性底线"}}, {"type": "Feature", "geometry": {"type": "Point", "coordinates": [111.35396742896211, 30.650955319389983]}, "properties": {"指标": "存在管线管道破损的住宅数量（栋）", "中类": "市政管网", "board": "安全韧性底线"}}, {"type": "Feature", "geometry": {"type": "Point", "coordinates": [111.28894567702592, 30.702623031949724]}, "properties": {"指标": "存在管线管道破损的住宅数量（栋）", "中类": "市政管网", "board": "安全韧性底线"}}, {"type": "Feature", "geometry": {"type": "Point", "coordinates": [111.35386334582617, 30.65127259760095]}, "properties": {"指标": "存在管线管道破损的住宅数量（栋）", "中类": "市政管网", "board": "安全韧性底线"}}, {"type": "Feature", "geometry": {"type": "Point", "coordinates": [111.29594615516521, 30.731943402519597]}, "properties": {"指标": "存在管线管道破损的住宅数量（栋）", "中类": "市政管网", "board": "安全韧性底线"}}, {"type": "Feature", "geometry": {"type": "Point", "coordinates": [111.28798232649542, 30.694919317283304]}, "properties": {"指标": "存在管线管道破损的住宅数量（栋）", "中类": "市政管网", "board": "安全韧性底线"}}, {"type": "Feature", "geometry": {"type": "Point", "coordinates": [111.29640327011651, 30.731422870924696]}, "properties": {"指标": "存在管线管道破损的住宅数量（栋）", "中类": "市政管网", "board": "安全韧性底线"}}, {"type": "Feature", "geometry": {"type": "Point", "coordinates": [111.28324231008418, 30.69481792296049]}, "properties": {"指标": "存在管线管道破损的住宅数量（栋）", "中类": "市政管网", "board": "安全韧性底线"}}, {"type": "Feature", "geometry": {"type": "Point", "coordinates": [111.30892375901396, 30.703891291879437]}, "properties": {"指标": "存在管线管道破损的住宅数量（栋）", "中类": "市政管网", "board": "安全韧性底线"}}, {"type": "Feature", "geometry": {"type": "Point", "coordinates": [111.28275347467269, 30.69378642847232]}, "properties": {"指标": "存在管线管道破损的住宅数量（栋）", "中类": "市政管网", "board": "安全韧性底线"}}, {"type": "Feature", "geometry": {"type": "Point", "coordinates": [111.307896217863, 30.704663894210615]}, "properties": {"指标": "存在管线管道破损的住宅数量（栋）", "中类": "市政管网", "board": "安全韧性底线"}}, {"type": "Feature", "geometry": {"type": "Point", "coordinates": [111.28651202918408, 30.718013753967952]}, "properties": {"指标": "存在管线管道破损的住宅数量（栋）", "中类": "市政管网", "board": "安全韧性底线"}}, {"type": "Feature", "geometry": {"type": "Point", "coordinates": [111.28675129077641, 30.716583645720338]}, "properties": {"指标": "存在管线管道破损的住宅数量（栋）", "中类": "市政管网", "board": "安全韧性底线"}}, {"type": "Feature", "geometry": {"type": "Point", "coordinates": [111.32527927250138, 30.715654307318445]}, "properties": {"指标": "存在管线管道破损的住宅数量（栋）", "中类": "市政管网", "board": "安全韧性底线"}}]}