{
"type": "FeatureCollection",
"name": "checkup_project_project_point",
"crs": { "type": "name", "properties": { "name": "urn:ogc:def:crs:OGC:1.3:CRS84" } },
"features": [
{ "type": "Feature", "properties": { "XMMC": "西陵区城区智慧停车场及配套设施提升项目", "XZQ": "西陵区", "TZE": 11300.0, "MJ": null }, "geometry": { "type": "Point", "coordinates": [ 111.285819591250089, 30.707342680037197 ] } },
{ "type": "Feature", "properties": { "XMMC": "宜昌市西陵区学院片区生活污水管网改扩建项目", "XZQ": "西陵区", "TZE": 12800.0, "MJ": null }, "geometry": { "type": "Point", "coordinates": [ 111.277621100758267, 30.708361300845066 ] } },
{ "type": "Feature", "properties": { "XMMC": "西陵区肖家岗、镇镜山片区城市更新项目", "XZQ": "西陵区", "TZE": 5900.0, "MJ": null }, "geometry": { "type": "Point", "coordinates": [ 111.288609411548748, 30.722121458254477 ] } },
{ "type": "Feature", "properties": { "XMMC": "西陵区学院街道危旧房改造及配套基础设施项目（尚书巷片区）", "XZQ": "西陵区", "TZE": 16600.0, "MJ": null }, "geometry": { "type": "Point", "coordinates": [ 111.273818740574342, 30.708737941699685 ] } },
{ "type": "Feature", "properties": { "XMMC": "西陵区葛洲坝街道危旧房改造及配套基础设施项目（樵湖新区片区）", "XZQ": "西陵区", "TZE": 12200.0, "MJ": null }, "geometry": { "type": "Point", "coordinates": [ 111.285320522628609, 30.724715110276193 ] } },
{ "type": "Feature", "properties": { "XMMC": "西陵区橘颂路片区体育公园健身配套设施建设项目", "XZQ": "西陵区", "TZE": 3300.0, "MJ": null }, "geometry": { "type": "Point", "coordinates": [ 111.296882434084864, 30.732966554484083 ] } },
{ "type": "Feature", "properties": { "XMMC": "肖家岗35#37#、上岗路13号片区原拆原建城市更新项目", "XZQ": "西陵区", "TZE": 14000.0, "MJ": null }, "geometry": { "type": "Point", "coordinates": [ 111.28987882047214, 30.722634898264683 ] } },
{ "type": "Feature", "properties": { "XMMC": "西陵区2026年老旧小区综合改造工程", "XZQ": "西陵区", "TZE": 16700.0, "MJ": null }, "geometry": { "type": "Point", "coordinates": [ 111.28022649389105, 30.70956283329949 ] } },
{ "type": "Feature", "properties": { "XMMC": "西陵区镇镜山片区老旧小区配套基础设施改造工程", "XZQ": "西陵区", "TZE": 10000.0, "MJ": null }, "geometry": { "type": "Point", "coordinates": [ 111.297932693002352, 30.731683382607617 ] } },
{ "type": "Feature", "properties": { "XMMC": "西陵区三岔河片区老旧小区配套基础设施改造工程", "XZQ": "西陵区", "TZE": 13000.0, "MJ": null }, "geometry": { "type": "Point", "coordinates": [ 111.318969058965649, 30.697268606501229 ] } },
{ "type": "Feature", "properties": { "XMMC": "红星路-二马路历史文化街区保护修缮", "XZQ": "西陵区", "TZE": 15000.0, "MJ": null }, "geometry": { "type": "Point", "coordinates": [ 111.282295239654786, 30.69562457163352 ] } },
{ "type": "Feature", "properties": { "XMMC": "西陵区云集街道危旧房改造及配套基础设施项目（公安小区片区）", "XZQ": "西陵区", "TZE": 23500.0, "MJ": null }, "geometry": { "type": "Point", "coordinates": [ 111.288630261483604, 30.696332307964024 ] } },
{ "type": "Feature", "properties": { "XMMC": "宜昌市葛洲坝老旧厂区提升改造工程（丫口片区）", "XZQ": "西陵区", "TZE": 26600.0, "MJ": null }, "geometry": { "type": "Point", "coordinates": [ 111.272693208163162, 30.718038026835032 ] } },
{ "type": "Feature", "properties": { "XMMC": "西陵区黄河路片区老旧街区改造项目", "XZQ": "西陵区", "TZE": 21600.0, "MJ": null }, "geometry": { "type": "Point", "coordinates": [ 111.315602363851582, 30.735932331988764 ] } },
{ "type": "Feature", "properties": { "XMMC": "2025年西陵区群众运动空间更新扩容项目", "XZQ": "西陵区", "TZE": 2100.0, "MJ": null }, "geometry": { "type": "Point", "coordinates": [ 111.302876258592178, 30.699553010317445 ] } },
{ "type": "Feature", "properties": { "XMMC": "曾家湾片区更新", "XZQ": "西陵区", "TZE": 110000.0, "MJ": null }, "geometry": { "type": "Point", "coordinates": [ 111.317741041959124, 30.707273882131062 ] } },
{ "type": "Feature", "properties": { "XMMC": "二中私户片区更新", "XZQ": "西陵区", "TZE": 33000.0, "MJ": null }, "geometry": { "type": "Point", "coordinates": [ 111.295976882002776, 30.712232940982027 ] } },
{ "type": "Feature", "properties": { "XMMC": "肖家岗片区更新", "XZQ": "西陵区", "TZE": 34000.0, "MJ": null }, "geometry": { "type": "Point", "coordinates": [ 111.288999270399145, 30.721439019231624 ] } },
{ "type": "Feature", "properties": { "XMMC": "渣货村片区更新", "XZQ": "西陵区", "TZE": 20000.0, "MJ": null }, "geometry": { "type": "Point", "coordinates": [ 111.338993783311309, 30.735767761261393 ] } },
{ "type": "Feature", "properties": { "XMMC": "伍家岗区城西片区老旧小区改造项目", "XZQ": "伍家岗区", "TZE": 18500.0, "MJ": null }, "geometry": { "type": "Point", "coordinates": [ 111.303510358587374, 30.685547207994173 ] } },
{ "type": "Feature", "properties": { "XMMC": "伍家岗区城东片区老旧小区改造项目", "XZQ": "伍家岗区", "TZE": 20000.0, "MJ": null }, "geometry": { "type": "Point", "coordinates": [ 111.368722455752632, 30.654109604316723 ] } },
{ "type": "Feature", "properties": { "XMMC": "伍家岗区2026年度大公桥街道老旧小区改造项目", "XZQ": "伍家岗区", "TZE": 16500.0, "MJ": null }, "geometry": { "type": "Point", "coordinates": [ 111.288600597853673, 30.692611816033814 ] } },
{ "type": "Feature", "properties": { "XMMC": "伍家岗区2026年度万寿桥街道老旧小区改造项目", "XZQ": "伍家岗区", "TZE": 15700.0, "MJ": null }, "geometry": { "type": "Point", "coordinates": [ 111.302747659346494, 30.686436814830291 ] } },
{ "type": "Feature", "properties": { "XMMC": "伍家岗区2026年度宝塔河街道街道老旧小区改造项目", "XZQ": "伍家岗区", "TZE": 8400.0, "MJ": null }, "geometry": { "type": "Point", "coordinates": [ 111.325721303952903, 30.676423764200521 ] } },
{ "type": "Feature", "properties": { "XMMC": "宜昌市伍家岗区老旧小区除险消危安居工程", "XZQ": "伍家岗区", "TZE": 22100.0, "MJ": null }, "geometry": { "type": "Point", "coordinates": [ 111.322269280724171, 30.685414568845037 ] } },
{ "type": "Feature", "properties": { "XMMC": "宜昌市伍家岗区万寿桥片区老旧小区配套基础设施改造项目", "XZQ": "伍家岗区", "TZE": 14500.0, "MJ": null }, "geometry": { "type": "Point", "coordinates": [ 111.305556213849201, 30.685220874422392 ] } },
{ "type": "Feature", "properties": { "XMMC": "伍家岗区杨岔路片区、合益路片区老旧小区配套基础设施改造工程", "XZQ": "伍家岗区", "TZE": 19500.0, "MJ": null }, "geometry": { "type": "Point", "coordinates": [ 111.311488523820628, 30.677122088739097 ] } },
{ "type": "Feature", "properties": { "XMMC": "伍家岗区杨岔路片区、合益路片区老旧小区配套基础设施改造工程", "XZQ": "伍家岗区", "TZE": 19500.0, "MJ": null }, "geometry": { "type": "Point", "coordinates": [ 111.329403867681165, 30.672593655788774 ] } },
{ "type": "Feature", "properties": { "XMMC": "宜昌市伍家岗区共勤村安置房项目", "XZQ": "伍家岗区", "TZE": 53400.0, "MJ": null }, "geometry": { "type": "Point", "coordinates": [ 111.358493208208742, 30.63936965307991 ] } },
{ "type": "Feature", "properties": { "XMMC": "伍家岗区港务及隆中后岭B、C片区危旧房改造示范项目", "XZQ": "伍家岗区", "TZE": 10200.0, "MJ": null }, "geometry": { "type": "Point", "coordinates": [ 111.305905176107856, 30.683113287351794 ] } },
{ "type": "Feature", "properties": { "XMMC": "伍家岗区港务及隆中后岭B、C片区危旧房改造示范项目", "XZQ": "伍家岗区", "TZE": 10200.0, "MJ": null }, "geometry": { "type": "Point", "coordinates": [ 111.289770281850807, 30.694682406320268 ] } },
{ "type": "Feature", "properties": { "XMMC": "伍家岗区交运片区危旧房改造及配套基础设施项目", "XZQ": "伍家岗区", "TZE": 11800.0, "MJ": null }, "geometry": { "type": "Point", "coordinates": [ 111.307807319872452, 30.684795361821429 ] } },
{ "type": "Feature", "properties": { "XMMC": "伍家岗区包印片区危旧房改造及配套基础设施项目", "XZQ": "伍家岗区", "TZE": 5000.0, "MJ": null }, "geometry": { "type": "Point", "coordinates": [ 111.293691665544259, 30.692706060736242 ] } },
{ "type": "Feature", "properties": { "XMMC": "伍家岗区时运片区危旧房改造及配套基础设施项目", "XZQ": "伍家岗区", "TZE": 7800.0, "MJ": null }, "geometry": { "type": "Point", "coordinates": [ 111.318098540011633, 30.672966588863851 ] } },
{ "type": "Feature", "properties": { "XMMC": "伍家岗区汪家冲片区危旧房改造及配套基础设施项目", "XZQ": "伍家岗区", "TZE": 9200.0, "MJ": null }, "geometry": { "type": "Point", "coordinates": [ 111.354083916687173, 30.651819754527171 ] } },
{ "type": "Feature", "properties": { "XMMC": "伍家岗区隆中后岭A片区危旧房改造工程", "XZQ": "伍家岗区", "TZE": 6000.0, "MJ": null }, "geometry": { "type": "Point", "coordinates": [ 111.288681177236938, 30.693760412788748 ] } },
{ "type": "Feature", "properties": { "XMMC": "宜昌市伍家岗区开关一二片区城市更新项目", "XZQ": "伍家岗区", "TZE": 30000.0, "MJ": null }, "geometry": { "type": "Point", "coordinates": [ 111.328752644781176, 30.663386079919878 ] } },
{ "type": "Feature", "properties": { "XMMC": "宜昌市伍家岗区中心医院片区危旧房改造配套基础设施项目", "XZQ": "伍家岗区", "TZE": 40000.0, "MJ": null }, "geometry": { "type": "Point", "coordinates": [ 111.304033803006533, 30.685357020506956 ] } },
{ "type": "Feature", "properties": { "XMMC": "宜昌市伍家岗区杨岔路片区危旧房改造配套基础设施项目", "XZQ": "伍家岗区", "TZE": 60000.0, "MJ": null }, "geometry": { "type": "Point", "coordinates": [ 111.318143817083239, 30.674584724387852 ] } },
{ "type": "Feature", "properties": { "XMMC": "宜昌市伍家岗区艾家嘴片区危旧房改造配套基础设施项目", "XZQ": "伍家岗区", "TZE": 20000.0, "MJ": null }, "geometry": { "type": "Point", "coordinates": [ 111.337350798851148, 30.661555394755649 ] } },
{ "type": "Feature", "properties": { "XMMC": "宜昌市伍家岗区白沙路片区危旧房改造配套基础设施项目", "XZQ": "伍家岗区", "TZE": 20000.0, "MJ": null }, "geometry": { "type": "Point", "coordinates": [ 111.344751204120001, 30.643881365051509 ] } },
{ "type": "Feature", "properties": { "XMMC": "宜昌市伍家岗区一马路杂居小区危旧房改造配套基础设施项目", "XZQ": "伍家岗区", "TZE": 20000.0, "MJ": null }, "geometry": { "type": "Point", "coordinates": [ 111.286010561485696, 30.692748079708434 ] } },
{ "type": "Feature", "properties": { "XMMC": "城东片区火光村城中村改造项目", "XZQ": "伍家岗区", "TZE": 5900.0, "MJ": null }, "geometry": { "type": "Point", "coordinates": [ 111.34552962706826, 30.657925604269089 ] } },
{ "type": "Feature", "properties": { "XMMC": "东站片区共和村城中村改造项目", "XZQ": "伍家岗区", "TZE": 12800.0, "MJ": null }, "geometry": { "type": "Point", "coordinates": [ 111.3916235419195, 30.649465392097678 ] } },
{ "type": "Feature", "properties": { "XMMC": "城东片区共强村城中村改造项目", "XZQ": "伍家岗区", "TZE": 6700.0, "MJ": null }, "geometry": { "type": "Point", "coordinates": [ 111.368675149117749, 30.654442673297762 ] } },
{ "type": "Feature", "properties": { "XMMC": "东站片区共升村城中村改造项目", "XZQ": "伍家岗区", "TZE": 42200.0, "MJ": null }, "geometry": { "type": "Point", "coordinates": [ 111.397254634945966, 30.649112490914323 ] } },
{ "type": "Feature", "properties": { "XMMC": "城东片区合益村城中村改造项目", "XZQ": "伍家岗区", "TZE": 22300.0, "MJ": null }, "geometry": { "type": "Point", "coordinates": [ 111.327944882197968, 30.67077677159919 ] } },
{ "type": "Feature", "properties": { "XMMC": "宜昌市伍家岗区城东片区徐家坝城中村改造项目", "XZQ": "伍家岗区", "TZE": 22300.0, "MJ": null }, "geometry": { "type": "Point", "coordinates": [ 111.334510246731057, 30.669177495609713 ] } },
{ "type": "Feature", "properties": { "XMMC": "宜昌市伍家岗老工业区文化街区保护提升项目", "XZQ": "伍家岗区", "TZE": 17000.0, "MJ": null }, "geometry": { "type": "Point", "coordinates": [ 111.294510700157389, 30.691801906172707 ] } },
{ "type": "Feature", "properties": { "XMMC": "湖北伍家岗工业园区老旧厂区改造提升项目", "XZQ": "伍家岗区", "TZE": 21000.0, "MJ": null }, "geometry": { "type": "Point", "coordinates": [ 111.391846337773032, 30.647419237271613 ] } },
{ "type": "Feature", "properties": { "XMMC": "湖北伍家岗工业园区拓展片区老旧厂区改造提升项目", "XZQ": "伍家岗区", "TZE": 14000.0, "MJ": null }, "geometry": { "type": "Point", "coordinates": [ 111.396527930260731, 30.653629663959663 ] } },
{ "type": "Feature", "properties": { "XMMC": "湖北伍家岗工业园区花艳片区老旧厂区改造提升项目", "XZQ": "伍家岗区", "TZE": 8000.0, "MJ": null }, "geometry": { "type": "Point", "coordinates": [ 111.378417284258703, 30.676544471057316 ] } },
{ "type": "Feature", "properties": { "XMMC": "宜昌市伍家岗区胜利四路片区老旧街区配套基础设施更新改造项目", "XZQ": "伍家岗区", "TZE": 10000.0, "MJ": null }, "geometry": { "type": "Point", "coordinates": [ 111.292003847946859, 30.69260420963133 ] } },
{ "type": "Feature", "properties": { "XMMC": "宜昌市伍家岗区桔城路片区老旧街区配套基础设施更新改造项目", "XZQ": "伍家岗区", "TZE": 20000.0, "MJ": null }, "geometry": { "type": "Point", "coordinates": [ 111.355738488438973, 30.653213287142762 ] } },
{ "type": "Feature", "properties": { "XMMC": "宜昌市伍家岗区五一广场地下公共空间利用项目", "XZQ": "伍家岗区", "TZE": 120000.0, "MJ": null }, "geometry": { "type": "Point", "coordinates": [ 111.351807840937511, 30.646779756996498 ] } },
{ "type": "Feature", "properties": { "XMMC": "伍家岗区城东片区公共空间提升工程", "XZQ": "伍家岗区", "TZE": 7400.0, "MJ": null }, "geometry": { "type": "Point", "coordinates": [ 111.321649667721715, 30.678664896762658 ] } },
{ "type": "Feature", "properties": { "XMMC": "宜昌市伍家岗区城市新中心公共空间提升工程", "XZQ": "伍家岗区", "TZE": 3800.0, "MJ": null }, "geometry": { "type": "Point", "coordinates": [ 111.403707344690659, 30.663657319261187 ] } },
{ "type": "Feature", "properties": { "XMMC": "点军街道片区老旧小区改造工程", "XZQ": "点军区", "TZE": 3600.0, "MJ": null }, "geometry": { "type": "Point", "coordinates": [ 111.251021924619849, 30.727792194880767 ] } },
{ "type": "Feature", "properties": { "XMMC": "点军街道至喜社区老旧小区改造工程", "XZQ": "点军区", "TZE": 5700.0, "MJ": null }, "geometry": { "type": "Point", "coordinates": [ 111.258555441474442, 30.738131704306834 ] } },
{ "type": "Feature", "properties": { "XMMC": "宜昌市点军区张家坝社区棚户区改造工程", "XZQ": "点军区", "TZE": 5401.0, "MJ": null }, "geometry": { "type": "Point", "coordinates": [ 111.251483831656401, 30.73022978441039 ] } },
{ "type": "Feature", "properties": { "XMMC": "宜昌市点军区红缆社区棚户区改造工程", "XZQ": "点军区", "TZE": 9138.0, "MJ": null }, "geometry": { "type": "Point", "coordinates": [ 111.300262170751992, 30.666460020448625 ] } },
{ "type": "Feature", "properties": { "XMMC": "宜昌市点军区紫阳生活区“三供一业”改造工程", "XZQ": "点军区", "TZE": 3241.0, "MJ": null }, "geometry": { "type": "Point", "coordinates": [ 111.25977152425493, 30.740795234773685 ] } },
{ "type": "Feature", "properties": { "XMMC": "点军塘上龙悦棚户区便民服务设施改造项目", "XZQ": "点军区", "TZE": 2500.0, "MJ": null }, "geometry": { "type": "Point", "coordinates": [ 111.241814003180693, 30.673155906268079 ] } },
{ "type": "Feature", "properties": { "XMMC": "锦绣城南安居工程配套基础设施建设项目", "XZQ": "点军区", "TZE": 23111.0, "MJ": null }, "geometry": { "type": "Point", "coordinates": [ 111.249678952593825, 30.704622939912799 ] } },
{ "type": "Feature", "properties": { "XMMC": "点军区奥体片区城中村基础设施改造工程", "XZQ": "点军区", "TZE": 5480.0, "MJ": null }, "geometry": { "type": "Point", "coordinates": [ 111.222284259322421, 30.698443534329282 ] } },
{ "type": "Feature", "properties": { "XMMC": "点军区五龙片区城中村基础设施改造工程", "XZQ": "点军区", "TZE": 4422.0, "MJ": null }, "geometry": { "type": "Point", "coordinates": [ 111.26222119650042, 30.676466082355077 ] } },
{ "type": "Feature", "properties": { "XMMC": "点军区南站片区城中村基础设施改造工程", "XZQ": "点军区", "TZE": 11290.0, "MJ": null }, "geometry": { "type": "Point", "coordinates": [ 111.224517403591875, 30.678560768171938 ] } },
{ "type": "Feature", "properties": { "XMMC": "点军艾家镇、联棚乡城中村基础设施改造工程", "XZQ": "点军区", "TZE": 2800.0, "MJ": null }, "geometry": { "type": "Point", "coordinates": [ 111.265495500515044, 30.652192179334008 ] } },
{ "type": "Feature", "properties": { "XMMC": "点军区集镇老旧街区改造提升项目", "XZQ": "点军区", "TZE": 12500.0, "MJ": null }, "geometry": { "type": "Point", "coordinates": [ 111.182143789976635, 30.680864611308557 ] } },
{ "type": "Feature", "properties": { "XMMC": "点军区集镇老旧街区改造提升项目", "XZQ": "点军区", "TZE": 12500.0, "MJ": null }, "geometry": { "type": "Point", "coordinates": [ 111.152347424913728, 30.661735754595615 ] } },
{ "type": "Feature", "properties": { "XMMC": "点军区集镇老旧街区改造提升项目", "XZQ": "点军区", "TZE": 12500.0, "MJ": null }, "geometry": { "type": "Point", "coordinates": [ 111.345598408113332, 30.624776931953662 ] } },
{ "type": "Feature", "properties": { "XMMC": "宜昌市点军区710老旧厂区改造工程", "XZQ": "点军区", "TZE": 6614.0, "MJ": null }, "geometry": { "type": "Point", "coordinates": [ 111.271426797017241, 30.664385742987189 ] } },
{ "type": "Feature", "properties": { "XMMC": "宜昌高新区玛瑙河片区供水管网改造项目", "XZQ": "高新区", "TZE": 14600.0, "MJ": null }, "geometry": { "type": "Point", "coordinates": [ 111.576530373001503, 30.416863343035804 ] } },
{ "type": "Feature", "properties": { "XMMC": "宜昌高新区善溪窑片区生活污水厂网一体化项目", "XZQ": "高新区", "TZE": 15500.0, "MJ": null }, "geometry": { "type": "Point", "coordinates": [ 111.470355687886567, 30.471166593769393 ] } },
{ "type": "Feature", "properties": { "XMMC": "宜昌高新区赵家铺片区供排水管网改造一体化项目", "XZQ": "高新区", "TZE": 6000.0, "MJ": null }, "geometry": { "type": "Point", "coordinates": [ 111.538046863067436, 30.423284131151629 ] } },
{ "type": "Feature", "properties": { "XMMC": "宜昌高新区科创片区地下管网改造项目", "XZQ": "高新区", "TZE": 15000.0, "MJ": null }, "geometry": { "type": "Point", "coordinates": [ 111.487899232185626, 30.446584138167005 ] } },
{ "type": "Feature", "properties": { "XMMC": "宜昌高新区雅畈片区生活污水厂网一体化项目", "XZQ": "高新区", "TZE": 16500.0, "MJ": null }, "geometry": { "type": "Point", "coordinates": [ 111.578504266876209, 30.404691911752725 ] } },
{ "type": "Feature", "properties": { "XMMC": "宜昌市夷陵区老城片区老旧小区改造项目", "XZQ": "夷陵区", "TZE": 8800.0, "MJ": null }, "geometry": { "type": "Point", "coordinates": [ 111.318060671434139, 30.770459639686965 ] } },
{ "type": "Feature", "properties": { "XMMC": "夷陵区2027年老旧小区改造项目", "XZQ": "夷陵区", "TZE": 10000.0, "MJ": null }, "geometry": { "type": "Point", "coordinates": [ 111.300288593197635, 30.76696903522198 ] } },
{ "type": "Feature", "properties": { "XMMC": "夷陵区2027年老旧小区改造项目", "XZQ": "夷陵区", "TZE": 10000.0, "MJ": null }, "geometry": { "type": "Point", "coordinates": [ 111.302191742984078, 30.763891943261871 ] } },
{ "type": "Feature", "properties": { "XMMC": "夷陵区2027年老旧小区改造项目", "XZQ": "夷陵区", "TZE": 10000.0, "MJ": null }, "geometry": { "type": "Point", "coordinates": [ 111.297616011259819, 30.772093294709975 ] } },
{ "type": "Feature", "properties": { "XMMC": "夷陵区2027年老旧小区改造项目", "XZQ": "夷陵区", "TZE": 10000.0, "MJ": null }, "geometry": { "type": "Point", "coordinates": [ 111.309658231779451, 30.758688934732035 ] } },
{ "type": "Feature", "properties": { "XMMC": "夷陵区2028年老旧小区改造项目", "XZQ": "夷陵区", "TZE": 12000.0, "MJ": null }, "geometry": { "type": "Point", "coordinates": [ 111.315646401733403, 30.769584386656163 ] } },
{ "type": "Feature", "properties": { "XMMC": "夷陵区2028年老旧小区改造项目", "XZQ": "夷陵区", "TZE": 12000.0, "MJ": null }, "geometry": { "type": "Point", "coordinates": [ 111.33269655316235, 30.778969732423278 ] } },
{ "type": "Feature", "properties": { "XMMC": "夷陵区2028年老旧小区改造项目", "XZQ": "夷陵区", "TZE": 12000.0, "MJ": null }, "geometry": { "type": "Point", "coordinates": [ 111.32451916973514, 30.774404539562887 ] } },
{ "type": "Feature", "properties": { "XMMC": "夷陵区2028年老旧小区改造项目", "XZQ": "夷陵区", "TZE": 12000.0, "MJ": null }, "geometry": { "type": "Point", "coordinates": [ 111.322445952060136, 30.76995955016837 ] } },
{ "type": "Feature", "properties": { "XMMC": "夷陵区2029年老旧小区改造项目", "XZQ": "夷陵区", "TZE": 12000.0, "MJ": null }, "geometry": { "type": "Point", "coordinates": [ 111.291836524663083, 30.76375359336193 ] } },
{ "type": "Feature", "properties": { "XMMC": "夷陵区2029年老旧小区改造项目", "XZQ": "夷陵区", "TZE": 12000.0, "MJ": null }, "geometry": { "type": "Point", "coordinates": [ 111.313233001738908, 30.779358338589518 ] } },
{ "type": "Feature", "properties": { "XMMC": "夷陵区2029年老旧小区改造项目", "XZQ": "夷陵区", "TZE": 12000.0, "MJ": null }, "geometry": { "type": "Point", "coordinates": [ 111.324775566569159, 30.780372436389648 ] } },
{ "type": "Feature", "properties": { "XMMC": "夷陵区2029年老旧小区改造项目", "XZQ": "夷陵区", "TZE": 12000.0, "MJ": null }, "geometry": { "type": "Point", "coordinates": [ 111.324008749527223, 30.780650555223541 ] } },
{ "type": "Feature", "properties": { "XMMC": "夷陵区东湖社区物资局宿舍地块危旧房改造项目", "XZQ": "夷陵区", "TZE": 14000.0, "MJ": null }, "geometry": { "type": "Point", "coordinates": [ 111.325636404600885, 30.771083294393879 ] } },
{ "type": "Feature", "properties": { "XMMC": "夷陵区老二二小区片区危旧房改造项目", "XZQ": "夷陵区", "TZE": 15000.0, "MJ": null }, "geometry": { "type": "Point", "coordinates": [ 111.293223854840775, 30.764931282528259 ] } },
{ "type": "Feature", "properties": { "XMMC": "夷陵区平湖片区老旧小区配套基础设施改造项目", "XZQ": "夷陵区", "TZE": 16200.0, "MJ": null }, "geometry": { "type": "Point", "coordinates": [ 111.274756624529417, 30.764172785331276 ] } },
{ "type": "Feature", "properties": { "XMMC": "宜昌市夷陵区体育场片区老旧小区改造项目", "XZQ": "夷陵区", "TZE": 13100.0, "MJ": null }, "geometry": { "type": "Point", "coordinates": [ 111.324514274975044, 30.778771125666751 ] } },
{ "type": "Feature", "properties": { "XMMC": "宜昌市夷陵区丁家坝片区老旧小区改造项目", "XZQ": "夷陵区", "TZE": 7300.0, "MJ": null }, "geometry": { "type": "Point", "coordinates": [ 111.31241836997286, 30.777519258204183 ] } },
{ "type": "Feature", "properties": { "XMMC": "夷陵区城区老旧小区供水能力改造提升工程", "XZQ": "夷陵区", "TZE": 32100.0, "MJ": null }, "geometry": { "type": "Point", "coordinates": [ 111.326578817995426, 30.778066703693199 ] } },
{ "type": "Feature", "properties": { "XMMC": "宜昌市夷陵区龙泉片区供水管网完善工程", "XZQ": "夷陵区", "TZE": 25200.0, "MJ": null }, "geometry": { "type": "Point", "coordinates": [ 111.427679761910596, 30.750631653292263 ] } },
{ "type": "Feature", "properties": { "XMMC": "宜昌市夷陵区城区供水管网完善工程", "XZQ": "夷陵区", "TZE": 16800.0, "MJ": null }, "geometry": { "type": "Point", "coordinates": [ 111.586112235433049, 30.569610200442728 ] } },
{ "type": "Feature", "properties": { "XMMC": "宜昌市夷陵区城区供水管网完善工程", "XZQ": "夷陵区", "TZE": 16800.0, "MJ": null }, "geometry": { "type": "Point", "coordinates": [ 111.29721507913132, 30.768451393779713 ] } },
{ "type": "Feature", "properties": { "XMMC": "宜昌市夷陵区城区供水管网完善工程", "XZQ": "夷陵区", "TZE": 16800.0, "MJ": null }, "geometry": { "type": "Point", "coordinates": [ 111.298232241474892, 30.774680165223238 ] } },
{ "type": "Feature", "properties": { "XMMC": "夷陵区水厂及泵站设备更新工程", "XZQ": "夷陵区", "TZE": 10800.0, "MJ": null }, "geometry": { "type": "Point", "coordinates": [ 111.431963662698848, 30.792925237568678 ] } },
{ "type": "Feature", "properties": { "XMMC": "夷陵区官庄水厂及配套管网工程二期", "XZQ": "夷陵区", "TZE": 17300.0, "MJ": null }, "geometry": { "type": "Point", "coordinates": [ 111.431668723969338, 30.7935146038004 ] } },
{ "type": "Feature", "properties": { "XMMC": "宜昌市夷陵区城区燃气中压管道补短板项目", "XZQ": "夷陵区", "TZE": 24800.0, "MJ": null }, "geometry": { "type": "Point", "coordinates": [ 111.320817346246727, 30.774315863703702 ] } },
{ "type": "Feature", "properties": { "XMMC": "宜昌市夷陵区龙泉组团燃气主管网补短板项目", "XZQ": "夷陵区", "TZE": 5300.0, "MJ": null }, "geometry": { "type": "Point", "coordinates": [ 111.485995753947691, 30.726907852736723 ] } },
{ "type": "Feature", "properties": { "XMMC": "宜昌市夷陵区龙泉组团燃气主管网补短板项目", "XZQ": "夷陵区", "TZE": 5300.0, "MJ": null }, "geometry": { "type": "Point", "coordinates": [ 111.586605043844187, 30.644644767381028 ] } },
{ "type": "Feature", "properties": { "XMMC": "宜昌市夷陵区居民用户燃气瓶改管及燃气安全装置安装工程项目", "XZQ": "夷陵区", "TZE": 18400.0, "MJ": null }, "geometry": { "type": "Point", "coordinates": [ 111.316427961944811, 30.771098687256803 ] } },
{ "type": "Feature", "properties": { "XMMC": "宜昌市夷陵区居民用户燃气瓶改管及燃气安全装置安装工程项目", "XZQ": "夷陵区", "TZE": 18400.0, "MJ": null }, "geometry": { "type": "Point", "coordinates": [ 111.487335382295797, 30.728632478786505 ] } },
{ "type": "Feature", "properties": { "XMMC": "宜昌市夷陵区居民用户燃气瓶改管及燃气安全装置安装工程项目", "XZQ": "夷陵区", "TZE": 18400.0, "MJ": null }, "geometry": { "type": "Point", "coordinates": [ 111.589974219876211, 30.645540299711644 ] } },
{ "type": "Feature", "properties": { "XMMC": "夷陵区小溪塔片区污水管网及设施设备改造项目", "XZQ": "夷陵区", "TZE": 15100.0, "MJ": null }, "geometry": { "type": "Point", "coordinates": [ 111.317226079673475, 30.772010872353643 ] } },
{ "type": "Feature", "properties": { "XMMC": "宜昌市夷陵城区污水综合治理项目", "XZQ": "夷陵区", "TZE": 36700.0, "MJ": null }, "geometry": { "type": "Point", "coordinates": [ 111.300996037417121, 30.778425907118923 ] } },
{ "type": "Feature", "properties": { "XMMC": "夷陵区郭家湾片区沿江厂网一体化项目", "XZQ": "夷陵区", "TZE": 13700.0, "MJ": null }, "geometry": { "type": "Point", "coordinates": [ 111.357060881074446, 30.801893371094152 ] } },
{ "type": "Feature", "properties": { "XMMC": "夷陵区开发区污水处理厂扩容及配套管网工程", "XZQ": "夷陵区", "TZE": 19200.0, "MJ": null }, "geometry": { "type": "Point", "coordinates": [ 111.452488701877769, 30.688838120239346 ] } },
{ "type": "Feature", "properties": { "XMMC": "夷陵区城区污水管网及配套设施补短板工程（一期）", "XZQ": "夷陵区", "TZE": 18700.0, "MJ": null }, "geometry": { "type": "Point", "coordinates": [ 111.348808241317826, 30.751107865382735 ] } },
{ "type": "Feature", "properties": { "XMMC": "夷陵区城区污水管网及配套设施补短板工程（一期）", "XZQ": "夷陵区", "TZE": 18700.0, "MJ": null }, "geometry": { "type": "Point", "coordinates": [ 111.38641840367228, 30.672308619759956 ] } },
{ "type": "Feature", "properties": { "XMMC": "夷陵区城区污水管网及配套设施补短板工程（一期）", "XZQ": "夷陵区", "TZE": 18700.0, "MJ": null }, "geometry": { "type": "Point", "coordinates": [ 111.354741604806975, 30.79425726805421 ] } },
{ "type": "Feature", "properties": { "XMMC": "夷陵区城区污水管网及配套设施补短板工程（一期）", "XZQ": "夷陵区", "TZE": 18700.0, "MJ": null }, "geometry": { "type": "Point", "coordinates": [ 111.585956073588292, 30.592975099760622 ] } },
{ "type": "Feature", "properties": { "XMMC": "夷陵区城区污水管网及配套设施补短板工程（一期）", "XZQ": "夷陵区", "TZE": 18700.0, "MJ": null }, "geometry": { "type": "Point", "coordinates": [ 111.393151165378896, 30.762758546541839 ] } },
{ "type": "Feature", "properties": { "XMMC": "夷陵区城区污水管网及配套设施补短板工程（二期）", "XZQ": "夷陵区", "TZE": 24000.0, "MJ": null }, "geometry": { "type": "Point", "coordinates": [ 111.428610218772334, 30.753901532916792 ] } },
{ "type": "Feature", "properties": { "XMMC": "夷陵区城区污水管网及配套设施补短板工程（二期）", "XZQ": "夷陵区", "TZE": 24000.0, "MJ": null }, "geometry": { "type": "Point", "coordinates": [ 111.275730351822688, 30.767571540610113 ] } },
{ "type": "Feature", "properties": { "XMMC": "夷陵区城区污水管网及配套设施补短板工程（二期）", "XZQ": "夷陵区", "TZE": 24000.0, "MJ": null }, "geometry": { "type": "Point", "coordinates": [ 111.461476853990945, 30.694671098416574 ] } },
{ "type": "Feature", "properties": { "XMMC": "夷陵区城区污水管网及配套设施补短板工程（二期）", "XZQ": "夷陵区", "TZE": 24000.0, "MJ": null }, "geometry": { "type": "Point", "coordinates": [ 111.588954080114888, 30.643186659473344 ] } },
{ "type": "Feature", "properties": { "XMMC": "宜昌市夷陵区城区管网混错接整治及缺陷修复工程", "XZQ": "夷陵区", "TZE": 12400.0, "MJ": null }, "geometry": { "type": "Point", "coordinates": [ 111.324816271620165, 30.773108429015906 ] } },
{ "type": "Feature", "properties": { "XMMC": "宜昌高铁北站片区综合管网建设项目（小鸦路片区排水防涝与供水管网设施更新改造项目）", "XZQ": "夷陵区", "TZE": 33900.0, "MJ": null }, "geometry": { "type": "Point", "coordinates": [ 111.472168384271143, 30.732423541919633 ] } },
{ "type": "Feature", "properties": { "XMMC": "宜昌高铁北站片区综合管网建设项目（小鸦路片区排水防涝与供水管网设施更新改造项目）", "XZQ": "夷陵区", "TZE": 33900.0, "MJ": null }, "geometry": { "type": "Point", "coordinates": [ 111.464495347761385, 30.695434577522001 ] } },
{ "type": "Feature", "properties": { "XMMC": "宜昌市夷陵区城区内涝点治理项目", "XZQ": "夷陵区", "TZE": 13300.0, "MJ": null }, "geometry": { "type": "Point", "coordinates": [ 111.328059242392285, 30.785301408088987 ] } },
{ "type": "Feature", "properties": { "XMMC": "宜昌市夷陵区锦江片区排涝主通道建设项目", "XZQ": "夷陵区", "TZE": 14600.0, "MJ": null }, "geometry": { "type": "Point", "coordinates": [ 111.344328214115677, 30.741728682238136 ] } },
{ "type": "Feature", "properties": { "XMMC": "宜昌市夷陵区龙泉片区排水防涝项目", "XZQ": "夷陵区", "TZE": 15300.0, "MJ": null }, "geometry": { "type": "Point", "coordinates": [ 111.483565527193875, 30.723912502927927 ] } },
{ "type": "Feature", "properties": { "XMMC": "宜昌市夷陵区城区排涝综合治理项目", "XZQ": "夷陵区", "TZE": 16300.0, "MJ": null }, "geometry": { "type": "Point", "coordinates": [ 111.320224679889023, 30.768981909373291 ] } },
{ "type": "Feature", "properties": { "XMMC": "宜昌市夷陵区东城片区排水防涝地下管网工程", "XZQ": "夷陵区", "TZE": 12600.0, "MJ": null }, "geometry": { "type": "Point", "coordinates": [ 111.332853628342036, 30.752889990290068 ] } },
{ "type": "Feature", "properties": { "XMMC": "宜昌市夷陵区排水防涝设施改造工程", "XZQ": "夷陵区", "TZE": 11300.0, "MJ": null }, "geometry": { "type": "Point", "coordinates": [ 111.329953543738128, 30.781249643289367 ] } },
{ "type": "Feature", "properties": { "XMMC": "夷陵区葛洲坝至三峡大坝沿江片区排水防涝补短板工程", "XZQ": "夷陵区", "TZE": 20100.0, "MJ": null }, "geometry": { "type": "Point", "coordinates": [ 111.294675051331225, 30.770281316013385 ] } },
{ "type": "Feature", "properties": { "XMMC": "宜昌市夷陵区城区排水泵站及配套设施建设项目", "XZQ": "夷陵区", "TZE": 12700.0, "MJ": null }, "geometry": { "type": "Point", "coordinates": [ 111.320924569514688, 30.772229761968404 ] } },
{ "type": "Feature", "properties": { "XMMC": "宜昌市（夷陵区）城市生命线工程排水智慧化监测网建设工程", "XZQ": "夷陵区", "TZE": 13000.0, "MJ": null }, "geometry": { "type": "Point", "coordinates": [ 111.322376473965818, 30.773568908590985 ] } },
{ "type": "Feature", "properties": { "XMMC": "夷陵区马兰坡地质小区改造提升项目", "XZQ": "夷陵区", "TZE": 1500.0, "MJ": null }, "geometry": { "type": "Point", "coordinates": [ 111.314843773256896, 30.771217509946919 ] } },
{ "type": "Feature", "properties": { "XMMC": "宜昌市三峡移民片区公共空间提升项目", "XZQ": "夷陵区", "TZE": 12000.0, "MJ": null }, "geometry": { "type": "Point", "coordinates": [ 111.289770894018375, 30.740021742707579 ] } },
{ "type": "Feature", "properties": { "XMMC": "宜昌市夷陵区原国营612老旧厂区改造及基础设施提升工程", "XZQ": "夷陵区", "TZE": 11000.0, "MJ": null }, "geometry": { "type": "Point", "coordinates": [ 111.361714627466895, 30.817174514834687 ] } },
{ "type": "Feature", "properties": { "XMMC": "宜昌市东湖片区老旧街区配套基础设施改造提升项目", "XZQ": "夷陵区", "TZE": 8300.0, "MJ": null }, "geometry": { "type": "Point", "coordinates": [ 111.318550206147123, 30.772563952329545 ] } },
{ "type": "Feature", "properties": { "XMMC": "宜昌市平湖片区老旧街区配套基础设施改造提升项目", "XZQ": "夷陵区", "TZE": 20000.0, "MJ": null }, "geometry": { "type": "Point", "coordinates": [ 111.323095372009973, 30.778781592365874 ] } },
{ "type": "Feature", "properties": { "XMMC": "宜昌市夷兴五巷片区老旧街区配套基础设施改造提升项目", "XZQ": "夷陵区", "TZE": 9000.0, "MJ": null }, "geometry": { "type": "Point", "coordinates": [ 111.322269970148369, 30.772942999005277 ] } },
{ "type": "Feature", "properties": { "XMMC": "宜昌市鄢家河片区老旧街区配套基础设施改造提升项目", "XZQ": "夷陵区", "TZE": 40000.0, "MJ": null }, "geometry": { "type": "Point", "coordinates": [ 111.355980736777965, 30.799353697068039 ] } },
{ "type": "Feature", "properties": { "XMMC": "宜昌市丁家坝片区老旧街区配套基础设施改造提升项目", "XZQ": "夷陵区", "TZE": 45600.0, "MJ": null }, "geometry": { "type": "Point", "coordinates": [ 111.310978888662916, 30.779206636128084 ] } },
{ "type": "Feature", "properties": { "XMMC": "宜昌市张家湾片区老旧街区配套基础设施改造提升项目", "XZQ": "夷陵区", "TZE": 19300.0, "MJ": null }, "geometry": { "type": "Point", "coordinates": [ 111.355419797963108, 30.800027315175843 ] } },
{ "type": "Feature", "properties": { "XMMC": "宜昌市峡江片区老旧街区配套基础设施改造提升项目", "XZQ": "夷陵区", "TZE": 25300.0, "MJ": null }, "geometry": { "type": "Point", "coordinates": [ 111.293636533493412, 30.775891885611941 ] } },
{ "type": "Feature", "properties": { "XMMC": "三峡移民老城片区(杜家巷)综合开发项目", "XZQ": "夷陵区", "TZE": 80000.0, "MJ": null }, "geometry": { "type": "Point", "coordinates": [ 111.325819590349653, 30.766068230990715 ] } },
{ "type": "Feature", "properties": { "XMMC": "夷陵区老水厂片区基础设施更新改造项目", "XZQ": "夷陵区", "TZE": 12000.0, "MJ": null }, "geometry": { "type": "Point", "coordinates": [ 111.324617909370133, 30.780976730139102 ] } },
{ "type": "Feature", "properties": { "XMMC": "夷陵区峡江片区城市更新改造项目", "XZQ": "夷陵区", "TZE": 14000.0, "MJ": null }, "geometry": { "type": "Point", "coordinates": [ 111.298141838904101, 30.772264539778902 ] } },
{ "type": "Feature", "properties": { "XMMC": "三峡移民老城片区(纺织厂)提质升级项目", "XZQ": "夷陵区", "TZE": 60000.0, "MJ": null }, "geometry": { "type": "Point", "coordinates": [ 111.322346762175798, 30.778249957960867 ] } },
{ "type": "Feature", "properties": { "XMMC": "夷陵区黄柏河湿地提质升级项目", "XZQ": "夷陵区", "TZE": 10000.0, "MJ": null }, "geometry": { "type": "Point", "coordinates": [ 111.353830193468795, 30.83569866653632 ] } },
{ "type": "Feature", "properties": { "XMMC": "夷陵区蔡家河片区城市更新改造项目", "XZQ": "夷陵区", "TZE": 1100.0, "MJ": null }, "geometry": { "type": "Point", "coordinates": [ 111.326644965549193, 30.790636352747441 ] } },
{ "type": "Feature", "properties": { "XMMC": "809微度假小镇客房餐厅建筑改造项目", "XZQ": "夷陵区", "TZE": 1000.0, "MJ": null }, "geometry": { "type": "Point", "coordinates": [ 111.258611308351462, 30.803601697045735 ] } },
{ "type": "Feature", "properties": { "XMMC": "宜昌市猇亭区2026年老旧小区改造工程", "XZQ": "猇亭区", "TZE": 7169.22, "MJ": null }, "geometry": { "type": "Point", "coordinates": [ 111.426241239464417, 30.53355755333731 ] } },
{ "type": "Feature", "properties": { "XMMC": "宜昌市猇亭区2026年老旧小区改造工程", "XZQ": "猇亭区", "TZE": 7169.22, "MJ": null }, "geometry": { "type": "Point", "coordinates": [ 111.417941355966775, 30.535069751026235 ] } },
{ "type": "Feature", "properties": { "XMMC": "宜昌市猇亭区2026年老旧小区改造工程", "XZQ": "猇亭区", "TZE": 7169.22, "MJ": null }, "geometry": { "type": "Point", "coordinates": [ 111.425564876247137, 30.53900062021523 ] } },
{ "type": "Feature", "properties": { "XMMC": "宜昌市猇亭区2026年老旧小区改造工程", "XZQ": "猇亭区", "TZE": 7169.22, "MJ": null }, "geometry": { "type": "Point", "coordinates": [ 111.428645337355576, 30.546322283842994 ] } },
{ "type": "Feature", "properties": { "XMMC": "宜昌市猇亭区2026年老旧小区改造工程", "XZQ": "猇亭区", "TZE": 7169.22, "MJ": null }, "geometry": { "type": "Point", "coordinates": [ 111.425581938658965, 30.529468330644075 ] } },
{ "type": "Feature", "properties": { "XMMC": "宜昌市猇亭区中心片区城市危旧房改造项目", "XZQ": "猇亭区", "TZE": 3823.19, "MJ": null }, "geometry": { "type": "Point", "coordinates": [ 111.420978882186247, 30.53391958185555 ] } },
{ "type": "Feature", "properties": { "XMMC": "宜昌市猇亭区中心城区公共空间改造利用提升项目", "XZQ": "猇亭区", "TZE": 4381.7, "MJ": null }, "geometry": { "type": "Point", "coordinates": [ 111.420820165554801, 30.529297337475207 ] } },
{ "type": "Feature", "properties": { "XMMC": "宜昌市猇亭区七里冲片区、金岭片区老旧小区更新改造项目", "XZQ": "猇亭区", "TZE": 16297.96, "MJ": null }, "geometry": { "type": "Point", "coordinates": [ 111.445446938130985, 30.542843068431424 ] } },
{ "type": "Feature", "properties": { "XMMC": "宜昌市猇亭区七里冲片区、金岭片区老旧小区更新改造项目", "XZQ": "猇亭区", "TZE": 16297.96, "MJ": null }, "geometry": { "type": "Point", "coordinates": [ 111.436182008243478, 30.546120101178829 ] } },
{ "type": "Feature", "properties": { "XMMC": "宜昌市猇亭区七里冲片区、金岭片区老旧小区更新改造项目", "XZQ": "猇亭区", "TZE": 16297.96, "MJ": null }, "geometry": { "type": "Point", "coordinates": [ 111.428519959575354, 30.522771631282847 ] } },
{ "type": "Feature", "properties": { "XMMC": "猇亭区污水处理厂升级改造项目", "XZQ": "猇亭区", "TZE": 26174.0, "MJ": null }, "geometry": { "type": "Point", "coordinates": [ 111.432133143020323, 30.507439221739244 ] } },
{ "type": "Feature", "properties": { "XMMC": "猇亭化工园北部片区污水管架工程", "XZQ": "猇亭区", "TZE": 17548.0, "MJ": null }, "geometry": { "type": "Point", "coordinates": [ 111.439408801507767, 30.515254198317116 ] } },
{ "type": "Feature", "properties": { "XMMC": "织布街历史建筑修缮项目", "XZQ": "猇亭区", "TZE": 15000.0, "MJ": null }, "geometry": { "type": "Point", "coordinates": [ 111.411346437181166, 30.533370443390901 ] } },
{ "type": "Feature", "properties": { "XMMC": "宜昌市猇亭区鑫和乐片区老旧厂区更新改造项目", "XZQ": "猇亭区", "TZE": 12000.11, "MJ": null }, "geometry": { "type": "Point", "coordinates": [ 111.443907483171699, 30.526095365938218 ] } },
{ "type": "Feature", "properties": { "XMMC": "宜昌市猇亭区九天环保老旧厂区更新改造项", "XZQ": "猇亭区", "TZE": 5200.07, "MJ": null }, "geometry": { "type": "Point", "coordinates": [ 111.428978406736221, 30.528852365901873 ] } },
{ "type": "Feature", "properties": { "XMMC": "宜昌市猇亭区电商产业园片区老旧厂区更新改造项目", "XZQ": "猇亭区", "TZE": 5889.48, "MJ": null }, "geometry": { "type": "Point", "coordinates": [ 111.427955284099269, 30.543661041172559 ] } },
{ "type": "Feature", "properties": { "XMMC": "宜昌市猇亭区织布街、柳新片区老旧街区提质改造工程", "XZQ": "猇亭区", "TZE": 5148.11, "MJ": null }, "geometry": { "type": "Point", "coordinates": [ 111.412310228060477, 30.533555867420912 ] } },
{ "type": "Feature", "properties": { "XMMC": "宜昌市猇亭区临空经济区排水系统综合治理提升工程", "XZQ": "猇亭区", "TZE": 10850.0, "MJ": null }, "geometry": { "type": "Point", "coordinates": [ 111.477924000603778, 30.551395782325262 ] } },
{ "type": "Feature", "properties": { "XMMC": "宜昌市猇亭区机场片区生活污水厂网一体化效能提升工程", "XZQ": "猇亭区", "TZE": 11050.0, "MJ": null }, "geometry": { "type": "Point", "coordinates": [ 111.476149304637687, 30.553241788131544 ] } },
{ "type": "Feature", "properties": { "XMMC": "宜昌市猇亭区污水管网修复项目", "XZQ": "猇亭区", "TZE": 15500.0, "MJ": null }, "geometry": { "type": "Point", "coordinates": [ 111.422335339734502, 30.531836992143067 ] } },
{ "type": "Feature", "properties": { "XMMC": "猇亭区工业园区排水管网智能监控系统安装工程", "XZQ": "猇亭区", "TZE": 8000.0, "MJ": null }, "geometry": { "type": "Point", "coordinates": [ 111.427164712559701, 30.515478533667373 ] } },
{ "type": "Feature", "properties": { "XMMC": "猇亭区厂站及老旧小区二供泵房设备更新工程", "XZQ": "猇亭区", "TZE": 10430.0, "MJ": null }, "geometry": { "type": "Point", "coordinates": [ 111.487865232154689, 30.46909368452755 ] } },
{ "type": "Feature", "properties": { "XMMC": "宜昌市猇亭区安置小区及周边区域老旧管网更新改造工程", "XZQ": "猇亭区", "TZE": 20000.0, "MJ": null }, "geometry": { "type": "Point", "coordinates": [ 111.411121034167067, 30.535062537881547 ] } },
{ "type": "Feature", "properties": { "XMMC": "宜昌市猇亭区居民小区供水能力提升项目", "XZQ": "猇亭区", "TZE": 5500.0, "MJ": null }, "geometry": { "type": "Point", "coordinates": [ 111.424482478029503, 30.532030764778867 ] } },
{ "type": "Feature", "properties": { "XMMC": "宜昌市猇亭区安置小区及周边区域老旧供水管网更新改造工程", "XZQ": "猇亭区", "TZE": 20000.0, "MJ": null }, "geometry": { "type": "Point", "coordinates": [ 111.418542482139713, 30.533284376590313 ] } },
{ "type": "Feature", "properties": { "XMMC": "宜昌市猇亭区黄龙寺片区地下排水管网建设项目", "XZQ": "猇亭区", "TZE": 11100.0, "MJ": null }, "geometry": { "type": "Point", "coordinates": [ 111.464925799193921, 30.557778691807119 ] } },
{ "type": "Feature", "properties": { "XMMC": "猇亭区桐岭新村及配套道路雨污分流改造项目", "XZQ": "猇亭区", "TZE": 4000.0, "MJ": null }, "geometry": { "type": "Point", "coordinates": [ 111.426820365639983, 30.524925365133218 ] } },
{ "type": "Feature", "properties": { "XMMC": "猇亭区老旧小区及配套道路雨污分流改造项目", "XZQ": "猇亭区", "TZE": 8000.0, "MJ": null }, "geometry": { "type": "Point", "coordinates": [ 111.411315347278347, 30.534268652801568 ] } },
{ "type": "Feature", "properties": { "XMMC": "猇亭区老旧小区及配套道路雨污分流改造项目", "XZQ": "猇亭区", "TZE": 8000.0, "MJ": null }, "geometry": { "type": "Point", "coordinates": [ 111.458428596387122, 30.539142892908494 ] } },
{ "type": "Feature", "properties": { "XMMC": "宜昌市猇亭区虎牙片区排水防涝设施建设工程", "XZQ": "猇亭区", "TZE": 11474.0, "MJ": null }, "geometry": { "type": "Point", "coordinates": [ 111.406823447486786, 30.56347448691761 ] } },
{ "type": "Feature", "properties": { "XMMC": "宜昌市猇亭区中心城区公共空间改造利用提升项目", "XZQ": "猇亭区", "TZE": 15000.0, "MJ": null }, "geometry": { "type": "Point", "coordinates": [ 111.421840897847147, 30.533127999768805 ] } },
{ "type": "Feature", "properties": { "XMMC": "宜昌市猇亭区交通信号公共设施数字智能化改造项目", "XZQ": "猇亭区", "TZE": 11400.0, "MJ": null }, "geometry": { "type": "Point", "coordinates": [ 111.42312956847735, 30.536283990305684 ] } },
{ "type": "Feature", "properties": { "XMMC": "猇亭区织布街历史文化街区基础设施更新改造项目", "XZQ": "猇亭区", "TZE": 11200.0, "MJ": null }, "geometry": { "type": "Point", "coordinates": [ 111.41088462608694, 30.534394446754984 ] } },
{ "type": "Feature", "properties": { "XMMC": "猇亭区机场片区供电设施配套项目", "XZQ": "猇亭区", "TZE": 31000.0, "MJ": null }, "geometry": { "type": "Point", "coordinates": [ 111.47547024000923, 30.554037535247435 ] } },
{ "type": "Feature", "properties": { "XMMC": "猇亭区机场片区地下排水管网建设项目工程", "XZQ": "猇亭区", "TZE": 18500.0, "MJ": null }, "geometry": { "type": "Point", "coordinates": [ 111.476528309655535, 30.553567040819082 ] } }
]
}
