{"type": "FeatureCollection", "features": [{"type": "Feature", "properties": {"社区": "岳湾路社区"}, "geometry": {"type": "Polygon", "coordinates": [[[111.33866164501899, 30.691204071810546], [111.33873717907761, 30.69115549672881], [111.33876828123135, 30.691194099228312], [111.3390506854409, 30.691024151643433], [111.33906637681196, 30.69104274332807], [111.33913948000315, 30.690996786172832], [111.339190959895, 30.690964423169703], [111.33936856161, 30.690855724812025], [111.33937805485334, 30.690841178277935], [111.3393852593224, 30.690830645417975], [111.33938949692782, 30.690822391440406], [111.33939142957087, 30.69081584887249], [111.33939167238782, 30.690805610090933], [111.33935216876773, 30.690750617447065], [111.33924867928317, 30.690614594088288], [111.33924864690766, 30.69061455271958], [111.33913096881923, 30.690456538238834], [111.33903315855355, 30.690323507823678], [111.33903311268801, 30.690323447569142], [111.33894858181168, 30.69021523484537], [111.33893722427348, 30.69020069370714], [111.33889304597744, 30.69014457421281], [111.33882430539745, 30.690057251840756], [111.33838556124482, 30.689518230581996], [111.3383303149921, 30.689450357847875], [111.33807466471404, 30.689136275918543], [111.3379883513814, 30.689030230560775], [111.33798521904276, 30.689026373368563], [111.33787634711581, 30.68889228085419], [111.33772432481777, 30.688603226158136], [111.33720485571962, 30.688354125642434], [111.33716615879132, 30.688335569031437], [111.33639665388262, 30.687981166897487], [111.33585021681404, 30.687729496119402], [111.33519678110673, 30.687410034445577], [111.33516175700953, 30.687392909555285], [111.33515948262402, 30.687391012885087], [111.33485984740412, 30.68714096628264], [111.33464438692903, 30.68691542440729], [111.3345965106206, 30.686870330601266], [111.33434613126906, 30.68663450138132], [111.33419222668999, 30.68649689341703], [111.33408137895265, 30.686397783630866], [111.33373905201569, 30.68606375563786], [111.33359254436061, 30.68575353899473], [111.33345922706172, 30.685529543053974], [111.33333374735474, 30.68527212740679], [111.3331870382512, 30.6849711647875], [111.33306228789434, 30.68471524831017], [111.3329968658129, 30.684581038883834], [111.33294492726662, 30.684464791616904], [111.33289508144298, 30.684353230717193], [111.3327036967184, 30.68392489172038], [111.33269604708511, 30.68390777222595], [111.33267949416341, 30.683885516703356], [111.33251952005992, 30.68367043304403], [111.33236367834121, 30.683317619112927], [111.33229650438022, 30.683182469895257], [111.33199319003376, 30.68302650496929], [111.33174374507792, 30.682755075186606], [111.33166296077707, 30.68254169124623], [111.33147481181328, 30.68240828761253], [111.3314086558849, 30.682361381672592], [111.3311846617429, 30.682202561399208], [111.33114916190442, 30.682159383149042], [111.33105471510311, 30.682044509146863], [111.33095064105936, 30.68191792507224], [111.33073995688363, 30.68167503077808], [111.33041026362287, 30.681260913660367], [111.33041038593069, 30.681258178822077], [111.33034391613893, 30.68117395911105], [111.33030854310482, 30.681066848955993], [111.33077381276138, 30.680963476383454], [111.33090262715467, 30.680719073026864], [111.33126240003992, 30.680633194966106], [111.33177352522813, 30.680720195380843], [111.33189217188635, 30.680695071920184], [111.33210422572961, 30.68036948136654], [111.33182398708738, 30.67981126228011], [111.33202756571973, 30.679591655930324], [111.33223634693002, 30.679601624015845], [111.3322726426685, 30.679564472122763], [111.33241960088407, 30.67941404881941], [111.33259110429623, 30.679342968203514], [111.33277587810443, 30.679345241689646], [111.33281587455303, 30.67934573361879], [111.33293931189979, 30.67942990206842], [111.33307433341395, 30.679348891138545], [111.33317617264237, 30.67941545266109], [111.33324997820404, 30.67935846442174], [111.33304446962677, 30.67917522575624], [111.33326090316825, 30.679001883230455], [111.33347729174375, 30.67897603131894], [111.33409162402921, 30.678510188794178], [111.33393128030445, 30.678413631284116], [111.33297900257895, 30.67751544328314], [111.33287418839319, 30.67741657901189], [111.33271292196383, 30.677264471278363], [111.33269505063612, 30.677272981562965], [111.33244856624839, 30.677022023047982], [111.33231960076904, 30.676890716633352], [111.33218170861903, 30.676938799785944], [111.33170141219045, 30.677128227585797], [111.33107322315084, 30.677375980916906], [111.33064566296713, 30.677540919278158], [111.33038087108042, 30.67764306607478], [111.33016594929921, 30.677725973674853], [111.3291985917416, 30.678099133868102], [111.32926753197114, 30.678261837414027], [111.32954323982875, 30.67891251939733], [111.3287563896958, 30.679181509319392], [111.32813815615111, 30.679392857194784], [111.32819871200104, 30.67946009230951], [111.32815309478968, 30.680277674075512], [111.32819480444675, 30.680266660977736], [111.32826035693, 30.680625513856512], [111.32827807807098, 30.68072252372565], [111.32835391879848, 30.680849493609287], [111.32838159723298, 30.680840504885566], [111.32846874693519, 30.681019954707324], [111.32845702157442, 30.681021522225535], [111.32845808637171, 30.68102829322123], [111.32846022495949, 30.681042899110537], [111.32846051544055, 30.681044663580508], [111.32846305062935, 30.681060081557632], [111.32846472516701, 30.681070241198768], [111.32846588259457, 30.681077262205974], [111.3284711769034, 30.681108469580295], [111.3284761366645, 30.68113968504855], [111.3284786286859, 30.681156293728122], [111.32848111261342, 30.68117289521291], [111.32848324490601, 30.68118806497739], [111.32848498599344, 30.68119664630825], [111.32853667542736, 30.681200499003808], [111.32854371981693, 30.681266058681672], [111.32855325802643, 30.68132815596971], [111.32857005736241, 30.681385892445064], [111.32857482466841, 30.681399033338778], [111.32860680276184, 30.681570293933987], [111.3286381396386, 30.681763675153604], [111.32865119509665, 30.681884447809125], [111.32866003273443, 30.681922960376312], [111.32868320736412, 30.682005364356144], [111.32870622731065, 30.682099494596116], [111.3287326718754, 30.682221040668537], [111.32875762716282, 30.68231404315867], [111.32878858362636, 30.68245527988745], [111.32880679130045, 30.682504666157456], [111.32882863313495, 30.68255229425307], [111.32882429660418, 30.682567029644815], [111.32881431772671, 30.682600978152664], [111.32881170699483, 30.68260776713481], [111.3288043811175, 30.682660855014547], [111.32881565411924, 30.68277909427985], [111.3288363277344, 30.682884916605644], [111.32883929369859, 30.682908358334203], [111.32884756476346, 30.682981547860322], [111.32885421974652, 30.68305818538704], [111.32886029286828, 30.683244060864695], [111.32886528680365, 30.683295683748838], [111.32886462490256, 30.683388461408526], [111.32886052129601, 30.683490116275948], [111.32885660744654, 30.683538676069134], [111.328853645979, 30.68356239388953], [111.32883957788425, 30.68362046131523], [111.32881195520764, 30.683685215200512], [111.32880713843878, 30.683722911183565], [111.32880257437944, 30.68377803422908], [111.32880079462103, 30.683804022837478], [111.32880071368209, 30.683821157620514], [111.32888689211643, 30.683812701295267], [111.32894538492167, 30.683815913673527], [111.3291387940202, 30.683817972221732], [111.32951674670056, 30.684285596303255], [111.32965518294043, 30.685404298969388], [111.32973532242733, 30.686051907969215], [111.33122212659987, 30.686694453786117], [111.33145300505225, 30.6870561296368], [111.33148687172189, 30.687064665102298], [111.33196648736367, 30.68718553308605], [111.33199067463005, 30.687228581833722], [111.33201064857275, 30.687259874643644], [111.33205657694958, 30.687320053677695], [111.33209313529011, 30.68736400714323], [111.33212903442745, 30.687401788561772], [111.33223509057711, 30.687493492430804], [111.33224362244528, 30.68750311877409], [111.33225215071639, 30.687512745117203], [111.33227207609559, 30.68754544986274], [111.33230073928775, 30.687602502853338], [111.33233413471265, 30.687687305324914], [111.33233583802854, 30.68769593521938], [111.3323375422438, 30.687704562415774], [111.33234013768731, 30.687723324971557], [111.3323397168046, 30.68773515285511], [111.33233929412319, 30.687746978940083], [111.33233380556067, 30.687772318238046], [111.33233057159879, 30.687783843049885], [111.33232733943527, 30.687795367862122], [111.33231689830626, 30.687818680987448], [111.33227861956266, 30.687888856885422], [111.33219207960099, 30.687860951821563], [111.33218277791303, 30.687865172339855], [111.33217347442633, 30.687869391958998], [111.33214378600701, 30.687897715207498], [111.33211280795985, 30.68792232515534], [111.33209203811708, 30.687959827783914], [111.33206932843694, 30.68799018979547], [111.33203418562931, 30.68804841190473], [111.33195630074272, 30.68816293337278], [111.33182478478597, 30.68829625966481], [111.33178485758526, 30.688369652437586], [111.3317399328518, 30.68848639792907], [111.33172012618297, 30.68856157405753], [111.33170999801797, 30.68860002187364], [111.33169745067687, 30.688697815052194], [111.33169415016499, 30.688792946237584], [111.33170014324713, 30.68888722756361], [111.33172933614003, 30.688942162650847], [111.33173008527535, 30.688943795819682], [111.33176032677784, 30.689009762890407], [111.33179002778763, 30.68906040191615], [111.33179561527544, 30.689069929333755], [111.33180120186404, 30.689079454053626], [111.33173519612257, 30.68910200005729], [111.331753882236, 30.689128054316313], [111.33192065341547, 30.689360579427273], [111.33202121740533, 30.689504829784198], [111.33214702356634, 30.689658209159177], [111.33221209671109, 30.689739749789794], [111.3322981348511, 30.689845496572502], [111.33230768475204, 30.68985664906529], [111.33232353979963, 30.68987516430758], [111.33232695992143, 30.689878031346097], [111.33233037914385, 30.689880895686883], [111.33265783399196, 30.690155334601116], [111.33288777265278, 30.69033062955498], [111.33305655471634, 30.690539528576437], [111.33306400829753, 30.690548758318585], [111.33306300825143, 30.69055016395896], [111.33305895500695, 30.690555854868933], [111.33309182342907, 30.6905694022563], [111.33310545984921, 30.690575022119674], [111.33310528807874, 30.690578390980022], [111.33310511361009, 30.690581759840427], [111.33313792087847, 30.690593513080216], [111.33349575032861, 30.690918009158963], [111.33420014701932, 30.691037716117762], [111.33423714243031, 30.690990160867386], [111.33435660567295, 30.691056726886586], [111.33444585439287, 30.691059986029586], [111.3344932369734, 30.691086689599217], [111.33450279766606, 30.691092108913836], [111.33458598585469, 30.691139262167383], [111.33460614865498, 30.6911183187554], [111.33461571114623, 30.691110125931743], [111.33462527004036, 30.691101933107916], [111.33465942179504, 30.69107797786637], [111.33469622834838, 30.69105433738781], [111.33472472426672, 30.691033166447653], [111.33473572927056, 30.69102595208608], [111.33474673157644, 30.69101873862388], [111.33487417180567, 30.69093304312554], [111.33488790984927, 30.69092373514235], [111.33489244782834, 30.69091948674503], [111.33489698400865, 30.690915240146182], [111.33490753665365, 30.690894758985962], [111.33491307827609, 30.690876232052574], [111.33491383280727, 30.690868806350352], [111.33491458643908, 30.690861380648357], [111.33498519221297, 30.690711495139567], [111.33501486084725, 30.690593513979593], [111.33499651197957, 30.69054975386814], [111.33499239488322, 30.69048183706724], [111.33500420208236, 30.690382944917133], [111.33501128874002, 30.690345522328016], [111.33506462213478, 30.69017993465644], [111.33506168584819, 30.69015684186479], [111.33505837274589, 30.690157324800794], [111.33505505964337, 30.69015780683742], [111.33504600886636, 30.690082685567518], [111.33496294658289, 30.69009524639864], [111.33490788379197, 30.689823221264817], [111.33490912215836, 30.68982136506412], [111.33494692336194, 30.68976464302392], [111.3348631074465, 30.68948324605509], [111.33474613982264, 30.689197159121704], [111.33477306282674, 30.688996619298564], [111.33501462162758, 30.68889623787112], [111.33519255609173, 30.68892394238611], [111.3352306738567, 30.688805606893425], [111.33533664816798, 30.68882934270016], [111.33538677368074, 30.688841087845958], [111.335395406273, 30.68884253755317], [111.33540403796604, 30.688843986361007], [111.3360664821825, 30.689125678307562], [111.3360446169657, 30.689202590127593], [111.33607646375788, 30.689222368018022], [111.33607909427485, 30.689219236578595], [111.33608172209387, 30.689216106038486], [111.33622307123784, 30.689286073293772], [111.3362634319119, 30.68930441496684], [111.33629621309984, 30.689331108643785], [111.33657269437452, 30.689450522423783], [111.33656489725229, 30.68960636414255], [111.33707633090802, 30.68974649470499], [111.33746457003406, 30.69020110469728], [111.33745981082166, 30.690207143644955], [111.33745504981084, 30.690213184390984], [111.33747674055928, 30.69023976565279], [111.33748313473905, 30.690247126603765], [111.33748952712006, 30.690254489353265], [111.3375093949428, 30.690278869074632], [111.33752134063735, 30.6902783573604], [111.33753328813089, 30.69027784384741], [111.33756019584655, 30.69030166059315], [111.33763276573961, 30.69038871406798], [111.3376331902196, 30.690396666772813], [111.3376336146996, 30.690404620376967], [111.33776099737219, 30.690656721030905], [111.33781289005293, 30.690762361693714], [111.33802674343946, 30.691026211090787], [111.33812736228799, 30.69114835791038], [111.33817316026318, 30.691205135708515], [111.33821474491464, 30.691256897987614], [111.33822106175273, 30.691259426881118], [111.33822737859083, 30.691261955774678], [111.33825370804232, 30.69126866921374], [111.33826236401694, 30.691270876150043], [111.33831398060579, 30.69127937114621], [111.33832126241651, 30.691279318985437], [111.3383288715803, 30.691278407972334], [111.33833316404446, 30.691277231659058], [111.3383770410677, 30.6912609116618], [111.33842230934215, 30.691251156715623], [111.33851682718995, 30.691232479595328], [111.33852554881514, 30.69123080325909], [111.33852570259916, 30.691230772682104], [111.33852597239576, 30.691230719622183], [111.33866164501899, 30.691204071810546]], [[111.33011135325654, 30.684344937169158], [111.33023824310061, 30.68424579410828], [111.33024445561733, 30.684251538977378], [111.33033351278146, 30.684333906084987], [111.33035478084855, 30.68432796336492], [111.33036640008942, 30.684327707957493], [111.33037212967014, 30.68432945623954], [111.33036348538661, 30.684309969729327], [111.33035988180325, 30.684297660708523], [111.33036490991276, 30.6842848066986], [111.33037457942345, 30.684273968069192], [111.33037557407368, 30.684273123605863], [111.33095001692982, 30.68512822328904], [111.33073770228322, 30.68521921399571], [111.33073401326419, 30.68521289176158], [111.33068047932085, 30.685240839093524], [111.33011135325654, 30.684344937169158]]]}}, {"type": "Feature", "properties": {"社区": "港务社区"}, "geometry": {"type": "Polygon", "coordinates": [[[111.30410697155969, 30.686994943362095], [111.30468958025995, 30.686593752200054], [111.30469476575092, 30.686599543834063], [111.30518176212877, 30.68627486789103], [111.30517952101815, 30.68627162313709], [111.30551192123824, 30.68605093310424], [111.3056366356223, 30.685968129825312], [111.30576087606369, 30.685871420329818], [111.3059612261298, 30.685715465296596], [111.3059626560518, 30.68571435103661], [111.30637097973704, 30.685396502746528], [111.30679051437073, 30.685028788847717], [111.30767036339654, 30.684257604005325], [111.30770524090417, 30.684227628702217], [111.30807496388849, 30.683909864049042], [111.30839548136652, 30.683634389115866], [111.30859669298309, 30.68346144858714], [111.30902606170343, 30.683118093725227], [111.30948994640403, 30.682785339172256], [111.30962631240448, 30.682702252606873], [111.30958483477247, 30.68258935621384], [111.30954081385755, 30.682293912734053], [111.30952159984213, 30.682179200609653], [111.3095348801308, 30.682069210825603], [111.30962169258703, 30.681745677920787], [111.30970831708521, 30.681363236723996], [111.30972892684855, 30.681177308186363], [111.30978441322009, 30.681004384744597], [111.30986121892022, 30.680868063710307], [111.30993337422598, 30.680697718624913], [111.31005698244383, 30.68051547191169], [111.31013495186659, 30.68037545466359], [111.31022256741767, 30.680198293616513], [111.31030699037535, 30.680076353640914], [111.31034765232238, 30.680004260388444], [111.31040911019232, 30.679805143292867], [111.31046315944735, 30.679657094199683], [111.31048232130217, 30.679492111771594], [111.31045006801628, 30.679352124201273], [111.31033290973608, 30.67918223057552], [111.3102310417292, 30.679058117837997], [111.310168446217, 30.67895196006498], [111.31012844077497, 30.678979525185127], [111.31008285503981, 30.67900424395083], [111.30982303280678, 30.67917717188908], [111.30894914268896, 30.679758790435812], [111.30866227424457, 30.67994971200966], [111.30831669625866, 30.680185532236635], [111.30824788822952, 30.68023062244538], [111.30816945835392, 30.680283301133443], [111.3080417150532, 30.680361359589142], [111.30791273518463, 30.680440172576027], [111.30758824809925, 30.680655258033767], [111.30727449622105, 30.68087826472032], [111.30717481356692, 30.680949116908266], [111.30693919209011, 30.681104841715182], [111.30663143509281, 30.681294670612658], [111.30629925520657, 30.681527785678895], [111.3044176711386, 30.68268488489963], [111.30392179575432, 30.68293034675827], [111.30341266256448, 30.683188302897918], [111.3027438844228, 30.683529566836114], [111.30217906521187, 30.6838882650315], [111.3019666984045, 30.684043726337052], [111.30142251773509, 30.68447974284601], [111.30140885793259, 30.684490752346505], [111.30209749130637, 30.685307175785567], [111.30210599169823, 30.685299934444515], [111.30211674309339, 30.685290424113873], [111.30323957094947, 30.68624983526172], [111.30327912043515, 30.686279383386932], [111.30370659338462, 30.6865987596251], [111.30394722408522, 30.68680867218245], [111.30393490337315, 30.68681514370411], [111.30393293115998, 30.686816180622372], [111.30393636657016, 30.686819708662654], [111.30410697155969, 30.686994943362095]]]}}, {"type": "Feature", "properties": {"社区": "建设社区"}, "geometry": {"type": "MultiPolygon", "coordinates": [[[[111.30813433982803, 30.687148831753234], [111.3080816089792, 30.687095053194184], [111.30790214656679, 30.687226594332003], [111.30787832262666, 30.687244059166176], [111.30799513556713, 30.687363686085405], [111.30809363381422, 30.68729282490392], [111.30818200389649, 30.687201279315616], [111.30818407593449, 30.68719978644117], [111.30816318558266, 30.687178232389613], [111.30814721901908, 30.68716206078051], [111.30813433982803, 30.687148831753234]]], [[[111.30124386291402, 30.68911323438823], [111.30124426581023, 30.689112870163], [111.3012464529615, 30.689115405351743], [111.30136012726825, 30.68921067503277], [111.30137671436404, 30.68920677377372], [111.30139356675977, 30.689206432031256], [111.30141899598988, 30.68920808678388], [111.3014296313724, 30.689210417826644], [111.30144211935834, 30.689218157392077], [111.3014415932551, 30.6892305050838], [111.30155166487748, 30.689255483753584], [111.30159302200036, 30.689259893129588], [111.30163477662381, 30.689249381853642], [111.30166417726002, 30.68923944434505], [111.30170334992977, 30.689222929194898], [111.30179940921545, 30.689177466666933], [111.3018923793299, 30.689142146692802], [111.30213894465663, 30.68904764593219], [111.30248672778032, 30.68891705537777], [111.30247944237249, 30.68892619069129], [111.3024952506554, 30.688920251568504], [111.30262758319657, 30.688869084640714], [111.30273773216067, 30.688830497429592], [111.30273806041328, 30.688827070113234], [111.30285919639488, 30.68878427767237], [111.30290924816347, 30.688768203190136], [111.30302442793516, 30.688730623219726], [111.30312851906604, 30.688695951656882], [111.30324097209319, 30.68865860730898], [111.3033186753168, 30.6886319882758], [111.30340997269218, 30.688606735312703], [111.30350356064093, 30.688579852778105], [111.30358348968633, 30.68855735983442], [111.30367831780023, 30.68853002404137], [111.30375625664601, 30.68850173496719], [111.30381626211079, 30.688479270801736], [111.30384835621686, 30.68846618027004], [111.30390824656837, 30.68844448862228], [111.30391232589312, 30.688441931849695], [111.30397329183404, 30.688555189770284], [111.30397951784062, 30.688618216057932], [111.30442325592867, 30.688485180246914], [111.30626204755555, 30.687933878745582], [111.30627005421968, 30.687931479354347], [111.30641678760475, 30.6878874836205], [111.30666082403798, 30.68777593441189], [111.30680737755858, 30.68768582324219], [111.30688682636611, 30.687636981061928], [111.30747664942794, 30.68728237568115], [111.30760680471042, 30.687183211036427], [111.30787884513279, 30.686975945183804], [111.30814867322277, 30.686727101874283], [111.30830257690246, 30.68655600675436], [111.308385320826, 30.686464018699667], [111.30829332827466, 30.686230328966644], [111.30833755693288, 30.68618692588609], [111.30840110302859, 30.68612024295487], [111.30843353617894, 30.686089264008388], [111.30843848964469, 30.686078383110953], [111.30846341165721, 30.68600909484394], [111.30847212968513, 30.686000242817045], [111.30847326283094, 30.685965757413896], [111.3084642875969, 30.685889166651748], [111.30845709931583, 30.68579837919185], [111.30845485730583, 30.685731207928995], [111.30844520398307, 30.68549575912209], [111.30844255188231, 30.685354123094385], [111.30844090792164, 30.68528464866779], [111.30847693386352, 30.685287586752793], [111.30849741592311, 30.685123541418477], [111.30853084642149, 30.685030750268936], [111.30853981895763, 30.68484727777968], [111.308538253238, 30.68484260580169], [111.30855849697713, 30.684759989582005], [111.30860812786301, 30.684787416206348], [111.30862475093159, 30.68485621434297], [111.30864905870715, 30.684882029382322], [111.30871303737695, 30.68495152089605], [111.30873143930461, 30.684971431886197], [111.3088189838092, 30.685065974015572], [111.30883738393828, 30.68508589040158], [111.30892363431843, 30.6851790160988], [111.30894202815227, 30.68519893428339], [111.30897598115678, 30.685235610435143], [111.30896486373763, 30.685255360446718], [111.30892930184586, 30.685279752758504], [111.30904767421094, 30.68540814087305], [111.30910936770323, 30.685420874373904], [111.3092245168981, 30.685509793941947], [111.30931257491551, 30.685414121364715], [111.30941174765417, 30.68526250286226], [111.30949394299125, 30.685136848686682], [111.31016090090486, 30.684296960136635], [111.31014456112274, 30.684292806168116], [111.310250485072, 30.68418414018595], [111.31023585400158, 30.684175313340006], [111.31013974974974, 30.683960862803758], [111.3100393683223, 30.683828891790085], [111.30997367284692, 30.68365102117781], [111.30989574209497, 30.683435218960312], [111.30984972558451, 30.6832533760425], [111.30982027188816, 30.683041384252533], [111.30966351465963, 30.682803516269416], [111.30962631240448, 30.682702252606873], [111.30948994640403, 30.682785339172256], [111.30902606170343, 30.683118093725227], [111.30859669298309, 30.68346144858714], [111.30839548136652, 30.683634389115866], [111.30807496388849, 30.683909864049042], [111.30770524090417, 30.684227628702217], [111.30767036339654, 30.684257604005325], [111.30679051437073, 30.685028788847717], [111.30637097973704, 30.685396502746528], [111.3059626560518, 30.68571435103661], [111.3059612261298, 30.685715465296596], [111.30576087606369, 30.685871420329818], [111.3056366356223, 30.685968129825312], [111.30551192123824, 30.68605093310424], [111.30517952101815, 30.68627162313709], [111.30518176212877, 30.68627486789103], [111.30469476575092, 30.686599543834063], [111.30468958025995, 30.686593752200054], [111.30410697155969, 30.686994943362095], [111.30393636657016, 30.686819708662654], [111.30393293115998, 30.686816180622372], [111.30393490337315, 30.68681514370411], [111.30394722408522, 30.68680867218245], [111.30370659338462, 30.6865987596251], [111.30327912043515, 30.686279383386932], [111.30323957094947, 30.68624983526172], [111.30211674309339, 30.685290424113873], [111.30210599169823, 30.685299934444515], [111.30209749130637, 30.685307175785567], [111.30140885793259, 30.684490752346505], [111.30130825617118, 30.68457182892695], [111.30102331587346, 30.684879820647268], [111.30068414106046, 30.685196626623053], [111.30016889787652, 30.685644276762048], [111.30002455039266, 30.685760786630965], [111.29991390410356, 30.685850095605588], [111.29967471861352, 30.68601482532398], [111.29966061094859, 30.68602454159941], [111.29940254419216, 30.686202273716106], [111.29957736880067, 30.686555907829018], [111.29991683229599, 30.68739907710585], [111.29987548506568, 30.687420544822317], [111.29979579613928, 30.6873668238199], [111.29974463101007, 30.687339146284614], [111.2996192763087, 30.687268723073203], [111.29958137258234, 30.687247062901747], [111.29953679408783, 30.68722158960486], [111.29949992368262, 30.687200522985847], [111.29947851532131, 30.68722524444945], [111.29943422910645, 30.687196599243805], [111.29943202576743, 30.687195010141636], [111.29932561798296, 30.687305274219113], [111.29931372175105, 30.687316135331514], [111.29925538272977, 30.687379363966613], [111.29925848808875, 30.68742114736824], [111.29929268031293, 30.68747617778348], [111.29934056561473, 30.687533562623855], [111.29926220408748, 30.687648763979325], [111.29925672092105, 30.687651968263822], [111.29914495767383, 30.68771727793012], [111.29914450171748, 30.687716746430795], [111.2991475270369, 30.687728542838045], [111.29916701084898, 30.687778616190258], [111.29918241173891, 30.687847791142758], [111.2991869029533, 30.687879116328247], [111.29918909370184, 30.68787589135934], [111.29918926906964, 30.687875990284795], [111.29934082641819, 30.687961246914142], [111.29948460373163, 30.688020582384013], [111.29961412679057, 30.688113925717232], [111.29956339693325, 30.68822844988324], [111.29953423191938, 30.688235154328936], [111.29952779996808, 30.688241693299517], [111.2994834427069, 30.68835672288452], [111.29949189273674, 30.68835943703857], [111.29948468197267, 30.68843008597986], [111.29946194441328, 30.68842895463274], [111.29947337569587, 30.688519975017016], [111.29948048034004, 30.688576535179095], [111.29948509026474, 30.688622849365174], [111.29949195838736, 30.688691839057185], [111.29950114406267, 30.688714775366748], [111.29951216975093, 30.688735812307982], [111.29953750994827, 30.688784158961766], [111.29966529911434, 30.688883727402242], [111.29967717286326, 30.68892314558684], [111.29976962586761, 30.68896967381147], [111.29993595008409, 30.68904987715024], [111.30004014373776, 30.689100119575016], [111.30007371363115, 30.689115944945], [111.30004922778971, 30.68914134090022], [111.30021866905639, 30.689266775641215], [111.30021605382802, 30.68927034684907], [111.30028852029903, 30.689307371038467], [111.30036772628961, 30.68934677303514], [111.3004338201647, 30.689380602832614], [111.30049025711975, 30.68940919228038], [111.30051339937387, 30.68942325677807], [111.30071089858927, 30.689559657851987], [111.30124386291402, 30.68911323438823]]]]}}, {"type": "Feature", "properties": {"社区": "万达社区"}, "geometry": {"type": "Polygon", "coordinates": [[[111.30142251773509, 30.68447974284601], [111.3019666984045, 30.684043726337052], [111.30217906521187, 30.6838882650315], [111.3027438844228, 30.683529566836114], [111.30341266256448, 30.683188302897918], [111.30392179575432, 30.68293034675827], [111.3044176711386, 30.68268488489963], [111.30629925520657, 30.681527785678895], [111.30663143509281, 30.681294670612658], [111.30693919209011, 30.681104841715182], [111.30717481356692, 30.680949116908266], [111.30727449622105, 30.68087826472032], [111.30758824809925, 30.680655258033767], [111.30791273518463, 30.680440172576027], [111.3080417150532, 30.680361359589142], [111.30816945835392, 30.680283301133443], [111.30824788822952, 30.68023062244538], [111.30831669625866, 30.680185532236635], [111.30866227424457, 30.67994971200966], [111.30894914268896, 30.679758790435812], [111.30982303280678, 30.67917717188908], [111.31008285503981, 30.67900424395083], [111.31012844077497, 30.678979525185127], [111.310168446217, 30.67895196006498], [111.31008838587036, 30.678863064778795], [111.30984774078075, 30.67868034322339], [111.30956703808852, 30.678497137832835], [111.30934501975696, 30.67837767369076], [111.30910548982649, 30.678236513404443], [111.30900601131844, 30.678177885700904], [111.3087820423575, 30.67804839501747], [111.30830672637433, 30.67755982302748], [111.30797203917831, 30.67726159074988], [111.30750831995317, 30.676838534370972], [111.3065093332392, 30.67779197222177], [111.30645455733202, 30.677835002083725], [111.30516231428948, 30.678850122635083], [111.3025832160427, 30.68057447912895], [111.3016564269027, 30.681157291975637], [111.29986745232105, 30.682282251224933], [111.29915488259178, 30.682730323146018], [111.29663860019139, 30.68401824314742], [111.29680010314235, 30.68423266130833], [111.29690558462505, 30.684421754560503], [111.29692061859186, 30.68444870724221], [111.29719783371308, 30.68479845268655], [111.29726509580769, 30.684892744804472], [111.29751106218595, 30.684752506323207], [111.29770146575015, 30.68464394466241], [111.29823870005612, 30.68434096216572], [111.29857612838566, 30.68477701015098], [111.29876723521983, 30.685014602042372], [111.2988334451075, 30.685096917888586], [111.29884193021098, 30.685107466036754], [111.29916239822614, 30.685508918002256], [111.29945256088712, 30.685862689711428], [111.29959193062314, 30.686034376585212], [111.29966061094859, 30.68602454159941], [111.29967471861352, 30.68601482532398], [111.29991390410356, 30.685850095605588], [111.30002455039266, 30.685760786630965], [111.30016889787652, 30.685644276762048], [111.30068414106046, 30.685196626623053], [111.30102331587346, 30.684879820647268], [111.30130825617118, 30.68457182892695], [111.30140885793259, 30.684490752346505], [111.30142251773509, 30.68447974284601]]]}}, {"type": "Feature", "properties": {"社区": "伍临路社区"}, "geometry": {"type": "Polygon", "coordinates": [[[111.35618036203414, 30.646467491781493], [111.35652609470367, 30.64622682330929], [111.35666362982278, 30.646116983711977], [111.3569132240662, 30.645917652577793], [111.3571701954483, 30.645650226576834], [111.35732885744102, 30.645406063339294], [111.35736348943357, 30.64536106036479], [111.35738383029963, 30.645334629289835], [111.35741495493636, 30.64529418407949], [111.357506183064, 30.645175646239124], [111.35772027926754, 30.64497349033428], [111.35784893088345, 30.64485201440897], [111.3578798468775, 30.64482282241545], [111.35792050522724, 30.644776726764576], [111.35790218873512, 30.64476782437572], [111.35729350868866, 30.644471952818435], [111.3570578251585, 30.64433360201417], [111.35667651171178, 30.64410976165624], [111.35654891230251, 30.644061382626887], [111.35623816056278, 30.643926040054737], [111.35599376080353, 30.643819593599517], [111.35558154395318, 30.64363288355088], [111.355419362014, 30.643559426026684], [111.35474346663773, 30.64323348293891], [111.35423813308353, 30.64300906521629], [111.35430239414023, 30.64292142358488], [111.35483355172715, 30.642197017878118], [111.35495962678544, 30.642011742248258], [111.35502382399034, 30.64192976274842], [111.3553083676872, 30.641566404266257], [111.35534696479067, 30.641512426057716], [111.35552379218944, 30.64126513228007], [111.35567297892493, 30.641048553048392], [111.35568900304509, 30.64102529118429], [111.35579144032278, 30.64087657929082], [111.35622214183849, 30.64027615771863], [111.35578772882076, 30.640045630901284], [111.35576667838967, 30.640048133714515], [111.35502377542701, 30.63961827756151], [111.35502976760978, 30.639609805947885], [111.35456208597168, 30.639341593939548], [111.35453159895411, 30.63932411021966], [111.35410158631919, 30.639079586353944], [111.35410602897025, 30.639072467320602], [111.35391387532525, 30.638988573164283], [111.35383735021367, 30.638938304659177], [111.3536352734493, 30.63880556382577], [111.35285100616903, 30.63821315341437], [111.35284269733273, 30.63820687614657], [111.35282938376912, 30.638278007124484], [111.35281945705248, 30.63828405776303], [111.35279995165655, 30.63830015742633], [111.35276495004251, 30.638338920005253], [111.35276635478357, 30.638341447999608], [111.35251246807599, 30.638541810656022], [111.35234900460301, 30.63887961040581], [111.35222580557655, 30.639134200383182], [111.35193721403124, 30.639726340098548], [111.35174193794012, 30.640127006955936], [111.35173356615115, 30.640122976194448], [111.35170598304472, 30.640243917023156], [111.35110825494212, 30.641175286410487], [111.35111240980984, 30.641177367441628], [111.35109976534198, 30.64122015988255], [111.35107206892104, 30.641313890823426], [111.35107185218436, 30.641314624670372], [111.35082187213186, 30.641684847677595], [111.35062901072041, 30.64198290458745], [111.3505422738071, 30.64211695213578], [111.34988759793447, 30.64266525619678], [111.34979497675693, 30.642742828119196], [111.34978608605911, 30.642730148577527], [111.34807812960213, 30.643888410621628], [111.34809857389018, 30.643907181271572], [111.34810376117974, 30.643911944081083], [111.34811405841708, 30.64392212080935], [111.34812450224405, 30.643932444127188], [111.34812517493691, 30.64393310872606], [111.34869260308136, 30.644493961027536], [111.34888175209124, 30.64468350843731], [111.34893607563941, 30.64473757118202], [111.34933104709029, 30.64513063427148], [111.34936318256484, 30.64516261416344], [111.34972243744068, 30.6455151376137], [111.34980705015539, 30.64559816392432], [111.34982061912638, 30.64561164296299], [111.34985264578307, 30.645643455581137], [111.3498561981051, 30.645646985420115], [111.34985721613765, 30.645647996258106], [111.34985736092852, 30.645648140149603], [111.34985955887169, 30.645650322804215], [111.34986433786895, 30.645655070325347], [111.349987033275, 30.645776948247658], [111.35058442143401, 30.646370347014056], [111.3505911951276, 30.646395405723467], [111.3508847230517, 30.647481268745707], [111.3509721992076, 30.647779940791736], [111.3509831250712, 30.647817245569513], [111.35129428690192, 30.647736183378242], [111.35136133675633, 30.647718714047528], [111.35145745719609, 30.647698046727612], [111.35166452969446, 30.647653523091606], [111.35191572742906, 30.647599509809595], [111.35234327142501, 30.647507573016128], [111.35330053319313, 30.647301723595774], [111.35332390207651, 30.647296699083427], [111.35336142808762, 30.647289538681378], [111.35350868038137, 30.647261443860657], [111.35426010981627, 30.647083460833244], [111.35443854430338, 30.64704119899227], [111.35506642757372, 30.64687228292962], [111.35564996887115, 30.646696517630232], [111.35618036203414, 30.646467491781493]], [[111.35343001758133, 30.645695092854282], [111.35379823330186, 30.64511102815152], [111.35380463917289, 30.645115043624457], [111.35388416082543, 30.645164901139367], [111.3539702097575, 30.645195074293326], [111.35435714036981, 30.64533244123919], [111.35456036107195, 30.64541887867847], [111.3545506061256, 30.645434657283715], [111.35465422421322, 30.645467224433048], [111.35475588087922, 30.64550100476771], [111.3547861331736, 30.645510766908444], [111.35479747542325, 30.645514717630192], [111.35482051515476, 30.645521379807803], [111.35493716441874, 30.645547879231287], [111.3549754746386, 30.645556297784935], [111.355047070566, 30.645572020632358], [111.35507965120502, 30.645579093800166], [111.35442077819641, 30.646200671923566], [111.35405669576005, 30.646302002135826], [111.35402086587038, 30.646310784914817], [111.35399379357881, 30.646251418867962], [111.3539750058419, 30.646214215713655], [111.353959119318, 30.64618478809757], [111.35392509166974, 30.646126887046307], [111.35373506671999, 30.645884987402326], [111.35359795877883, 30.645792798798766], [111.35344759573007, 30.64570693512701], [111.35343001758133, 30.645695092854282]], [[111.35217897967624, 30.645182299423595], [111.35216574075645, 30.645186200682645], [111.35216404013846, 30.645186146723347], [111.35215556402818, 30.645185878725442], [111.35214179630697, 30.64518250626776], [111.35212264344528, 30.645171135239707], [111.35199847584909, 30.645030606277544], [111.35197527603827, 30.64500354927452], [111.35191330375608, 30.644935345589886], [111.35189575888222, 30.644915416613344], [111.35189030359481, 30.644909222982335], [111.35216270194724, 30.64476413985335], [111.35228007966208, 30.644688261354304], [111.3525298447766, 30.644898328595048], [111.35250197478638, 30.64492001304825], [111.35249891889003, 30.644926518743944], [111.3523449252782, 30.645050008251303], [111.35230664293738, 30.645080705710086], [111.35222164980945, 30.645148862630037], [111.35220011284508, 30.64516766385674], [111.35217897967624, 30.645182299423595]]]}}, {"type": "Feature", "properties": {"社区": "大学路社区"}, "geometry": {"type": "Polygon", "coordinates": [[[111.3056656729326, 30.73350015800594], [111.30569855034787, 30.733483562816218], [111.30570382127434, 30.7334896880987], [111.30740110637595, 30.732766989305276], [111.30826286014297, 30.73240005601781], [111.30932373190478, 30.731948340044028], [111.30933565061986, 30.731976082330505], [111.30937930191328, 30.731929132323785], [111.31038364768733, 30.731530568081382], [111.31073730788052, 30.73136398935668], [111.31078087283913, 30.731343468626335], [111.31122243906447, 30.73119921826941], [111.31168605936432, 30.73104059494767], [111.31170042693333, 30.73104056077341], [111.31179162718189, 30.731040342237975], [111.31207282989726, 30.73103966684721], [111.31226624619035, 30.731048747301998], [111.31242404573322, 30.731081578851956], [111.31249984868913, 30.73109734936321], [111.31262788786677, 30.73113763089708], [111.31262763875458, 30.731129837372123], [111.31262967302104, 30.73112080817873], [111.31266064027648, 30.731141949441508], [111.31293878709545, 30.731292047190323], [111.31295525727944, 30.731322108828294], [111.31308814110497, 30.73140770360277], [111.31459071488968, 30.733277395935147], [111.31464325058562, 30.73323869361093], [111.31464407256595, 30.73323975481094], [111.31464666711014, 30.733243102087556], [111.31490543623693, 30.733167752390045], [111.31492875925494, 30.733199995783252], [111.31495159304171, 30.733229676108806], [111.31497114340357, 30.73324908977378], [111.31499426677203, 30.733261938387898], [111.31503721389629, 30.733274729445327], [111.31508222226688, 30.73327896435285], [111.31511769512565, 30.733276608129017], [111.31515572565638, 30.733271389363154], [111.31519150878108, 30.73326411834455], [111.31521130735615, 30.733259442769224], [111.31523080196013, 30.733254345411865], [111.31525556119533, 30.733247155332037], [111.31525559357084, 30.733247143640938], [111.31528231872414, 30.73323826463428], [111.31530832531905, 30.73322706357817], [111.315309763335, 30.733226371100272], [111.3153320053679, 30.733215649382885], [111.31537266911351, 30.73320854833588], [111.31541470162733, 30.73320789812618], [111.31541775122844, 30.73320785136127], [111.3154195210941, 30.73320782258304], [111.31542038444331, 30.733207808193868], [111.31545661812856, 30.733207627430204], [111.3154615302256, 30.73320759685322], [111.3155035375583, 30.73320788103905], [111.31554169129606, 30.733212969403098], [111.3155657436642, 30.733221804342975], [111.3155709462423, 30.733223715402232], [111.31560336230552, 30.733227056383555], [111.31563598521257, 30.73321827090649], [111.31566620243348, 30.733205821591525], [111.31569654825728, 30.733201893352827], [111.31573507071698, 30.733207334251176], [111.31578195327455, 30.733218501133024], [111.316011971975, 30.733205200159887], [111.31607899395055, 30.733207791106736], [111.31612987309535, 30.73320977770925], [111.316168037625, 30.733211295764818], [111.31619774942675, 30.73321251164822], [111.31623659834054, 30.73321422036014], [111.31627557315926, 30.73321613141951], [111.31630534161826, 30.73321771962219], [111.3163350642119, 30.733219261959448], [111.3163612677584, 30.733220408595116], [111.31636233165636, 30.733220449064618], [111.31636339465513, 30.733220485037464], [111.31638611242926, 30.733221247662584], [111.31641185102615, 30.733221866396093], [111.3164465180925, 30.733222390700803], [111.31644664939353, 30.733222393398705], [111.31648335072617, 30.733222194648533], [111.31652030926494, 30.733221510264627], [111.31655694944385, 30.73322133939348], [111.3165902081717, 30.733221431124207], [111.3166312217536, 30.73322162717642], [111.31668652466357, 30.733221965321604], [111.31676245532321, 30.73322249142501], [111.31686400766785, 30.733223231567024], [111.31696500603022, 30.73322406164118], [111.31703886015538, 30.73322492139306], [111.31709024471917, 30.73322589176155], [111.31713890343764, 30.733227691305046], [111.31718353139496, 30.733230631188746], [111.31721654370858, 30.733234664648194], [111.31725529909289, 30.733236967811877], [111.31729390518973, 30.733233838171145], [111.31730129491888, 30.733232416342958], [111.3173271738101, 30.73322743859552], [111.31736333914677, 30.73322190776497], [111.31737605016463, 30.733220351038483], [111.31739730474192, 30.733217742105182], [111.31742519271864, 30.73321199543733], [111.31745208964225, 30.733195750983157], [111.31747048707342, 30.73316973809301], [111.31747982923082, 30.73313985542012], [111.31748312884332, 30.733106256748385], [111.31748489780983, 30.733071238047387], [111.31749148444453, 30.733039772567565], [111.3177487328179, 30.73306315673932], [111.31782523634564, 30.733070110297376], [111.31784155634273, 30.733101174679575], [111.31784736596325, 30.733147113848304], [111.31785806339894, 30.733180477796907], [111.31788745234405, 30.733206509572938], [111.31791175472375, 30.733262668637337], [111.31793450757152, 30.733318882560468], [111.31793606160005, 30.733341126391963], [111.31793871999605, 30.73337917311045], [111.3179532170675, 30.733464490893653], [111.31801693133639, 30.733461211965448], [111.31803259482842, 30.733460407072187], [111.31802684186533, 30.733377005744217], [111.318205269158, 30.731881396309518], [111.31821311574288, 30.73181561539849], [111.31831751624037, 30.731737493090975], [111.31783566128678, 30.731363403898058], [111.31740262423182, 30.7307344153611], [111.31715666864545, 30.729866312380466], [111.31725362365586, 30.72910237967119], [111.31709640057846, 30.72846615518904], [111.3171150237394, 30.728452146449456], [111.31750640329807, 30.72817435036609], [111.31803085194241, 30.728039419683626], [111.31878187578303, 30.72791825312487], [111.31937777106742, 30.727668586935806], [111.3194474532375, 30.727498508049734], [111.31898810831467, 30.727335836879547], [111.31900854990482, 30.727323212196552], [111.31901875361274, 30.72731821016737], [111.31902895732065, 30.72731320633943], [111.31905473998432, 30.72730233623389], [111.31912060363305, 30.727276683971866], [111.31914607513141, 30.72726413213411], [111.31915598925764, 30.727257538304798], [111.31916589708862, 30.727250947173616], [111.31918220899189, 30.727236036414013], [111.31918909240272, 30.727228473115588], [111.31919597131707, 30.727220911615916], [111.31920620919925, 30.727206919064088], [111.31920990271499, 30.727199879171167], [111.31921359083464, 30.72719284467405], [111.31922356341687, 30.72716156535398], [111.31923779878548, 30.727106504361757], [111.3192428880489, 30.727078678438318], [111.3192470429168, 30.72703531222993], [111.31925057365515, 30.72697107905219], [111.31925383279815, 30.726882011095995], [111.31926109122651, 30.726844003048427], [111.31926034838642, 30.726833973808937], [111.31925960284838, 30.726823950864684], [111.31924985779472, 30.72678148667643], [111.31924372082113, 30.72674626292985], [111.319239383391, 30.726708540866525], [111.31923757575356, 30.726668877167015], [111.31923773133633, 30.726629232353332], [111.31924378916966, 30.72650037928912], [111.3192453620839, 30.72644478320035], [111.31924654289367, 30.72616248690929], [111.3192443413534, 30.726032164352944], [111.31923454144106, 30.725943849129408], [111.3192345702193, 30.72589112187785], [111.31917744708159, 30.725760423405006], [111.31888545789764, 30.724876813414312], [111.31897274069962, 30.72488716910766], [111.31889661488691, 30.724614651145373], [111.31868817991563, 30.72386848724102], [111.3183985577474, 30.722831691229658], [111.31839966211481, 30.72282940785101], [111.31840909870112, 30.72280989975718], [111.31847326982569, 30.7228260479838], [111.31848790988926, 30.72282972980821], [111.31858907732425, 30.722875338925746], [111.31862701882199, 30.722879110682527], [111.31862446474736, 30.72287231360656], [111.31860867175288, 30.722830245119724], [111.31859230229298, 30.72278664059104], [111.31858939118746, 30.722778899226853], [111.3185477291945, 30.722716229970047], [111.31853758933846, 30.72270097926696], [111.31851295690757, 30.722661902824598], [111.3184936871341, 30.722627376951948], [111.31846636303231, 30.722582766081757], [111.31846579196292, 30.72258183258566], [111.3184440661409, 30.72254636332417], [111.3184237189796, 30.722517751393184], [111.31838144185025, 30.72245829361549], [111.31836360919328, 30.722434791632395], [111.31834345988284, 30.72241230408474], [111.31832132127204, 30.722389694229037], [111.31829651976864, 30.722369814715364], [111.31823970779641, 30.722341217173607], [111.31818020325397, 30.722324795552936], [111.3181286307319, 30.722314840058004], [111.31808637518617, 30.722305693053443], [111.31805042388805, 30.722297907622476], [111.3179767199498, 30.72227856860104], [111.31797384481717, 30.72227781496923], [111.31796470230927, 30.722275676381457], [111.31790727430132, 30.72226223421478], [111.31781566665984, 30.7222470671486], [111.31771047655735, 30.7222282569287], [111.31765667911259, 30.722214562951763], [111.31758980282729, 30.722190981828362], [111.31753668886711, 30.722173509799745], [111.31749088819402, 30.722155599801283], [111.31748912282484, 30.722154910021175], [111.31738631592583, 30.722112603214214], [111.31731431080698, 30.72207943891516], [111.31727956190224, 30.722056338929065], [111.3172148700703, 30.722007798021593], [111.31717659942069, 30.72198097214425], [111.3171325776064, 30.7219491990964], [111.31709453178729, 30.721924859844535], [111.31700814920691, 30.721862847992213], [111.31698020457293, 30.721842786815273], [111.31694886319951, 30.721825819306275], [111.31694061911446, 30.721821355970974], [111.3168928030604, 30.721790355440646], [111.31688413989121, 30.721783658189395], [111.31686781989413, 30.721771043399087], [111.31686470104529, 30.721768632316582], [111.316833488275, 30.72174578144285], [111.31678088692843, 30.72170566268636], [111.31674538439205, 30.721679907901546], [111.31670954371049, 30.721657363696465], [111.31667764385833, 30.721638441960636], [111.31666179600518, 30.721629040448022], [111.31660555060569, 30.721602943021594], [111.3165559044316, 30.721587525943676], [111.3165229613657, 30.721579612808966], [111.31647807979971, 30.721568766985172], [111.31646573480589, 30.721564979940013], [111.31627807417397, 30.72180238477233], [111.31578816759003, 30.722039083636957], [111.31578162142483, 30.722042248351272], [111.31577800704952, 30.72204050726367], [111.31567741068397, 30.721992038302005], [111.31547218539316, 30.721893153346514], [111.31540529381931, 30.721964224969042], [111.31496511344926, 30.721631404765674], [111.31398915837303, 30.721504245124947], [111.31389582763046, 30.72176458626666], [111.31317919116685, 30.72190952370562], [111.31330534086891, 30.721388821636936], [111.31334507921201, 30.721331423306594], [111.31348084266693, 30.720917452778338], [111.3136754469644, 30.720922257856103], [111.31369460432256, 30.72085689423028], [111.31369425808361, 30.720848440603163], [111.31368789538021, 30.72069398923628], [111.31370765708289, 30.720552717434032], [111.31370865892751, 30.720545545340713], [111.31354071683069, 30.72013623959583], [111.31351172358728, 30.720067231017993], [111.3134715283885, 30.719978460737423], [111.3132812938967, 30.71991007269179], [111.31323235998553, 30.71989576357879], [111.31319881617247, 30.719891113184417], [111.31313315307261, 30.71989498386648], [111.31304506807555, 30.719914457786047], [111.31292375672615, 30.719963614729068], [111.31286668305114, 30.719983573383388], [111.3128353560669, 30.719989341634857], [111.31275334509093, 30.719990712201593], [111.31267608433387, 30.71999453521977], [111.31262014200593, 30.720013238420393], [111.31256152779235, 30.720036644175934], [111.31249072866439, 30.720069707750895], [111.31244494417888, 30.72010865109354], [111.31243701485641, 30.720115394210154], [111.31241104063719, 30.72014913227673], [111.3123893031239, 30.720170716905216], [111.31231743200397, 30.720189753754255], [111.31218249592553, 30.72020718441422], [111.31191862314603, 30.720225455040804], [111.3118993173997, 30.720187652937852], [111.31190100902433, 30.720153576726318], [111.31191767166325, 30.720128921812318], [111.31194124379346, 30.720108894809698], [111.31197593783929, 30.720084255184418], [111.31203201866288, 30.719927649941155], [111.31203363924118, 30.719847787445474], [111.31199825991183, 30.71978189591789], [111.31188827372495, 30.719652267638025], [111.31182144060705, 30.719626899561888], [111.3116607299587, 30.719599365018667], [111.31164984906127, 30.71959749982483], [111.31147202341515, 30.71956158989559], [111.31136788192225, 30.71956006284671], [111.31117623279704, 30.719554882751765], [111.31095128807164, 30.71959659420753], [111.31087717134443, 30.719617849684028], [111.31080602597751, 30.719656754355867], [111.31077257299597, 30.71968686455733], [111.31073401636183, 30.71968336529511], [111.310664837812, 30.719702796047216], [111.31059251523243, 30.71970325200357], [111.31055231373841, 30.719639515251515], [111.31055123635059, 30.719638463944023], [111.31052274582817, 30.71961054808844], [111.31048851942973, 30.719574148028585], [111.31041093221893, 30.71951788194474], [111.31030179589123, 30.719464595314832], [111.31025902863144, 30.719443211235273], [111.30992982370253, 30.719191421746814], [111.30986935778475, 30.719145033816346], [111.30987155123125, 30.71911382824061], [111.30976003889481, 30.71903486686574], [111.30972905725037, 30.718782060243882], [111.30971504041696, 30.718667716841765], [111.30967451966347, 30.71866830140118], [111.30898056769911, 30.718669773591216], [111.30891398998864, 30.718656942064285], [111.30886732506713, 30.718656653381913], [111.30798357478227, 30.718654389788355], [111.30787755190755, 30.718674563380375], [111.30785554279919, 30.71867874972463], [111.30753270596978, 30.718740174319635], [111.30751670792989, 30.718702102420252], [111.30750302384564, 30.718677371063905], [111.30748237001552, 30.71863741598412], [111.30744205790472, 30.71857161978454], [111.30742061357057, 30.718528760793845], [111.30740308398532, 30.718492977668973], [111.30735025960684, 30.718418492219655], [111.30733898930305, 30.718400578623914], [111.30732120880685, 30.718372324623203], [111.30728499670528, 30.718303943771957], [111.30727286664955, 30.71827272920325], [111.30726622695494, 30.718235982904446], [111.3072619956447, 30.718107711701578], [111.30726226004543, 30.71803693056006], [111.30725898291576, 30.717968027202744], [111.30725304469235, 30.717929919330345], [111.3072284140602, 30.717876492406276], [111.30720727279743, 30.717844862350546], [111.30717149776649, 30.71777593561103], [111.30713002373164, 30.717697675707257], [111.30709063792273, 30.71762786943077], [111.30706419605588, 30.717576730381836], [111.30703721099866, 30.71753672314128], [111.3069480567076, 30.717417234717686], [111.30693282489, 30.717395704947933], [111.30689887368408, 30.717308729714148], [111.30690549539241, 30.717280195125056], [111.30692132795701, 30.717211950071544], [111.30674314887733, 30.717123367749252], [111.30658286540711, 30.717062087045747], [111.30644712083813, 30.716851176240823], [111.30629606890858, 30.716686799955937], [111.30612914124703, 30.71649290882084], [111.30609604529633, 30.71644338585355], [111.30604491164343, 30.71633225303117], [111.3059159335736, 30.716256631738304], [111.30586922368576, 30.716235657749507], [111.3058186170357, 30.716217048078363], [111.30577978970553, 30.716191660217135], [111.30571925274148, 30.716152075657874], [111.30558916940464, 30.71606380719902], [111.3054940687964, 30.71599339028279], [111.30549275308812, 30.71594410743478], [111.30549546994013, 30.715888200180302], [111.30549510121801, 30.71588819208654], [111.30549437816313, 30.715888175898783], [111.30549513629165, 30.71586211534452], [111.30549947821845, 30.715712767630237], [111.30551148866442, 30.71570388862375], [111.30551394021626, 30.715696919777088], [111.30551788913942, 30.71568782493324], [111.30552258629837, 30.715679004382594], [111.30552659277811, 30.715672594914395], [111.30553589356668, 30.715660231934237], [111.30554671600828, 30.71564882943005], [111.30555892070777, 30.715638523199345], [111.3055723682703, 30.715629441845408], [111.30562295333675, 30.715598094176755], [111.30563489993068, 30.715592028249603], [111.30564743108425, 30.715586910207776], [111.30566043618023, 30.715582777823045], [111.30567382079028, 30.71557966886678], [111.3056912559469, 30.715577212818232], [111.30570890604127, 30.715576490662556], [111.30572653275345, 30.715577508695162], [111.30574391215197, 30.71558025792268], [111.30581526076577, 30.715463874858074], [111.30568321780623, 30.715404400892567], [111.30567505735814, 30.71540087105342], [111.30566544630341, 30.715395570449346], [111.30565659697447, 30.71538935523472], [111.30564862808177, 30.715382305449225], [111.30564164214815, 30.715374518219505], [111.30563573090438, 30.715366090672717], [111.30563094021585, 30.71535705698261], [111.30562796166117, 30.71534942533583], [111.30562582037544, 30.715341586844943], [111.30562434728591, 30.71533160257144], [111.30562425375643, 30.715323281144663], [111.3056242339714, 30.715321539157856], [111.30562548133094, 30.715311530602833], [111.30562806957983, 30.715301718099795], [111.30563196814097, 30.715292232950276], [111.30563711675973, 30.715283205555636], [111.30544013015793, 30.715313787001776], [111.30536494323758, 30.715325461101145], [111.30500137701193, 30.715381898056194], [111.30507282275266, 30.715388626783806], [111.30509473563359, 30.715392982200456], [111.30511064194275, 30.715398435689337], [111.30513651094122, 30.715411411107766], [111.3051765163832, 30.715440899877763], [111.3051967466327, 30.71546179742404], [111.30521320692412, 30.715488327424453], [111.30521386792572, 30.71549033291268], [111.30522024232039, 30.715509664739272], [111.30523397406876, 30.715581834434204], [111.3052266409968, 30.71578377630027], [111.30522427218256, 30.715992421713054], [111.30522665628524, 30.716057820412118], [111.30522841985584, 30.716106229119248], [111.30523481583418, 30.716189239242112], [111.30524179817047, 30.71627995385694], [111.30524489093904, 30.716320103190185], [111.30525087233002, 30.716372277358857], [111.30516746290829, 30.716400186919202], [111.30517579602628, 30.71646456488793], [111.30516216320342, 30.716527306989747], [111.3051619914329, 30.716527896045648], [111.30516181426634, 30.7165284985914], [111.30521968833813, 30.716676207740875], [111.30523398935713, 30.71672666510358], [111.30533697522128, 30.71709004427015], [111.30538260232532, 30.717219115869625], [111.30542719161173, 30.71734526287355], [111.30562529696994, 30.71789668398486], [111.30509052410838, 30.71804823413879], [111.30578146784052, 30.719917668365724], [111.3062937684428, 30.719757310251737], [111.30641365616549, 30.720090992005794], [111.30608923383113, 30.720150670117505], [111.3057329602081, 30.720111525326615], [111.30565158235464, 30.720102583367634], [111.30494446521487, 30.720024886439433], [111.30494395709798, 30.720027950429596], [111.30494293187093, 30.720034067618315], [111.30484060071319, 30.720010072806645], [111.30465509305827, 30.719967035750244], [111.30464759091376, 30.719965293763437], [111.30456248177319, 30.719945549147894], [111.30455386536875, 30.719943829644023], [111.30454326056315, 30.719956126973784], [111.30451148301864, 30.7199929865871], [111.3044922033526, 30.72026277510696], [111.30448809524944, 30.720320254376304], [111.30448576780401, 30.72035188892852], [111.30448380278546, 30.72037859159883], [111.30446795763021, 30.72059777526721], [111.30443286608403, 30.72057990843615], [111.30421822129387, 30.720470619223818], [111.30416022041794, 30.720468592151974], [111.30410885294128, 30.720504627986372], [111.30418226459989, 30.720558205996497], [111.3043503559843, 30.720678743929057], [111.30448984443086, 30.720780071443244], [111.30449348398724, 30.720781790947058], [111.30454910615651, 30.720821874629905], [111.30463551481716, 30.720885151828327], [111.30466805678543, 30.720908526107735], [111.30467477292257, 30.72090890202429], [111.30473085644405, 30.720916380786434], [111.30479429911776, 30.720948529750956], [111.30486201087325, 30.720982836189023], [111.30497286580521, 30.721040638314946], [111.30502487629713, 30.721067755572562], [111.30509843904184, 30.721107367111472], [111.30510603561515, 30.721111457228005], [111.30523548762784, 30.721181159183118], [111.30527123118242, 30.721151772936082], [111.30527654167918, 30.72115177923132], [111.30544360244033, 30.721303409424877], [111.30547543124624, 30.721338021632562], [111.3054168368177, 30.721393697761016], [111.30541567939014, 30.72140344191547], [111.30540973936814, 30.72145342533537], [111.30537045967912, 30.721487970093847], [111.30529297409157, 30.72155677722361], [111.3052814034142, 30.721567053776596], [111.30527345160857, 30.721560759421664], [111.30525638337554, 30.721576890561096], [111.30545991524298, 30.721743400038065], [111.30553612289384, 30.72180717096421], [111.30556453787318, 30.721830948139825], [111.30543837018479, 30.721943078310574], [111.30528089529707, 30.722083734976422], [111.30524145642818, 30.72205357081566], [111.3051905727869, 30.72201465175482], [111.30496862999831, 30.722219305077033], [111.30506826318998, 30.722354122444926], [111.30506732699553, 30.72236215429018], [111.30504343920353, 30.722494740440084], [111.30502256773741, 30.722543246273915], [111.30500756434776, 30.722578125580128], [111.30498235725003, 30.722635524809675], [111.30495536319944, 30.722696999766868], [111.30489079637323, 30.722762946153182], [111.3048279121785, 30.72282740596006], [111.30484916675579, 30.72296106230334], [111.30486482844907, 30.723057135078818], [111.30486861819236, 30.72307966939138], [111.30487108233467, 30.723094304058918], [111.30493545400799, 30.723104618383616], [111.30493186031714, 30.723151573786197], [111.3049044858534, 30.72350934657925], [111.30490311618598, 30.723527261973743], [111.30491630474376, 30.72352814240992], [111.30491551513893, 30.723540532369725], [111.30491216606362, 30.7235931229244], [111.30490505512421, 30.723600831912904], [111.30483662391117, 30.72367504037095], [111.30482881959455, 30.72368350119268], [111.30470566463487, 30.723674886586934], [111.30470264830865, 30.723688460054404], [111.30459377907982, 30.723684124422846], [111.30442177744305, 30.72369731837665], [111.30433751006814, 30.723733982837132], [111.30431495057468, 30.72374856714282], [111.30429101331981, 30.723773929823096], [111.30427207809396, 30.723793992798562], [111.30426584129572, 30.723890564697854], [111.30426121518303, 30.72396221458456], [111.30425014362942, 30.724037032782974], [111.30423888591588, 30.724113127119153], [111.30426500672473, 30.724239202177614], [111.30429331108746, 30.72440506773978], [111.30429527340829, 30.724477819296055], [111.30429514120789, 30.724478375976446], [111.30427220220037, 30.724575441603406], [111.30427221569039, 30.724578699847257], [111.30427189013568, 30.7245793383658], [111.30427227864288, 30.72459348200374], [111.3042724728964, 30.724635392209677], [111.3042163569994, 30.724631797619452], [111.30406196408848, 30.72462190867418], [111.30400076432397, 30.724697264667043], [111.30395708065481, 30.724741261300267], [111.30392015089444, 30.724788141159877], [111.30391752577333, 30.724810065732072], [111.30391184655463, 30.72490170574929], [111.30388349902444, 30.72496202058096], [111.3038688041022, 30.72505640982564], [111.3038704543581, 30.725145263743116], [111.30385855183079, 30.725213962954058], [111.30384529942114, 30.725358326625496], [111.30381561369967, 30.725425016751274], [111.30380200515856, 30.7254709127526], [111.30391300308264, 30.725589616967397], [111.30390825825964, 30.725624776862105], [111.3039575536983, 30.725694030954912], [111.30399529015068, 30.725696229797222], [111.30406592830002, 30.72575695202181], [111.30412531323276, 30.72576514664439], [111.30422759582706, 30.725769350974815], [111.30428601308915, 30.72578915044903], [111.30439115103093, 30.72581433326485], [111.3044408565604, 30.725806474089495], [111.30457811199034, 30.725750397762624], [111.30465595460873, 30.72568955592834], [111.30471000476297, 30.725678787446213], [111.3047686819292, 30.72566762236295], [111.30475835681278, 30.7258393865784], [111.30473792691396, 30.7258537622414], [111.30469787200929, 30.725896533998025], [111.30455461180594, 30.726053243562433], [111.30436938563878, 30.726251351618657], [111.30439646872208, 30.726234506417484], [111.304406167011, 30.726228468369186], [111.30441518811062, 30.72622328197906], [111.30442587835165, 30.72621740041268], [111.30443656499557, 30.726211803931733], [111.30444725613603, 30.726206204752657], [111.30445861007689, 30.726201179341103], [111.30446928323101, 30.726197291571907], [111.30447752641686, 30.726194678142065], [111.30451376280001, 30.726189728273482], [111.3045563421017, 30.72619250178269], [111.30459721718796, 30.726191811103376], [111.30464366717155, 30.726181791756403], [111.30472416818594, 30.726167316268743], [111.30474808475634, 30.726170969314808], [111.30478514222062, 30.72619669891867], [111.3048260937494, 30.726217469660583], [111.30489098613026, 30.726256164790357], [111.30489427495087, 30.72625877462292], [111.30489644861228, 30.726269678902668], [111.30489431811827, 30.72627967756523], [111.30489119567233, 30.7262890952656], [111.30488941681313, 30.726297667603262], [111.30489461399537, 30.72630631098758], [111.30490125908591, 30.726306379335938], [111.30491063092097, 30.72630160663391], [111.3049214713489, 30.726286542989726], [111.30492771534193, 30.726267421604348], [111.30493764025988, 30.726270672653527], [111.30501173090676, 30.72629548674746], [111.30502668573308, 30.726295353647686], [111.30504705537737, 30.72628811860187], [111.30505065356493, 30.72629245333411], [111.30508437904103, 30.726376839419572], [111.30512657792929, 30.726454619085473], [111.30513843189317, 30.72648209067603], [111.3051580883751, 30.72656377699684], [111.30517184080793, 30.726620937006714], [111.30510630361306, 30.72663449338728], [111.3050118613084, 30.726681233851934], [111.30487381537444, 30.726700639423086], [111.30455594909785, 30.726749225296544], [111.30434834869749, 30.72678205774588], [111.30435218790325, 30.72680439061031], [111.30420515684267, 30.72684715787011], [111.30415604396643, 30.726863277318444], [111.30398653974703, 30.726888755111986], [111.30397826058834, 30.726888309947583], [111.30398249279796, 30.72691276071538], [111.30391363530617, 30.726924590397687], [111.30380576072741, 30.726943069667016], [111.30374423181104, 30.72695777628053], [111.3036344191932, 30.72701543811212], [111.3035617206969, 30.727025952086137], [111.30343958826649, 30.727036778124898], [111.30340631964611, 30.72704085475175], [111.30338102441476, 30.727034217754976], [111.3032919591567, 30.727085123879476], [111.30322599478387, 30.72712282256026], [111.30319118742352, 30.727135037152266], [111.30304234243027, 30.727185937880904], [111.30286863657847, 30.727243260668104], [111.30287109712344, 30.727264145623906], [111.30279874396695, 30.72727690520503], [111.3027974291582, 30.727277132733605], [111.30279537870382, 30.727268556798435], [111.30278902499356, 30.72726804508426], [111.30278574066944, 30.727270991263367], [111.30279582386828, 30.72732891389842], [111.30279707122799, 30.727332944659736], [111.30279485799645, 30.727333610158155], [111.30279266544932, 30.72733432421984], [111.30279049358643, 30.727335082348304], [111.30278834060948, 30.727335881845534], [111.30278620921626, 30.727336726309034], [111.302784103004, 30.72733760944311], [111.30278201837552, 30.72733853844295], [111.30277995982732, 30.727339504314784], [111.3027779291582, 30.72734051155544], [111.30277592277076, 30.72734156106418], [111.30277394696014, 30.72734265014327], [111.30277199992793, 30.727343776993848], [111.30277008527122, 30.727344940716478], [111.30276819939291, 30.72734614490878], [111.30276634589035, 30.727347383275173], [111.30276452925978, 30.727348661211863], [111.30276274410551, 30.727349973322646], [111.30276099582346, 30.727351319607862], [111.30275928441358, 30.727352701865755], [111.30275760717802, 30.72735411560012], [111.30275597041174, 30.727355565307107], [111.30275437141722, 30.72735704738983], [111.30275281379136, 30.727358555553053], [111.30275129393726, 30.72736009878969], [111.30274981814972, 30.72736167170393], [111.30274838463032, 30.727363273396406], [111.30274699337912, 30.7273649020687], [111.30274564529532, 30.72736655772053], [111.30274434127853, 30.72736824035212], [111.30274308312687, 30.72736994816472], [111.3027418708408, 30.72737168115816], [111.30274070531942, 30.727373434836295], [111.30273958656278, 30.727375214594645], [111.30273851457088, 30.727377014138085], [111.30273749114241, 30.727378837063725], [111.30273651717664, 30.727380677076667], [111.30273559177431, 30.727382537774076], [111.30273471583462, 30.72738441555839], [111.30273389115632, 30.727386310430006], [111.30273311594073, 30.72738821969068], [111.30273239288567, 30.72739014513911], [111.30273172109219, 30.72739208587609], [111.3027310996606, 30.72739403830434], [111.30273053218849, 30.72739600242369], [111.3027300159776, 30.727397974636858], [111.3027295528268, 30.727399960339994], [111.30272914093729, 30.727401953237575], [111.30272878390645, 30.727403954229146], [111.3027284808349, 30.72740596061675], [111.30272823531999, 30.727407975098117], [111.3027280275765, 30.727409989579485], [111.30272788638297, 30.727412011255467], [111.30272779734997, 30.72741403562941], [111.30272776137718, 30.727416060003293], [111.30272778026284, 30.727418084377234], [111.30272785130933, 30.727420106053216], [111.30272797631511, 30.7274221277292], [111.30272815617957, 30.727424145807674], [111.30272839000338, 30.72742616118842], [111.30272867778632, 30.72742817117313], [111.30272901773003, 30.72743017306408], [111.30272941073389, 30.72743216865979], [111.30272985769687, 30.727434156161507], [111.30273035682069, 30.727436133770652], [111.30273090810499, 30.727438103285863], [111.3027315133487, 30.727440059311448], [111.30273216895455, 30.72744200184701], [111.30273287672105, 30.727443931792095], [111.30273363395014, 30.727445848247385], [111.30273444423926, 30.727447747615486], [111.30273530219262, 30.72744963079583], [111.30273621230634, 30.727451495989897], [111.30273717188311, 30.72745334499598], [111.30273817822444, 30.72745517061975], [111.30273923402842, 30.72745697825701], [111.30274033839606, 30.727458764310597], [111.3027414904276, 30.727460526981872], [111.30274268832449, 30.72746226896868], [111.30274393208691, 30.72746398307646], [111.30274522081532, 30.727465673801873], [111.30274655540927, 30.727467340245596], [111.30274793227125, 30.72746897791103], [111.30274935230085, 30.727470587697496], [111.30275081459854, 30.727472167806354], [111.30275232096301, 30.72747372003613], [111.30275386689755, 30.72747524168915], [111.30275545330164, 30.727476731865863], [111.30275707837666, 30.7274781923648], [111.30275874032367, 30.72747961689089], [111.30276044184103, 30.72748100904147], [111.3027621802305, 30.72748236881631], [111.3027639527943, 30.727483691718987], [111.30276576133093, 30.72748498044757], [111.30276760224325, 30.72748623140461], [111.3027694773296, 30.727487446388636], [111.302771382993, 30.727488622701912], [111.30277332103208, 30.727489763042172], [111.3027752887487, 30.727490863812307], [111.30277728524356, 30.72749192321379], [111.30277931141626, 30.72749293764906], [111.30279226974756, 30.72750212602233], [111.3027907705777, 30.727681949062685], [111.30278877768012, 30.727699762833765], [111.30277919270571, 30.727750722917563], [111.30276886938782, 30.727791676244863], [111.30271539300117, 30.727922642715782], [111.30274441772082, 30.72801883689999], [111.30274051106574, 30.728028289674], [111.30269671857877, 30.72811427025755], [111.30269768804789, 30.728191173084213], [111.30269822674182, 30.728296379374513], [111.30269806666257, 30.72844370721151], [111.30269833735855, 30.7285235733043], [111.30269586512208, 30.728528417052985], [111.30267182804255, 30.72857551185058], [111.30263286131759, 30.728648982864343], [111.30254250283423, 30.728821841554918], [111.30254038672962, 30.72882381286871], [111.30251098069738, 30.72888634093198], [111.30247719676527, 30.728952025615627], [111.30244796610077, 30.72901112995976], [111.30241904570244, 30.72906936825683], [111.30238663593462, 30.729135001679083], [111.3023549429264, 30.729198956066966], [111.30254407215136, 30.7292706581145], [111.30254052432588, 30.72927783920096], [111.30253472010139, 30.72928963380963], [111.3025294617654, 30.729293981132514], [111.30251657358104, 30.729299555130467], [111.30250895182678, 30.72930163796036], [111.30250122485182, 30.729296856264966], [111.30250240116487, 30.72930829114489], [111.30250427715083, 30.729321720720918], [111.30250575833418, 30.729331435197764], [111.30250821438273, 30.729339421177485], [111.30251226582845, 30.729364562624596], [111.30251507980722, 30.729374261812893], [111.30251353207387, 30.729424072562892], [111.30251352038277, 30.7294658550652], [111.30251454111334, 30.72948845322958], [111.30251570933262, 30.729499314341922], [111.30252040739089, 30.729501839638374], [111.30251475425268, 30.729562855041763], [111.30252085165597, 30.7296102951791], [111.30252658573335, 30.729655737022824], [111.30252892307152, 30.729676603992118], [111.30253424076267, 30.72968629868393], [111.30254391656865, 30.729698767783987], [111.30255110664825, 30.729711282749577], [111.30255767619582, 30.729726666552608], [111.30256526737332, 30.7297460478419], [111.3025794020179, 30.729781384003786], [111.30258707593288, 30.729806486780035], [111.30258679534438, 30.7298102108727], [111.30258840962745, 30.729827202663444], [111.30259145293331, 30.729839952351995], [111.30259664202146, 30.729855767829463], [111.30260200018228, 30.729873122946458], [111.30260620181491, 30.729886622669596], [111.30260869563483, 30.7299006961602], [111.30260991601489, 30.729916421705525], [111.30261121103871, 30.72993730036609], [111.30261242242545, 30.72995245484202], [111.30261427143154, 30.729965598433807], [111.30261954415676, 30.729985575973615], [111.30262439689858, 30.729999546941656], [111.30263498281829, 30.730019180940587], [111.3026518244223, 30.730057636850518], [111.30268069086134, 30.73012054172972], [111.30270549416332, 30.730177468815157], [111.30272673974724, 30.730223657995452], [111.3027309233936, 30.730237632560772], [111.30273348736057, 30.730248818328448], [111.30273694165663, 30.73026389096583], [111.30274222967023, 30.73028557901631], [111.30274531524412, 30.73029241206524], [111.3027490582225, 30.7302986686488], [111.3027548687424, 30.730310338251684], [111.30275799118851, 30.73031974785812], [111.30275985368445, 30.730334030890788], [111.30276347975087, 30.730355450043987], [111.30276667414279, 30.730370008269404], [111.30277257099755, 30.73038768534343], [111.30278062712432, 30.730393610077215], [111.30279807666994, 30.730406304007886], [111.30281518627203, 30.730418429566953], [111.30283210162025, 30.730428001051507], [111.30285455229591, 30.730454359281282], [111.30286573716421, 30.73047904387289], [111.30286655105061, 30.73048084071837], [111.30287485718895, 30.730504500982022], [111.30288175139185, 30.730522168163702], [111.30288290881924, 30.730533599446062], [111.3028820868389, 30.7305459093663], [111.30287398394739, 30.73056000983661], [111.30298956841403, 30.73058366740247], [111.30297613434112, 30.7305970070463], [111.30303083920205, 30.73063960973036], [111.3030195086435, 30.730650773014872], [111.30303626840919, 30.73066471790247], [111.30305514787693, 30.730682809564144], [111.30308643978753, 30.730710336013317], [111.30310516457189, 30.730726807096516], [111.3031204116777, 30.730740218686208], [111.30314223642523, 30.73075941561467], [111.30318487867919, 30.730764607400886], [111.30319510756823, 30.730774750854096], [111.30320749842741, 30.730790774075047], [111.30321729474247, 30.730787412409256], [111.30327036373649, 30.73076919933908], [111.30343866376336, 30.730711759640087], [111.30353204936466, 30.730679482971766], [111.3037006281815, 30.73068260541794], [111.30381502194587, 30.730685866359636], [111.30397815896492, 30.730689561673955], [111.30415691361071, 30.730693738125638], [111.30437793909073, 30.730699202406413], [111.30462134869646, 30.73070556061316], [111.30478063841582, 30.730709333269147], [111.30483481627374, 30.73071363562582], [111.30487158775367, 30.73071515637946], [111.30500034099305, 30.730719447944296], [111.30503711966753, 30.73072015391199], [111.30503826900099, 30.73065032155523], [111.305059832945, 30.73064717392799], [111.30508621725522, 30.730648779217915], [111.3051252028659, 30.730655731876652], [111.30515447399983, 30.730660918266835], [111.30518917524029, 30.730666526439222], [111.30522154274007, 30.73067175599681], [111.3052537708449, 30.730677415430478], [111.30527538784906, 30.7306825469621], [111.30529030760181, 30.73068816232893], [111.305296393314, 30.730691388197044], [111.30530354921956, 30.730695183336195], [111.30531501737414, 30.73070804633926], [111.30531994026308, 30.730718298610668], [111.30532020466387, 30.730724855567757], [111.30531927836216, 30.730730866636236], [111.30531630970006, 30.730739994755083], [111.30531086160704, 30.730753358680715], [111.30530325334263, 30.730765404200156], [111.30529495619743, 30.73077602429413], [111.30527960297138, 30.730788657970265], [111.30527034085372, 30.730794088076777], [111.30525964521644, 30.730799339218322], [111.30524458876687, 30.730804327757653], [111.30522551774351, 30.730808710154008], [111.30520513011271, 30.730811498052276], [111.30519173201287, 30.73081220312082], [111.30517500911941, 30.73081219142955], [111.30515823226676, 30.730811128430958], [111.30514720657851, 30.73081157089746], [111.30514168204303, 30.73081714219751], [111.30514032766416, 30.730827289248168], [111.30514109118855, 30.730840276357696], [111.30513992926444, 30.730849766003928], [111.30513432199143, 30.730852478359225], [111.30512404633765, 30.730854077353968], [111.30511146392308, 30.730854758140765], [111.30510071522588, 30.730855992010447], [111.30509591644352, 30.73085876012385], [111.3050884259901, 30.730865503240466], [111.30508456879784, 30.730873548575573], [111.30508421986099, 30.730875397581656], [111.30508363530157, 30.73087954075828], [111.30514210472444, 30.730883677639724], [111.30524869686985, 30.730891221153115], [111.30525641125456, 30.730888378396116], [111.30529721439495, 30.730882361032286], [111.3053368412223, 30.730870909964608], [111.30536920692356, 30.730872622273864], [111.30539840071566, 30.73087518534163], [111.30543430884632, 30.730879576731127], [111.30544151331537, 30.730891221153115], [111.30544545324517, 30.730897590151756], [111.30548044316811, 30.73089572405854], [111.30551606711299, 30.730895109821518], [111.3055150167047, 30.730924830616573], [111.3055248103218, 30.730953151167114], [111.30554560444625, 30.730972582818595], [111.30558969370952, 30.73100028733353], [111.30562909390767, 30.731029213127727], [111.30565305724298, 30.7310534759373], [111.30569030896078, 30.73109560198054], [111.30570729805356, 30.73111743392252], [111.3057256118476, 30.731140703880556], [111.30575164632154, 30.73116740655064], [111.30577319137973, 30.731187758208648], [111.30578554087003, 30.731202358701864], [111.30579157442168, 30.731209483131295], [111.30580514609079, 30.73122607922022], [111.30581697577293, 30.731240543916158], [111.30581700275258, 30.731240578989627], [111.30583810714302, 30.731270799807646], [111.30584082129707, 30.731293728023218], [111.30583709270769, 30.731319283158484], [111.30581276424772, 30.731348691888684], [111.30578272239484, 30.73137776427251], [111.30574998257578, 30.731400345349755], [111.30572168001157, 30.731420693410428], [111.3056818472395, 30.73144238415881], [111.30566286884641, 30.731441269898824], [111.30564632401865, 30.731440298630957], [111.30562157017937, 30.731446084868935], [111.30561392504273, 30.73144787092258], [111.30557513458496, 30.73145428938409], [111.30552853621305, 30.73145547738841], [111.30551025389514, 30.73144333114493], [111.30550165098049, 30.731437614154686], [111.30548311685249, 30.7314694213768], [111.30546858021091, 30.731502967887764], [111.30544605579092, 30.731533014237357], [111.30544601172409, 30.731533069995237], [111.30542401790416, 30.731557631379644], [111.30540409072626, 30.731572739989986], [111.30540266979745, 30.73157381378047], [111.30538451788118, 30.731586481630927], [111.30536330916942, 30.731602994982325], [111.30536325071364, 30.73160303994848], [111.30534659077261, 30.731623352036138], [111.30533394630476, 30.731641125337717], [111.30531593018623, 30.731659771881027], [111.30530180723275, 30.731680188290227], [111.3052890305645, 30.73170883889196], [111.30529385992378, 30.731739035428234], [111.30531092725766, 30.73178850443594], [111.30533427365782, 30.73185383029022], [111.30535683495003, 30.731883390106475], [111.30539843399072, 30.7318957359995], [111.30542044939426, 30.73189692310467], [111.30543509035721, 30.731897712709326], [111.30545284477307, 30.731898942082523], [111.30547310829746, 30.731900341427718], [111.30549565430107, 30.731903668919244], [111.30553219375594, 30.731913727836343], [111.30557952597445, 30.7319380895712], [111.30562116278645, 30.731967450637455], [111.30564456224681, 30.731984420844412], [111.30565988039922, 30.73199553016957], [111.30570015833575, 30.732028889621688], [111.30570020240259, 30.732028925594477], [111.30573422285624, 30.73206112312232], [111.30574029417937, 30.73206790760804], [111.30576151458223, 30.732091653307293], [111.30578149571954, 30.73212736718432], [111.30579426699194, 30.732159397438295], [111.30580190403475, 30.73219024238591], [111.30580321344758, 30.732222607187737], [111.30580008200832, 30.732251071629776], [111.30579497925487, 30.7322776627841], [111.3057732660235, 30.73231998128216], [111.3057703288377, 30.732324816037476], [111.30577005814172, 30.732325247712083], [111.30575382178154, 30.73235197826125], [111.30575076768395, 30.732378641361265], [111.30575172636117, 30.73238644477874], [111.30575419679889, 30.732406587793776], [111.30575327769179, 30.732442351133614], [111.30572931255773, 30.732489558346515], [111.30570675396365, 30.73251320601969], [111.3057057008574, 30.732514308588577], [111.30567433879975, 30.73254177298446], [111.30564774314894, 30.732571867897548], [111.30562048020113, 30.732615062335412], [111.30560897517415, 30.73263358387277], [111.30559693415137, 30.732652968759567], [111.3055706919339, 30.732686095287193], [111.30554283183636, 30.73271084642846], [111.30551310564545, 30.732733832200665], [111.30547500766556, 30.732756388996222], [111.3054386813501, 30.73276741918113], [111.30539084101468, 30.732776767633823], [111.305335139705, 30.73278866476511], [111.30533379431932, 30.732788948051564], [111.30532100955708, 30.73279179440584], [111.30527249023322, 30.732802574579182], [111.3052271437179, 30.73281351573121], [111.30516939015524, 30.732825694350367], [111.30513735720331, 30.732828458866436], [111.30509409171896, 30.732839587976684], [111.30504312444077, 30.732846311308265], [111.30500103886698, 30.732854924115486], [111.30495760610876, 30.732870804344316], [111.3049575098812, 30.73287088528332], [111.30492564330393, 30.732897965668712], [111.30490581685001, 30.73290539586742], [111.30487465803918, 30.73291707266486], [111.30483029358328, 30.73292934121622], [111.30478810458749, 30.73293406895226], [111.30476136594439, 30.73293629027762], [111.30472686705139, 30.73294751561542], [111.30469244370136, 30.732963355374636], [111.30468117789422, 30.73294638426836], [111.30468294506198, 30.732920532356786], [111.30465133209339, 30.732922060304873], [111.30461406868449, 30.73293642787388], [111.30459870376734, 30.732957397366135], [111.30459643297917, 30.73296175638012], [111.30457839167951, 30.732996379379472], [111.30452312833984, 30.73301230277559], [111.30449234634472, 30.733013177816076], [111.30447199468693, 30.733015282229644], [111.30444994870624, 30.733048823344575], [111.30442904126727, 30.733089404352654], [111.30441389758346, 30.733112775034726], [111.3043973185815, 30.73313746861936], [111.30438617598139, 30.733158745679646], [111.30437612335953, 30.73318083123047], [111.30436617685763, 30.733202976136624], [111.30436574518319, 30.733203936612426], [111.30435743814525, 30.73322340243817], [111.30434521096282, 30.733253429002673], [111.30434518578187, 30.733253489257265], [111.3043248673988, 30.733294815803163], [111.30430061088452, 30.733330785087787], [111.3042803590514, 30.7333705036458], [111.30427776540665, 30.733375593808773], [111.30427152141357, 30.733407654639734], [111.30427229303189, 30.733557970923812], [111.30435386064215, 30.733563935227494], [111.30435428602158, 30.73358237672545], [111.30437293796092, 30.733572402344635], [111.30491712582477, 30.733549646798735], [111.30526517694636, 30.733532125307477], [111.30553311466161, 30.733517174977806], [111.3056656729326, 30.73350015800594]]]}}, {"type": "Feature", "properties": {"社区": "朝阳路社区"}, "geometry": {"type": "Polygon", "coordinates": [[[111.33723898858864, 30.74318839882568], [111.3410335430637, 30.74252971827201], [111.34104754011202, 30.74256463355107], [111.3426029769459, 30.742277510598797], [111.3424723666065, 30.741613137336458], [111.34228209344394, 30.74093585970229], [111.34191496140647, 30.740249505210613], [111.34141541858673, 30.739620771181706], [111.3408163522929, 30.73897320624866], [111.3405971290544, 30.738744684019935], [111.34050577142432, 30.7386494512113], [111.34058496302566, 30.738614340779236], [111.3393178371486, 30.737172197838674], [111.33928080756328, 30.737251394836107], [111.3392602607525, 30.737227944114352], [111.33889393180965, 30.73676113931532], [111.3385052403246, 30.73621801984592], [111.33807241281175, 30.73569410809671], [111.33765037536466, 30.735093797141076], [111.33753910224789, 30.734874525339137], [111.33753993232222, 30.734855103580344], [111.33744986701782, 30.734710880203124], [111.33705520133651, 30.73403412597429], [111.33692710190434, 30.733743301412346], [111.33678770608782, 30.733380907003266], [111.33665405244267, 30.73308054872848], [111.3365595067159, 30.73290418897733], [111.3365460789384, 30.73286986185468], [111.3365721745663, 30.732865071166145], [111.33660560686343, 30.73285893599126], [111.33440197916815, 30.729864261926252], [111.33454169963977, 30.729677688574498], [111.335223821922, 30.72880722757168], [111.33587347508086, 30.728137317183496], [111.33953858383865, 30.725640231711452], [111.33954624066655, 30.725714751334806], [111.34003436839146, 30.726263814423646], [111.340778042073, 30.727206937050596], [111.34156475281117, 30.727815825739924], [111.34161789285162, 30.727851550408843], [111.34300773302061, 30.728785874968253], [111.34457763185236, 30.72984120510762], [111.3454296702431, 30.730163512236345], [111.34583845887789, 30.730069017771086], [111.3458202332173, 30.7300457226321], [111.34583780866808, 30.730041421174803], [111.34585214026424, 30.730016471283193], [111.34677128966348, 30.728416081836826], [111.34677533931051, 30.728405596640982], [111.34710528618018, 30.72755095741087], [111.34750755383061, 30.726508974110004], [111.34778951107717, 30.72577861399202], [111.34797528762954, 30.725497178352214], [111.34930597579023, 30.723481233772077], [111.34936808566874, 30.723387142203023], [111.34932071028265, 30.72332510696816], [111.34897679963973, 30.722874782245583], [111.34897937979468, 30.72281233512126], [111.34899619172091, 30.722405179655482], [111.34902567689363, 30.72169131670097], [111.34871513739375, 30.72175497521198], [111.34732959598415, 30.72203896672511], [111.34731336771773, 30.721979875870602], [111.34716655789038, 30.72144524780009], [111.34636471875694, 30.720715911110517], [111.34617190231148, 30.720874135133386], [111.34585732305709, 30.72077009076719], [111.34551782628665, 30.720482721400515], [111.34484738979529, 30.719915212317233], [111.34428329903506, 30.71992904658839], [111.34402527994291, 30.72008424259377], [111.34226237400947, 30.721144591849622], [111.34220023085612, 30.721181972170314], [111.34193828712239, 30.720401956884928], [111.34184172511561, 30.720114410351812], [111.34173103655814, 30.720067247205748], [111.34114500863541, 30.719817548640947], [111.340764816643, 30.719655552861525], [111.3405321611304, 30.71955641789441], [111.3403735378086, 30.719488830245382], [111.33865949204198, 30.719397788277433], [111.33625698107488, 30.71974113324677], [111.33602346131386, 30.7197744989939], [111.33525209840576, 30.71967632540219], [111.33483102593124, 30.71962273120414], [111.3346621683246, 30.719601239205872], [111.33464736728223, 30.719580615952736], [111.33462418096133, 30.71958430227386], [111.33459779665111, 30.719580195070023], [111.33454934567595, 30.71956579602471], [111.33450729157835, 30.719554753249326], [111.33443171435226, 30.719535157921257], [111.33437712730273, 30.719521693271588], [111.3343315118899, 30.71951207861963], [111.33429768389101, 30.719507509164373], [111.33424767798795, 30.71950591826362], [111.33419679164876, 30.71950123189646], [111.33413182732204, 30.719488641387727], [111.33409243791579, 30.71949241224513], [111.33405531300235, 30.71950831225888], [111.33401459889473, 30.719539144615965], [111.33397996330484, 30.719561644754265], [111.33393910620492, 30.719588863635295], [111.33389788128221, 30.719613058995662], [111.33386928374046, 30.71962245870958], [111.33386398043848, 30.71962420339429], [111.33383976978973, 30.719627162163874], [111.33381256529776, 30.719615604976354], [111.33380890056043, 30.719614049149072], [111.33378619177944, 30.719587565014137], [111.33376791395824, 30.71954786803974], [111.33376483917618, 30.71952675375678], [111.33376798770263, 30.719501179735687], [111.33377482075139, 30.719457970908763], [111.33376831685445, 30.719425687045884], [111.33374989514175, 30.719398139013038], [111.33371316233257, 30.71937028880791], [111.33365993685663, 30.719341131887802], [111.33362477966006, 30.719331106245647], [111.33357835126009, 30.719328472131394], [111.33348009313187, 30.71930303660588], [111.33338097615126, 30.719284315418975], [111.33329420866085, 30.71927417376412], [111.33310060800676, 30.71926560322504], [111.33305801341669, 30.719277457189037], [111.33302138942571, 30.719294067667192], [111.3330038697328, 30.719307379432053], [111.33299193482998, 30.71931645179285], [111.33295609234989, 30.71935321877612], [111.33292471860096, 30.71938916108104], [111.33287327108468, 30.71945399860323], [111.33282781665048, 30.71952204940311], [111.33278413208217, 30.719605663870425], [111.33276987872705, 30.71963730921459], [111.33272644506951, 30.719747661425515], [111.33270662670958, 30.71982047233712], [111.33269587981107, 30.71987419783602], [111.33268821129195, 30.71993523392399], [111.33268155271156, 30.72008381811378], [111.33268031974103, 30.720173158564535], [111.33268041866654, 30.72022678423872], [111.33268200956712, 30.720288913902266], [111.33268556188926, 30.720321344354545], [111.33269280143173, 30.720354776651675], [111.33270146370177, 30.72038312328266], [111.33271869111485, 30.720417439613243], [111.33274468511917, 30.720454910765625], [111.33275962195899, 30.72047954589442], [111.33277205058977, 30.720505292585244], [111.33279904014364, 30.720564895153814], [111.3328107106459, 30.72060125384479], [111.33282655040506, 30.720662184712126], [111.33283342392355, 30.72069074807962], [111.33283526303711, 30.720725794659813], [111.33282541995715, 30.72076547904379], [111.33281072683366, 30.720794966015035], [111.3327907447972, 30.720819137992862], [111.33273706696218, 30.720873876128508], [111.33269492383181, 30.72092402322528], [111.33259011504185, 30.721062685194852], [111.33255153322682, 30.721114130013177], [111.33247614126105, 30.721212542824617], [111.33238445987502, 30.721335323666437], [111.33232631510742, 30.721404298969276], [111.33226337515481, 30.721469869439034], [111.33221531718334, 30.72152422356413], [111.33218145860747, 30.72157498669634], [111.33214355667985, 30.721646042131283], [111.3321281935614, 30.721684673409015], [111.33211407960113, 30.721732934627312], [111.33209851683313, 30.721799284809208], [111.3320871161277, 30.72184196393556], [111.33207588719262, 30.721875699304178], [111.33206497931548, 30.721903733870363], [111.33202761428299, 30.72198489408771], [111.33201177722174, 30.722014524950453], [111.33198869612153, 30.722053789350923], [111.33186766625983, 30.722234849858467], [111.33186067493034, 30.72224766609702], [111.33178833706222, 30.722380299911038], [111.33165202502107, 30.722567294145335], [111.33163113466924, 30.722595952841004], [111.33154897980165, 30.72264375360652], [111.33147456989565, 30.722684107085968], [111.33133536923202, 30.72274771163768], [111.33040066336002, 30.724784333430307], [111.33038382805142, 30.724821016776616], [111.33079213464941, 30.725230988919066], [111.33092354088888, 30.7253246703973], [111.33095359263433, 30.725348293788898], [111.33098515434153, 30.725374589965497], [111.33100896838931, 30.725396147614163], [111.33106605105752, 30.72545129943802], [111.33109200908899, 30.725477903182878], [111.33112061562389, 30.725512394881264], [111.33114224521853, 30.72553934576439], [111.33127574328091, 30.725667499155918], [111.33133638096939, 30.725722239989466], [111.33135815625388, 30.72575560393807], [111.33318618479473, 30.726486113343526], [111.33321248366929, 30.726533686580467], [111.33326627661751, 30.726666827612178], [111.3332775559146, 30.726696656325714], [111.33338822738483, 30.72692376841735], [111.33345507758986, 30.727054349978346], [111.33346507625237, 30.727079162273697], [111.33347453262371, 30.727113784373728], [111.33347474756164, 30.727152653971928], [111.3334690800342, 30.727185107806577], [111.33345888711801, 30.72721117735398], [111.33344091776416, 30.727244559289034], [111.33342340976259, 30.72727370181991], [111.33340342862545, 30.727300087029505], [111.33338066858306, 30.727321368586274], [111.33335945897193, 30.727333498642167], [111.33331490655775, 30.72735130611801], [111.33318999432288, 30.727400026889825], [111.33313833996243, 30.727435947610957], [111.33311040701972, 30.727455407141463], [111.33308296240887, 30.72747537928541], [111.33315737861028, 30.72753342512749], [111.33320889627362, 30.727580805909497], [111.33323682022319, 30.72760816508486], [111.33326866791481, 30.727642851036933], [111.33331995355309, 30.727688877439846], [111.33335259444681, 30.727715267145925], [111.33341966498563, 30.727768339737224], [111.33345337157584, 30.727796912997235], [111.33356521756076, 30.727894221441204], [111.33359850776498, 30.72792597560334], [111.33362936530301, 30.72795802204513], [111.33364788414264, 30.727981713785255], [111.33366606663583, 30.728002505211634], [111.33369855194661, 30.728034032744574], [111.33372261780471, 30.72805557060815], [111.33374765942699, 30.72807664891826], [111.33377453206907, 30.72809873896574], [111.33380286970674, 30.728121375800924], [111.33387705028576, 30.7281798749014], [111.33401180290247, 30.72828553894658], [111.33412449964612, 30.728374558339283], [111.3341572637467, 30.72840240494719], [111.3341906870507, 30.72842553820817], [111.33422662755686, 30.728445019322294], [111.33425953375058, 30.728461666672672], [111.3342841670808, 30.728478048723048], [111.33430795235017, 30.728499647740705], [111.33433934768294, 30.728540530920952], [111.33436724105553, 30.728564363854446], [111.33439754011442, 30.72858371276817], [111.33443003621727, 30.728601436607107], [111.33447455535662, 30.728625018629828], [111.33450362684101, 30.728639788195665], [111.3345307962594, 30.72865103781521], [111.33450647409467, 30.728710988421483], [111.33449194105037, 30.728743925192134], [111.3344849937875, 30.728770287918564], [111.33448938427779, 30.72879498599997], [111.33450944455535, 30.72882038735105], [111.33458595707646, 30.728866961441213], [111.33460149826061, 30.728878959296594], [111.33462632044848, 30.728898123849376], [111.33474267383548, 30.728970129867776], [111.3347124593127, 30.728997750745577], [111.33468033462987, 30.729023147600344], [111.33461381987206, 30.72909421112911], [111.33459090604549, 30.729116633925685], [111.33454126796516, 30.729134197685198], [111.33439999166643, 30.729010717171036], [111.33427995375706, 30.728936261399383], [111.33400811118548, 30.7288140947947], [111.3339360781876, 30.728791958881857], [111.33388369987296, 30.728792129753174], [111.3338899654496, 30.728825419957218], [111.3337674903774, 30.728925404783695], [111.33370086230508, 30.728965954315413], [111.33355007657491, 30.729063385067207], [111.33307819600208, 30.728625344184366], [111.33299649888932, 30.728725070905455], [111.33293630366757, 30.72873565232868], [111.33260164974644, 30.72900479513521], [111.3322865785629, 30.729265628206235], [111.3319418891071, 30.72954080636316], [111.33193627374004, 30.729545290382873], [111.33188774272531, 30.72957814081866], [111.33184216868119, 30.72956320487799], [111.33169299993205, 30.729420782842965], [111.33163312396954, 30.72937593275327], [111.3315829840675, 30.729350690582066], [111.33153752513687, 30.729323387164754], [111.33151173078193, 30.729305043692932], [111.33144502087112, 30.729261082133405], [111.33138612337109, 30.72921585163033], [111.33135463810618, 30.729196803089962], [111.33132622492542, 30.72917500622168], [111.33130173278892, 30.729156853406096], [111.33126599193207, 30.72912679896268], [111.33123051997262, 30.72909065341105], [111.33120367790752, 30.72906135889474], [111.3311801363543, 30.729032374644532], [111.33115751300898, 30.729001204142264], [111.33113722160556, 30.728971871854583], [111.33111199832024, 30.728933448320163], [111.3310968087709, 30.728909376166825], [111.33107035341419, 30.728875192935845], [111.33103987089333, 30.728844785058925], [111.33100988389913, 30.728824018813498], [111.33097666833868, 30.728795116401614], [111.33095690573663, 30.728776038183696], [111.33093602257958, 30.728755664942128], [111.33089292886575, 30.72871343098018], [111.3307920357239, 30.72863061241287], [111.33074297500843, 30.7285872533991], [111.33066312330448, 30.728503545402475], [111.33064295780645, 30.728479609046815], [111.33059713285138, 30.72841629767413], [111.33057714631843, 30.728393655442915], [111.33051525227705, 30.728329754114952], [111.33045599774618, 30.728277246298035], [111.3303478191965, 30.728165251025587], [111.33029302890031, 30.72811346986083], [111.33027479064924, 30.72809844938405], [111.33022682171054, 30.728063625835716], [111.33010841337261, 30.72799956712646], [111.33005910714206, 30.727977901558972], [111.32991972211767, 30.72793461539021], [111.32988324471614, 30.727925076281338], [111.3298482161224, 30.727915915786923], [111.32921073528735, 30.728790862608207], [111.32969960135568, 30.72908605158017], [111.32970249267595, 30.7291242287003], [111.32969458583648, 30.729317439947977], [111.32951847789548, 30.729523130188284], [111.32935882305128, 30.72961195712628], [111.3291763128367, 30.72964093777921], [111.32909558789117, 30.729660998956092], [111.32908813610874, 30.729670880706635], [111.3283640532585, 30.730631235243493], [111.32799165569043, 30.73197788277315], [111.32797581413269, 30.732035172285464], [111.32821655994638, 30.7321583434329], [111.3297576732781, 30.732946787164565], [111.3306407688566, 30.733398572386193], [111.33103637522862, 30.733600957618194], [111.33138161596878, 30.73377757727343], [111.33140995900249, 30.733792077042835], [111.33148504969546, 30.73383049068468], [111.33134897957194, 30.734067320850272], [111.33134223735448, 30.734079055204404], [111.3314548162868, 30.73417573142501], [111.33156390944686, 30.73426941380245], [111.33201778289452, 30.734497362263596], [111.33247093868295, 30.73451529474505], [111.33255254586334, 30.734528505786045], [111.332703140038, 30.73455288640656], [111.33262699444043, 30.73490628939379], [111.33255055386513, 30.735173778347303], [111.3325514136169, 30.735424354650263], [111.33255173287631, 30.735517438079455], [111.33275943939674, 30.73577324483955], [111.33280699104989, 30.735831807791726], [111.33297443042568, 30.736318232200745], [111.33273284374593, 30.736767521803813], [111.33241116973971, 30.736883828426073], [111.33398552471238, 30.73945621233446], [111.33403902088429, 30.739412309230715], [111.33654070458999, 30.743489050279436], [111.3369773371345, 30.743269504184354], [111.33724247795811, 30.7432137830898], [111.33723898858864, 30.74318839882568]]]}}]}