{"type": "FeatureCollection", "features": [{"type": "Feature", "properties": {"社区": "汕头路社区"}, "geometry": {"type": "Polygon", "coordinates": [[[111.33448938427779, 30.72879498599997], [111.3344849937875, 30.728770287918564], [111.33449194105037, 30.728743925192134], [111.33450647409467, 30.728710988421483], [111.3345307962594, 30.72865103781521], [111.33450362684101, 30.728639788195665], [111.33447455535662, 30.728625018629828], [111.33443003621727, 30.728601436607107], [111.33439754011442, 30.72858371276817], [111.33436724105553, 30.728564363854446], [111.33433934768294, 30.728540530920952], [111.33430795235017, 30.728499647740705], [111.3342841670808, 30.728478048723048], [111.33425953375058, 30.728461666672672], [111.33422662755686, 30.728445019322294], [111.3341906870507, 30.72842553820817], [111.3341572637467, 30.72840240494719], [111.33412449964612, 30.728374558339283], [111.33401180290247, 30.72828553894658], [111.33387705028576, 30.7281798749014], [111.33380286970674, 30.728121375800924], [111.33377453206907, 30.72809873896574], [111.33374765942699, 30.72807664891826], [111.33372261780471, 30.72805557060815], [111.33369855194661, 30.728034032744574], [111.33366606663583, 30.728002505211634], [111.33364788414264, 30.727981713785255], [111.33362936530301, 30.72795802204513], [111.33359850776498, 30.72792597560334], [111.33356521756076, 30.727894221441204], [111.33345337157584, 30.727796912997235], [111.33341966498563, 30.727768339737224], [111.33335259444681, 30.727715267145925], [111.33331995355309, 30.727688877439846], [111.33326866791481, 30.727642851036933], [111.33323682022319, 30.72760816508486], [111.33320889627362, 30.727580805909497], [111.33315737861028, 30.72753342512749], [111.33308296240887, 30.72747537928541], [111.33311040701972, 30.727455407141463], [111.33313833996243, 30.727435947610957], [111.33318999432288, 30.727400026889825], [111.33331490655775, 30.72735130611801], [111.33335945897193, 30.727333498642167], [111.33338066858306, 30.727321368586274], [111.33340342862545, 30.727300087029505], [111.33342340976259, 30.72727370181991], [111.33344091776416, 30.727244559289034], [111.33345888711801, 30.72721117735398], [111.3334690800342, 30.727185107806577], [111.33347474756164, 30.727152653971928], [111.33347453262371, 30.727113784373728], [111.33346507625237, 30.727079162273697], [111.33345507758986, 30.727054349978346], [111.33338822738483, 30.72692376841735], [111.3332775559146, 30.726696656325714], [111.33326627661751, 30.726666827612178], [111.33321248366929, 30.726533686580467], [111.33318618479473, 30.726486113343526], [111.33135815625388, 30.72575560393807], [111.33133638096939, 30.725722239989466], [111.33127574328091, 30.725667499155918], [111.33114224521853, 30.72553934576439], [111.33112061562389, 30.725512394881264], [111.33109200908899, 30.725477903182878], [111.33106605105752, 30.72545129943802], [111.33100896838931, 30.725396147614163], [111.33098515434153, 30.725374589965497], [111.33095359263433, 30.725348293788898], [111.33092354088888, 30.7253246703973], [111.33079213464941, 30.725230988919066], [111.33038382805142, 30.724821016776616], [111.33040066336002, 30.724784333430307], [111.33133536923202, 30.72274771163768], [111.33147456989565, 30.722684107085968], [111.33154897980165, 30.72264375360652], [111.33163113466924, 30.722595952841004], [111.33165202502107, 30.722567294145335], [111.33178833706222, 30.722380299911038], [111.33186067493034, 30.72224766609702], [111.33186766625983, 30.722234849858467], [111.33198869612153, 30.722053789350923], [111.33201177722174, 30.722014524950453], [111.33202761428299, 30.72198489408771], [111.33206497931548, 30.721903733870363], [111.33207588719262, 30.721875699304178], [111.3320871161277, 30.72184196393556], [111.33209851683313, 30.721799284809208], [111.33211407960113, 30.721732934627312], [111.3321281935614, 30.721684673409015], [111.33214355667985, 30.721646042131283], [111.33218145860747, 30.72157498669634], [111.33221531718334, 30.72152422356413], [111.33226337515481, 30.721469869439034], [111.33232631510742, 30.721404298969276], [111.33238445987502, 30.721335323666437], [111.33247614126105, 30.721212542824617], [111.33255153322682, 30.721114130013177], [111.33259011504185, 30.721062685194852], [111.33269492383181, 30.72092402322528], [111.33273706696218, 30.720873876128508], [111.3327907447972, 30.720819137992862], [111.33281072683366, 30.720794966015035], [111.33282541995715, 30.72076547904379], [111.33283526303711, 30.720725794659813], [111.33283342392355, 30.72069074807962], [111.33282655040506, 30.720662184712126], [111.3328107106459, 30.72060125384479], [111.33279904014364, 30.720564895153814], [111.33277205058977, 30.720505292585244], [111.33275962195899, 30.72047954589442], [111.33274468511917, 30.720454910765625], [111.33271869111485, 30.720417439613243], [111.33270146370177, 30.72038312328266], [111.33269280143173, 30.720354776651675], [111.33268556188926, 30.720321344354545], [111.33268200956712, 30.720288913902266], [111.33268041866654, 30.72022678423872], [111.33268031974103, 30.720173158564535], [111.33268155271156, 30.72008381811378], [111.33268821129195, 30.71993523392399], [111.33269587981107, 30.71987419783602], [111.33270662670958, 30.71982047233712], [111.33272644506951, 30.719747661425515], [111.33276987872705, 30.71963730921459], [111.33278413208217, 30.719605663870425], [111.33282781665048, 30.71952204940311], [111.33287327108468, 30.71945399860323], [111.33292471860096, 30.71938916108104], [111.33295609234989, 30.71935321877612], [111.33299193482998, 30.71931645179285], [111.3330038697328, 30.719307379432053], [111.33302138942571, 30.719294067667192], [111.33305801341669, 30.719277457189037], [111.33310060800676, 30.71926560322504], [111.33329420866085, 30.71927417376412], [111.33338097615126, 30.719284315418975], [111.33348009313187, 30.71930303660588], [111.33357835126009, 30.719328472131394], [111.33362477966006, 30.719331106245647], [111.33365993685663, 30.719341131887802], [111.33371316233257, 30.71937028880791], [111.33374989514175, 30.719398139013038], [111.33376831685445, 30.719425687045884], [111.33377482075139, 30.719457970908763], [111.33376798770263, 30.719501179735687], [111.33376483917618, 30.71952675375678], [111.33376791395824, 30.71954786803974], [111.33378619177944, 30.719587565014137], [111.33380890056043, 30.719614049149072], [111.33381256529776, 30.719615604976354], [111.33383976978973, 30.719627162163874], [111.33386398043848, 30.71962420339429], [111.33386928374046, 30.71962245870958], [111.33389788128221, 30.719613058995662], [111.33393910620492, 30.719588863635295], [111.33397996330484, 30.719561644754265], [111.33401459889473, 30.719539144615965], [111.33405531300235, 30.71950831225888], [111.33409243791579, 30.71949241224513], [111.33413182732204, 30.719488641387727], [111.33419679164876, 30.71950123189646], [111.33424767798795, 30.71950591826362], [111.33429768389101, 30.719507509164373], [111.3343315118899, 30.71951207861963], [111.33437712730273, 30.719521693271588], [111.33443171435226, 30.719535157921257], [111.33450729157835, 30.719554753249326], [111.33454934567595, 30.71956579602471], [111.33459779665111, 30.719580195070023], [111.33462418096133, 30.71958430227386], [111.33464736728223, 30.719580615952736], [111.3346621683246, 30.719601239205872], [111.33483102593124, 30.71962273120414], [111.33525209840576, 30.71967632540219], [111.33602346131386, 30.7197744989939], [111.33625698107488, 30.71974113324677], [111.33865949204198, 30.719397788277433], [111.3403735378086, 30.719488830245382], [111.3405321611304, 30.71955641789441], [111.340764816643, 30.719655552861525], [111.34114500863541, 30.719817548640947], [111.34173103655814, 30.720067247205748], [111.34184172511561, 30.720114410351812], [111.34193828712239, 30.720401956884928], [111.34220023085612, 30.721181972170314], [111.34226237400947, 30.721144591849622], [111.34402527994291, 30.72008424259377], [111.34428329903506, 30.71992904658839], [111.34484738979529, 30.719915212317233], [111.34551782628665, 30.720482721400515], [111.34585732305709, 30.72077009076719], [111.34617190231148, 30.720874135133386], [111.34636471875694, 30.720715911110517], [111.34716655789038, 30.72144524780009], [111.34731336771773, 30.721979875870602], [111.34732959598415, 30.72203896672511], [111.34871513739375, 30.72175497521198], [111.34902567689363, 30.72169131670097], [111.34904245374622, 30.721025162781018], [111.34936945533616, 30.72046503533312], [111.3486567201316, 30.720154450867255], [111.34855899799953, 30.719972437078354], [111.34843524678934, 30.71974193993873], [111.3496581161292, 30.717668555659372], [111.34872371692603, 30.716163763247266], [111.3485878437541, 30.715944941106216], [111.34795828324832, 30.715895148342554], [111.34743567281822, 30.71585381280329], [111.34774778433297, 30.715310287739555], [111.34768186492613, 30.714740178716454], [111.34747326627826, 30.714212721839715], [111.34743476810013, 30.71411536483231], [111.34676815822405, 30.713767616782206], [111.34633734789048, 30.713753661102544], [111.34635665273743, 30.713308807855356], [111.34633943701544, 30.712959324113683], [111.34620956771755, 30.712506637771185], [111.34615618036344, 30.712320541060194], [111.34536265726092, 30.71220307611111], [111.34284124242953, 30.713826086204904], [111.34245538920499, 30.714074448377175], [111.34183818358537, 30.713358615907453], [111.3431293942063, 30.712297870050747], [111.34425170225438, 30.71137585181424], [111.34275956600123, 30.711376268200297], [111.34233465072373, 30.711197365166413], [111.34197843105983, 30.71071625305268], [111.34152517364794, 30.71010407644212], [111.34146850376845, 30.71004502515791], [111.34139582325867, 30.70996928875178], [111.34124318402587, 30.709810233755434], [111.34029446761576, 30.709966151017113], [111.33913744034066, 30.71057117172228], [111.33855099783028, 30.710370261378614], [111.33865386498405, 30.70990141421896], [111.3387809562762, 30.709322162687783], [111.3390627966109, 30.708037559385957], [111.33793171387765, 30.70748400238483], [111.33787506917929, 30.707456278084862], [111.33787100244479, 30.70745428878456], [111.33782969298602, 30.7075173060789], [111.33681648619199, 30.70906296278548], [111.33644674971782, 30.709626983398664], [111.33526369786154, 30.70983965867339], [111.33379561127856, 30.709102907073543], [111.33379671834393, 30.70735705768209], [111.33277307671631, 30.706477811202205], [111.3321839362398, 30.705998566980327], [111.33237264368273, 30.7056768489075], [111.33247569519727, 30.70550116364791], [111.33212708020062, 30.703991707351406], [111.33225111919393, 30.70310242533685], [111.33226875220134, 30.702835987690833], [111.32903760769955, 30.702784067131063], [111.32903573531104, 30.70278374517386], [111.3290536605981, 30.702850629552984], [111.3290829461211, 30.70334218639283], [111.32913586582754, 30.704287129247803], [111.32917145290043, 30.705007777587014], [111.32912811996692, 30.7052608629985], [111.32908311339509, 30.705328825664935], [111.32924744381461, 30.70762240175253], [111.32925862958228, 30.707778560932013], [111.32705778169134, 30.710348317920705], [111.32700882619656, 30.71040547793058], [111.32699074802468, 30.7104265859183], [111.32705547133304, 30.710565587831752], [111.32683980041651, 30.710704419773265], [111.3256348680548, 30.711949262248766], [111.32551866305596, 30.71206931274861], [111.32548126384938, 30.71210795032175], [111.32542653740484, 30.712164488000838], [111.32457427868007, 30.713051741145023], [111.32457232715137, 30.713053782606096], [111.324051430829, 30.713599071240253], [111.32404833985908, 30.713602306101677], [111.32274249277191, 30.71496926392041], [111.32239309086856, 30.715335009203386], [111.32238185024238, 30.71534677593303], [111.32212360901752, 30.71561709415363], [111.32154898269943, 30.716212348221347], [111.32067913503425, 30.717113405958912], [111.32071845159544, 30.717149915736172], [111.32107797536833, 30.717483771958655], [111.32134613971277, 30.717732788837225], [111.32141097183893, 30.717792992153022], [111.32172213187107, 30.718081931735867], [111.32193302199153, 30.718277760010665], [111.3224350388461, 30.718743919096767], [111.32247429875002, 30.71878037581388], [111.32433968512856, 30.720512462880038], [111.32533089360601, 30.721432805679513], [111.32634581270923, 30.72237513780243], [111.32744531664815, 30.723395975344033], [111.33278192424649, 30.7283503153148], [111.33307819600208, 30.728625344184366], [111.33355007657491, 30.729063385067207], [111.33370086230508, 30.728965954315413], [111.3337674903774, 30.728925404783695], [111.3338899654496, 30.728825419957218], [111.33388369987296, 30.728792129753174], [111.3339360781876, 30.728791958881857], [111.33400811118548, 30.7288140947947], [111.33427995375706, 30.728936261399383], [111.33439999166643, 30.729010717171036], [111.33454126796516, 30.729134197685198], [111.33459090604549, 30.729116633925685], [111.33461381987206, 30.72909421112911], [111.33468033462987, 30.729023147600344], [111.3347124593127, 30.728997750745577], [111.33474267383548, 30.728970129867776], [111.33462632044848, 30.728898123849376], [111.33460149826061, 30.728878959296594], [111.33458595707646, 30.728866961441213], [111.33450944455535, 30.72882038735105], [111.33448938427779, 30.72879498599997]]]}}, {"type": "Feature", "properties": {"社区": "宝联社区"}, "geometry": {"type": "MultiPolygon", "coordinates": [[[[111.31750473775355, 30.67533165733022], [111.31753246295295, 30.67530832172173], [111.31753976185058, 30.675313463145926], [111.31768947918619, 30.675188300000116], [111.31781329604695, 30.674990254896443], [111.31794039633229, 30.674900334383096], [111.31804229671462, 30.674732659384915], [111.3180365896169, 30.674723356797585], [111.31785804811051, 30.674634492987593], [111.31772101391374, 30.674617443640216], [111.31767796966272, 30.674659691092018], [111.31767460799693, 30.674634760985498], [111.31792261493689, 30.67437887418572], [111.31795549505011, 30.674350162430073], [111.31800125615308, 30.67430215482068], [111.31800557469757, 30.67429998026006], [111.31808834919804, 30.674208612737402], [111.31809958892507, 30.67420126257838], [111.3181207382815, 30.67417859786417], [111.31814780427783, 30.674149595627455], [111.31822049737809, 30.674071005672488], [111.31826670364552, 30.674023498086], [111.31832509033069, 30.673960278444213], [111.31836371621256, 30.673919645275532], [111.31840202013723, 30.673877673016307], [111.31844555361948, 30.67383685728521], [111.31855170060066, 30.673734840890233], [111.31859348759957, 30.673688908016743], [111.31863392021933, 30.673637824725915], [111.31864776977886, 30.673627745124406], [111.31866728776521, 30.67362308393831], [111.31868312572584, 30.673612710258396], [111.31869131675091, 30.6735983588772], [111.31869846096538, 30.673574849699662], [111.31871493834376, 30.673556803004146], [111.31874940396187, 30.673522554122712], [111.31877179078566, 30.67350330773155], [111.31881309664715, 30.67346779800056], [111.31885427660364, 30.67341891265272], [111.31890194337018, 30.67337677042167], [111.31900579258331, 30.673264642049674], [111.31902337432933, 30.67325808958924], [111.31906573869293, 30.673222391000593], [111.3190740277443, 30.673253899647875], [111.31912111085063, 30.67331206509988], [111.31915961892128, 30.67337144463653], [111.31916528465035, 30.67337453380776], [111.31923131917023, 30.673437352352096], [111.31922717869134, 30.673453851314264], [111.3192417234269, 30.673466515567384], [111.31931442911781, 30.67351543868665], [111.31933660819806, 30.67352362521524], [111.31959200216926, 30.67334058799787], [111.31952699197717, 30.673234683833698], [111.31951933964598, 30.67320256994276], [111.31962240105304, 30.673104251560005], [111.3196277547172, 30.673032218562128], [111.3196714833523, 30.673049228339323], [111.31969056876488, 30.673054705210575], [111.31973995413568, 30.673071010818603], [111.3198377032474, 30.67309543460675], [111.31991198904717, 30.67318072541019], [111.31998499331291, 30.67324550087926], [111.32032438036595, 30.67294364343445], [111.32023508308276, 30.67286453367143], [111.3203162720784, 30.67281388205498], [111.3205338360678, 30.672783939127555], [111.3205366410532, 30.672782464239447], [111.32060258204365, 30.672632022949642], [111.32066029513658, 30.672459266781857], [111.3206243906032, 30.67243536729842], [111.32051076396073, 30.67234118399847], [111.32050279596734, 30.672334868059806], [111.32050060342021, 30.67233682228658], [111.32046980343881, 30.67230935699132], [111.32047213807886, 30.67230727865808], [111.32039275672048, 30.672235796944562], [111.32049893697649, 30.67215655588052], [111.32052672063173, 30.672135911043597], [111.32057636500724, 30.672108448446238], [111.32047491878251, 30.671979249143078], [111.32047274871854, 30.671980499200743], [111.32045142129624, 30.67195386487913], [111.32043097520943, 30.671935703969723], [111.32039369561261, 30.671902590931893], [111.3203927153516, 30.671902651186485], [111.32029915078522, 30.67182856413706], [111.3202753097579, 30.67178659637449], [111.32030337669954, 30.67175879023614], [111.32037357597989, 30.67177133487928], [111.32059824641203, 30.671951812626162], [111.3206433779896, 30.672000444364983], [111.32069139818952, 30.672038176320882], [111.32069091435432, 30.672038831926557], [111.32071165991533, 30.672055538632264], [111.32072534220089, 30.67205020835047], [111.32075154304931, 30.672041589248067], [111.32088432705012, 30.67199293682461], [111.32122288402905, 30.67186889783153], [111.3212324384263, 30.671863842742198], [111.32121125579482, 30.67181928942881], [111.32160764817456, 30.671731959862086], [111.32162691165269, 30.671791605598287], [111.32160796563528, 30.67181681269585], [111.32161227608577, 30.67181881188884], [111.32161611709029, 30.671853690295677], [111.32161353603595, 30.67188356757265], [111.3216241992975, 30.67192258016297], [111.32163096669592, 30.671947909568416], [111.3216321573982, 30.671952361212618], [111.32164325323373, 30.67199386222694], [111.32163179587087, 30.671995998116813], [111.32165767116476, 30.672123076818707], [111.32167738610252, 30.672212396584882], [111.32168515804369, 30.67221043696219], [111.32172127931375, 30.672281033742877], [111.32175252176165, 30.67228059577303], [111.32180955856433, 30.672281124574397], [111.32185981627748, 30.672278289012013], [111.32189419735948, 30.672274878782787], [111.32202857675759, 30.67226186199548], [111.32204696069869, 30.67229148386508], [111.32200012760399, 30.672525212268795], [111.32201911499021, 30.67290151829053], [111.32280495338597, 30.672946889987145], [111.3229187149268, 30.672957889594954], [111.32355500955623, 30.67301941941065], [111.3240094567712, 30.673063359386617], [111.32504095577565, 30.67316308790629], [111.32507327021528, 30.673166212151102], [111.3252824929927, 30.673186439702476], [111.32528460639958, 30.67315560015095], [111.3252321390521, 30.672965226264353], [111.32504500902013, 30.67280069529596], [111.32474090327014, 30.672712307227357], [111.32416119758136, 30.672548494817306], [111.3241610312067, 30.672548886022412], [111.3241192756841, 30.67252889409326], [111.32410664920252, 30.67252284885052], [111.3237349755887, 30.67242711781728], [111.32370591309746, 30.672437883601503], [111.32298429978579, 30.67213634091945], [111.32224358577298, 30.67171234564836], [111.32222099660191, 30.671698990715925], [111.32222058021569, 30.671699172378965], [111.32182462220868, 30.671464763188453], [111.32166841086865, 30.671372285002974], [111.32159515389338, 30.671328916096627], [111.32094062101305, 30.670941420710108], [111.32094796217876, 30.6709317835751], [111.32018075863522, 30.670249390597064], [111.31991020119494, 30.670012135951424], [111.31936355188657, 30.6694623093382], [111.31895385943312, 30.669088830785086], [111.31843856139062, 30.668593904185457], [111.31809401222898, 30.66826707526542], [111.31750357672888, 30.667750859914293], [111.31737663202608, 30.667639872781876], [111.31731444570511, 30.66769759217027], [111.31505847207092, 30.669791388362], [111.31415493220453, 30.67063001066657], [111.31476325432078, 30.671136094255473], [111.31541278966858, 30.671468913559693], [111.31574560987212, 30.671007260077147], [111.31578855519786, 30.670975051757353], [111.31589591626368, 30.670905267064484], [111.31598180511634, 30.670873058744746], [111.31613747866186, 30.67070584419946], [111.31582613067144, 30.67048118995507], [111.3159388597906, 30.670341619670126], [111.31624457172978, 30.67061458639421], [111.31605695786237, 30.670899899011317], [111.31642875018679, 30.67120361715331], [111.3163697375735, 30.671269437634464], [111.31625164040094, 30.671286347587], [111.31589734798433, 30.670948159330237], [111.31579664999538, 30.671053489726944], [111.31577136285819, 30.671027964269285], [111.3157663473392, 30.671034641735503], [111.31568862163277, 30.671138113233326], [111.3155887833957, 30.671287627322272], [111.31551677288081, 30.671412027842905], [111.3155121161912, 30.67143348027099], [111.31543684473479, 30.671516458018175], [111.31516096240853, 30.67135608191768], [111.31472430468295, 30.671157600642914], [111.3141570501079, 30.67069189661379], [111.312988196748, 30.6717916811412], [111.3144107335686, 30.67279550890578], [111.31481333756551, 30.673144434168307], [111.3149017580098, 30.673221358578985], [111.31535014469353, 30.67361145480487], [111.31538860330153, 30.673642728729135], [111.3156636213792, 30.673866370336782], [111.31681562594042, 30.674803165333913], [111.31690757892164, 30.674873685672083], [111.31750473775355, 30.67533165733022]]], [[[111.32979802226106, 30.689297716816327], [111.32984100625754, 30.688944399264756], [111.3308245021492, 30.68906600019585], [111.33154920643085, 30.689094648099683], [111.33156692307517, 30.689095347772138], [111.33161269317134, 30.689151829693344], [111.331753882236, 30.689128054316313], [111.33173519612257, 30.68910200005729], [111.33180120186404, 30.689079454053626], [111.33179561527544, 30.689069929333755], [111.33179002778763, 30.68906040191615], [111.33176032677784, 30.689009762890407], [111.33173008527535, 30.688943795819682], [111.33172933614003, 30.688942162650847], [111.33170014324713, 30.68888722756361], [111.33169415016499, 30.688792946237584], [111.33169745067687, 30.688697815052194], [111.33170999801797, 30.68860002187364], [111.33172012618297, 30.68856157405753], [111.3317399328518, 30.68848639792907], [111.33178485758526, 30.688369652437586], [111.33182478478597, 30.68829625966481], [111.33195630074272, 30.68816293337278], [111.33203418562931, 30.68804841190473], [111.33206932843694, 30.68799018979547], [111.33209203811708, 30.687959827783914], [111.33211280795985, 30.68792232515534], [111.33214378600701, 30.687897715207498], [111.33217347442633, 30.687869391958998], [111.33218277791303, 30.687865172339855], [111.33219207960099, 30.687860951821563], [111.33227861956266, 30.687888856885422], [111.33231689830626, 30.687818680987448], [111.33232733943527, 30.687795367862122], [111.33233057159879, 30.687783843049885], [111.33233380556067, 30.687772318238046], [111.33233929412319, 30.687746978940083], [111.3323397168046, 30.68773515285511], [111.33234013768731, 30.687723324971557], [111.3323375422438, 30.687704562415774], [111.33233583802854, 30.68769593521938], [111.33233413471265, 30.687687305324914], [111.33230073928775, 30.687602502853338], [111.33227207609559, 30.68754544986274], [111.33225215071639, 30.687512745117203], [111.33224362244528, 30.68750311877409], [111.33223509057711, 30.687493492430804], [111.33212903442745, 30.687401788561772], [111.33209313529011, 30.68736400714323], [111.33205657694958, 30.687320053677695], [111.33201064857275, 30.687259874643644], [111.33199067463005, 30.687228581833722], [111.33196648736367, 30.68718553308605], [111.33148687172189, 30.687064665102298], [111.33127091302225, 30.687207071849002], [111.33029044784598, 30.687159450048625], [111.32896251340946, 30.687211567559984], [111.32896586788064, 30.688202008915766], [111.3290551390835, 30.688469077885713], [111.32905753937399, 30.688484743176446], [111.32934286907818, 30.68842767669605], [111.32938688729519, 30.688823034855204], [111.32911706460084, 30.688873327642057], [111.3291793921154, 30.68928019262694], [111.32979802226106, 30.689297716816327]]], [[[111.32689680034719, 30.68551995718036], [111.32675791714428, 30.685222392199705], [111.32568179917587, 30.685532811190342], [111.3244387526463, 30.68605797389654], [111.32448549940636, 30.686076513420403], [111.3245130978014, 30.686087459069086], [111.32452033194784, 30.68609032700715], [111.32459642178753, 30.686120501959635], [111.3246209364072, 30.686146215375572], [111.32463332007177, 30.686159204283967], [111.32369055717362, 30.686871843261144], [111.32337220616245, 30.68712420561775], [111.32329287876343, 30.687187089812312], [111.32311550997281, 30.68732769341841], [111.32296104061959, 30.687686593061926], [111.3232639098016, 30.688116806245773], [111.32352124900649, 30.68848234378521], [111.3251446997682, 30.690162965348748], [111.32516441200806, 30.690183370965826], [111.32581504632748, 30.69025528705191], [111.32581734679326, 30.690343057286327], [111.3258092088281, 30.69037335184879], [111.32580830860667, 30.69037670272263], [111.3267531561333, 30.690332959698367], [111.32685962687043, 30.69019828262475], [111.32701131731852, 30.690006406870168], [111.32714328923157, 30.68983424335579], [111.32721868029796, 30.689261278085553], [111.32716164889115, 30.688726831678082], [111.32631022833453, 30.688461677364614], [111.32602242909195, 30.688281019753447], [111.32615376068765, 30.687917933765675], [111.32642903597133, 30.68765949289127], [111.32709708386352, 30.687213912092545], [111.32723356497723, 30.687122880916377], [111.327243195817, 30.686702821078427], [111.32710859158823, 30.68609220029498], [111.32697485520555, 30.685739326109115], [111.32689680034719, 30.68551995718036]]], [[[111.33347573231936, 30.69665477729626], [111.33497928906297, 30.695048117776537], [111.33603392762382, 30.695341312051994], [111.33781027392519, 30.69432641093522], [111.33863078568237, 30.69229553401169], [111.33738390804103, 30.69101751015006], [111.3355312983308, 30.693677355825287], [111.33558104343058, 30.693696005965933], [111.33561730319605, 30.69370960011804], [111.33565723309493, 30.69372457113218], [111.33476222869399, 30.695094853744536], [111.33465542790572, 30.695049999158186], [111.33177930157359, 30.693842067557398], [111.3317504998858, 30.6939020235597], [111.33160971101938, 30.69419510362121], [111.3314679589792, 30.69439239599228], [111.33133485481989, 30.69457765363586], [111.3311043792637, 30.694882350240334], [111.33105993117107, 30.694941111942853], [111.33090619116791, 30.6952087960492], [111.33086770468088, 30.69551638936997], [111.33086684313037, 30.69552328087474], [111.33347573231936, 30.69665477729626]]]]}}, {"type": "Feature", "properties": {"社区": "胜利二路社区"}, "geometry": {"type": "Polygon", "coordinates": [[[111.2947071559106, 30.68985165872715], [111.29492456071995, 30.689459598381916], [111.29492875695655, 30.689452026090123], [111.29505270062168, 30.689238929932742], [111.29518835885585, 30.68905580008527], [111.29536351891136, 30.688851285258693], [111.29547294931729, 30.688739943793564], [111.29556565323236, 30.688661925807367], [111.29566892058438, 30.688576008176312], [111.2957781900115, 30.68848509840859], [111.29620280581497, 30.688215788328023], [111.29638278713605, 30.688109198880568], [111.29643830678253, 30.68807632056587], [111.29643862424325, 30.68807613170827], [111.296811171998, 30.687854740204216], [111.29684307095101, 30.687836592784606], [111.29697533514366, 30.687756617873674], [111.29742521919866, 30.68748772238058], [111.29768222205695, 30.687326691573617], [111.29778335801575, 30.687267684356186], [111.29792546438881, 30.687180378172002], [111.29810964374519, 30.68706868237382], [111.29834067778012, 30.686928576092896], [111.2983985257714, 30.68689235230022], [111.29852950663155, 30.686810333230483], [111.29863985974185, 30.68673638197862], [111.29870763175188, 30.68668898321016], [111.29907054596896, 30.68642927788892], [111.29937026662452, 30.686231541252766], [111.29940254419216, 30.686202273716106], [111.29966061094859, 30.68602454159941], [111.29959193062314, 30.686034376585212], [111.29945256088712, 30.685862689711428], [111.29916239822614, 30.685508918002256], [111.29884193021098, 30.685107466036754], [111.2988334451075, 30.685096917888586], [111.29876723521983, 30.685014602042372], [111.29857612838566, 30.68477701015098], [111.29823870005612, 30.68434096216572], [111.29770146575015, 30.68464394466241], [111.29751106218595, 30.684752506323207], [111.29726509580769, 30.684892744804472], [111.29719783371308, 30.68479845268655], [111.29692061859186, 30.68444870724221], [111.29690558462505, 30.684421754560503], [111.29680010314235, 30.68423266130833], [111.29663860019139, 30.68401824314742], [111.29661703444862, 30.684029973004897], [111.2966104397201, 30.68403513691203], [111.29660847290285, 30.68403914339183], [111.29660789643737, 30.684039325954245], [111.29660665267494, 30.684039718957877], [111.29660121537387, 30.684044306399812], [111.29659795713002, 30.68405460003987], [111.29659799759952, 30.68405511625076], [111.2965986657959, 30.684063452966086], [111.29659677272298, 30.68408116871103], [111.29659901473292, 30.684129716813118], [111.29659678621283, 30.684146862387877], [111.2965931916226, 30.6841560147883], [111.29658761672522, 30.684166315623145], [111.29657939602237, 30.68417691233475], [111.29656754025996, 30.684189234845405], [111.296565560852, 30.684190385078352], [111.29656160833156, 30.68419468743491], [111.29654809062197, 30.68420559980865], [111.29652796469401, 30.684219396308208], [111.2964926438205, 30.68423982081123], [111.29638465143051, 30.684308466062987], [111.2963745691311, 30.684313638963317], [111.29633997940658, 30.684330600177077], [111.29630920100897, 30.68434669174661], [111.29629398088264, 30.684355881918407], [111.29626157561131, 30.684379123098097], [111.29623748277373, 30.684393175005084], [111.29611920213955, 30.6844372480806], [111.29609732703017, 30.684446868128646], [111.29607781174178, 30.684457614127723], [111.2960803586218, 30.684489890795817], [111.29606356378252, 30.68451163910089], [111.29605828116479, 30.68451564827859], [111.29605812108554, 30.684516506231944], [111.29604275257111, 30.684525680216154], [111.2960239036803, 30.684535149177975], [111.29599707690375, 30.68454035085648], [111.29597689162028, 30.68454753913778], [111.2959540821152, 30.684560158424688], [111.29592304021622, 30.684583362732155], [111.29590685062078, 30.684593970235653], [111.29587212599796, 30.68461032800434], [111.29583238315797, 30.68462586738991], [111.29580853223803, 30.68463822767211], [111.29580456263062, 30.68464138339317], [111.29579164836593, 30.68464885765883], [111.2957721258831, 30.684663215335263], [111.2957281346458, 30.684698804206505], [111.29570430441021, 30.684715172767028], [111.29568708599027, 30.68472552126582], [111.29558471166524, 30.68477559731599], [111.29556416485445, 30.684784810870497], [111.29549752688939, 30.68480931469827], [111.29544087319789, 30.684836896006004], [111.29538155211708, 30.6848630545864], [111.29535836219878, 30.684874830309354], [111.29530511783702, 30.684895991356996], [111.29527893407572, 30.68490892630598], [111.29524977535687, 30.684927015269693], [111.29520671671668, 30.684958289193787], [111.29519711555452, 30.684966604325496], [111.2951898427371, 30.684976056200128], [111.29518325430388, 30.684992938273638], [111.2950076670702, 30.68499857702284], [111.29496989374564, 30.68502097733625], [111.29494139063274, 30.68503591867278], [111.2949039275743, 30.685051744042767], [111.29481243684461, 30.685094013977732], [111.2948068070886, 30.685096598629173], [111.29479124881715, 30.68510434089268], [111.2947455542639, 30.68512299912709], [111.29472966234414, 30.68513045720499], [111.29467899813744, 30.685150265672405], [111.29458558555649, 30.685176453930353], [111.29455114242137, 30.68518766487898], [111.29451833875049, 30.68519430367428], [111.29449217477406, 30.685202927273338], [111.2944832292178, 30.685204943553458], [111.294462358651, 30.685210130843018], [111.2944414763931, 30.68521103286298], [111.29429041277251, 30.685194900824172], [111.29425212143832, 30.685194845066064], [111.29421964512068, 30.68519919778481], [111.29419346855377, 30.685204391369552], [111.29417888784559, 30.68520699130977], [111.2941520601695, 30.685215325327135], [111.2941361655516, 30.68522192185435], [111.29413385429393, 30.685224779899727], [111.29413286144245, 30.685224924690544], [111.29412492132809, 30.68523050588317], [111.29408295266632, 30.68527595761941], [111.29405749195973, 30.685298266202096], [111.2940376466201, 30.685313714756205], [111.29398735563205, 30.685347450124823], [111.29392731059698, 30.685389889132125], [111.29384674483151, 30.68544319464786], [111.29378455491343, 30.685488631095552], [111.29376933388772, 30.685498349169563], [111.29369129701581, 30.685550272427236], [111.29366351336063, 30.68557106835027], [111.29364101771887, 30.68558627768465], [111.29355631956867, 30.6856385193023], [111.29351960114872, 30.685664054652477], [111.29349776471008, 30.685677831367002], [111.29344051836534, 30.68570970513889], [111.29338394111619, 30.685743579003145], [111.29334621455615, 30.685763111378662], [111.2932548848051, 30.68581393836274], [111.29324826489568, 30.685817241572522], [111.29323465365644, 30.68582427876754], [111.29315000227098, 30.685869941844373], [111.293077776818, 30.68591382336433], [111.2930460082668, 30.685931310681497], [111.29302614673946, 30.68594106292977], [111.29298445956522, 30.685966570401092], [111.29296030467452, 30.68598033092769], [111.29294739490649, 30.685986639671796], [111.29292108613942, 30.68600172669852], [111.29272713295097, 30.686094746275614], [111.29268500780688, 30.68610370622116], [111.29264265243665, 30.686117737443737], [111.29260594570798, 30.686132300165582], [111.2925111319833, 30.686179885093793], [111.29247164724887, 30.686199187242778], [111.29241992274137, 30.68622272340002], [111.29234326273144, 30.68625973859605], [111.2922652276581, 30.68629161416669], [111.29225629918898, 30.686295252823697], [111.29224935912072, 30.686298449014203], [111.29223745839215, 30.68630354007638], [111.2922126568887, 30.68631358460442], [111.29220537957468, 30.68631621062474], [111.29219711390579, 30.686319702692174], [111.29217864273028, 30.686332132222276], [111.2921183809587, 30.686382613866726], [111.29208113913324, 30.686410622352412], [111.29207454080745, 30.686414958883347], [111.29203786015927, 30.6864323823487], [111.29199691402636, 30.686454985009618], [111.29196850084577, 30.686468925400675], [111.29192319839706, 30.68648727966439], [111.29188609236945, 30.68650073622007], [111.29186422535389, 30.686499435800386], [111.29185562603635, 30.686502644581537], [111.29184968961147, 30.68650669512789], [111.29184474334033, 30.68651016471233], [111.29180317217873, 30.68653679094018], [111.29177252957862, 30.686558473594744], [111.2917452342553, 30.6865829270605], [111.29163793794055, 30.686626971357782], [111.29160301007084, 30.68664555944514], [111.29153471555486, 30.686681894753747], [111.29149696021665, 30.686695889104158], [111.29146074991377, 30.68671642782101], [111.29142620605467, 30.686738098784303], [111.29140225171267, 30.68675913482639], [111.291360205709, 30.6867917289552], [111.2913168727755, 30.686828049874634], [111.29130073893793, 30.68683673282908], [111.29128029464988, 30.686845156778645], [111.29121433027728, 30.686870168723487], [111.29119719369572, 30.68687828600423], [111.29116427221345, 30.686897666394316], [111.29114979043055, 30.686908060758583], [111.29111688603564, 30.68693489023309], [111.29109223921557, 30.686957375082955], [111.29108037715775, 30.686965467182745], [111.29105561972113, 30.68697822136801], [111.29101993282376, 30.68699305388651], [111.29097361234244, 30.687006809916454], [111.29096235372975, 30.687009460218462], [111.29092653283328, 30.687012274197173], [111.29091660341862, 30.687014914606664], [111.29079802241085, 30.68703603878214], [111.29075168394326, 30.687047511433605], [111.29071259670917, 30.687054357972215], [111.29070697234897, 30.687055826565313], [111.29069804567837, 30.68705932133065], [111.29069381706609, 30.687067642757597], [111.29069030341486, 30.687081109205792], [111.29068816033038, 30.687098857326475], [111.29068912890028, 30.687127741752022], [111.29069656989088, 30.68717004765955], [111.2907111856727, 30.687200855734943], [111.29071974092346, 30.68722398090216], [111.29072490393122, 30.687240544615577], [111.29074086240098, 30.687290519941655], [111.2907420450095, 30.68729308840534], [111.2907460973546, 30.6873016436561], [111.29076930076269, 30.687340410731508], [111.29078587436868, 30.687359617552318], [111.29083931118538, 30.687421063731165], [111.2908470048855, 30.687428720559012], [111.29085072178356, 30.68743611838221], [111.29085130094694, 30.68744467723019], [111.29084622966985, 30.687451560641193], [111.29084094885087, 30.687453595806858], [111.29083464100597, 30.687452209951687], [111.29083201678424, 30.687450197268845], [111.29158430327317, 30.68822189742275], [111.29152033989192, 30.688261092575488], [111.2916766996201, 30.68836099916092], [111.29169067868207, 30.68837561584212], [111.29171024433236, 30.688396075418723], [111.29176570282505, 30.688368861034178], [111.29179733917584, 30.688361021643914], [111.29198707274531, 30.688597582912223], [111.29202472735932, 30.688603197379734], [111.29208435420963, 30.68861208537959], [111.2920933582219, 30.688621453617316], [111.29210753693349, 30.688633895737723], [111.29211531966632, 30.68864184574477], [111.29213911572765, 30.688666165211544], [111.29215227820515, 30.688656458828632], [111.29216785266436, 30.6886722338366], [111.29221203995377, 30.68871698769891], [111.2922353755622, 30.688740621882232], [111.29230406578017, 30.688810193435756], [111.29244256407321, 30.688949663895983], [111.29267371142282, 30.68914779533452], [111.29267543812108, 30.689146923891542], [111.29266570116118, 30.689241053232138], [111.29262017657993, 30.689271401753842], [111.29262180165495, 30.689272466551188], [111.29259822502826, 30.6893039680038], [111.29261200084323, 30.68933470323401], [111.29272016770165, 30.68936073860732], [111.29273701290293, 30.689373196915653], [111.29284668072978, 30.689397043339], [111.29294539121702, 30.689435878762936], [111.29297181419798, 30.689462353005297], [111.29297966887668, 30.68947338319026], [111.2930582741202, 30.689552814910655], [111.29308837083164, 30.68956380192799], [111.29311212282636, 30.6895685530464], [111.29317747925734, 30.68958961696734], [111.29325623468765, 30.689610744740264], [111.29336470911403, 30.689656765747202], [111.29337278772402, 30.6896460656136], [111.29341377162825, 30.689679578849564], [111.29345658475376, 30.68970532464118], [111.29349155669007, 30.68971687283556], [111.29357594997015, 30.68977138703991], [111.29352316516196, 30.689828039832264], [111.29348126574791, 30.689839490899885], [111.29335232724821, 30.68987473083422], [111.29316173482636, 30.68992682136576], [111.2928055421421, 30.690024169380024], [111.29276573365178, 30.690028888122754], [111.29269403789965, 30.690037384018126], [111.29268637027985, 30.69009337131206], [111.29267871525053, 30.69009469601349], [111.29271232741212, 30.69034919066263], [111.29273379872592, 30.690526337320705], [111.29272306261936, 30.690628331232688], [111.29312801114884, 30.690829074302485], [111.29353011602211, 30.69092030782599], [111.2939780242665, 30.69116345662826], [111.29405977443918, 30.691014557675885], [111.29414407508898, 30.69086101282562], [111.29437702108271, 30.690417513957243], [111.29443239773707, 30.6903120828365], [111.29458049719227, 30.6901038277295], [111.2947071559106, 30.68985165872715]]]}}, {"type": "Feature", "properties": {"社区": "胜利四路社区"}, "geometry": {"type": "Polygon", "coordinates": [[[111.292217201163, 30.694281533865876], [111.2922207184115, 30.694275032666667], [111.29225147162822, 30.69428988856754], [111.29238868928678, 30.694018571200218], [111.29253214014614, 30.69376067981159], [111.29255973314531, 30.693711680250033], [111.29256240593031, 30.69370693542686], [111.29271128959448, 30.693444151726283], [111.29276649897486, 30.693344566198903], [111.29301812838406, 30.6928906612751], [111.29320661639235, 30.69255064739457], [111.29324677202106, 30.69247918007028], [111.2936348007056, 30.691788596066942], [111.29384134530198, 30.691412404259097], [111.29385942077573, 30.6913794809783], [111.2939780242665, 30.69116345662826], [111.29353011602211, 30.69092030782599], [111.29312801114884, 30.690829074302485], [111.29272306261936, 30.690628331232688], [111.29273379872592, 30.690526337320705], [111.29271232741212, 30.69034919066263], [111.29267871525053, 30.69009469601349], [111.29268637027985, 30.69009337131206], [111.29269403789965, 30.690037384018126], [111.29276573365178, 30.690028888122754], [111.2928055421421, 30.690024169380024], [111.29316173482636, 30.68992682136576], [111.29335232724821, 30.68987473083422], [111.29348126574791, 30.689839490899885], [111.29352316516196, 30.689828039832264], [111.29357594997015, 30.68977138703991], [111.29349155669007, 30.68971687283556], [111.29345658475376, 30.68970532464118], [111.29341377162825, 30.689679578849564], [111.29337278772402, 30.6896460656136], [111.29336470911403, 30.689656765747202], [111.29325623468765, 30.689610744740264], [111.29317747925734, 30.68958961696734], [111.29311212282636, 30.6895685530464], [111.29308837083164, 30.68956380192799], [111.2930582741202, 30.689552814910655], [111.29297966887668, 30.68947338319026], [111.29297181419798, 30.689462353005297], [111.29294539121702, 30.689435878762936], [111.29284668072978, 30.689397043339], [111.29273701290293, 30.689373196915653], [111.29272016770165, 30.68936073860732], [111.29261200084323, 30.68933470323401], [111.29259822502826, 30.6893039680038], [111.29262180165495, 30.689272466551188], [111.29262017657993, 30.689271401753842], [111.29266570116118, 30.689241053232138], [111.29267543812108, 30.689146923891542], [111.29267371142282, 30.68914779533452], [111.29244256407321, 30.688949663895983], [111.29230406578017, 30.688810193435756], [111.2922353755622, 30.688740621882232], [111.29221203995377, 30.68871698769891], [111.29216785266436, 30.6886722338366], [111.29215227820515, 30.688656458828632], [111.29213911572765, 30.688666165211544], [111.29211531966632, 30.68864184574477], [111.29210753693349, 30.688633895737723], [111.2920933582219, 30.688621453617316], [111.29208435420963, 30.68861208537959], [111.29202472735932, 30.688603197379734], [111.29198707274531, 30.688597582912223], [111.29179733917584, 30.688361021643914], [111.29176570282505, 30.688368861034178], [111.29171024433236, 30.688396075418723], [111.29169067868207, 30.68837561584212], [111.2916766996201, 30.68836099916092], [111.29152033989192, 30.688261092575488], [111.29158430327317, 30.68822189742275], [111.29083201678424, 30.687450197268845], [111.29082762989123, 30.6874468311064], [111.29082222496584, 30.6874401518416], [111.2907575502208, 30.687360232688718], [111.2907465002508, 30.687347143955606], [111.29072576008588, 30.687324960378646], [111.29069683878816, 30.687284229183888], [111.29068597317928, 30.687262265940944], [111.29067655907602, 30.687221691228103], [111.29066697140365, 30.6871951414426], [111.29066222837923, 30.68718658619207], [111.29065820301372, 30.687182892676333], [111.29064249095825, 30.68717298124824], [111.29061848265695, 30.687163409763627], [111.29058851634699, 30.687155025384243], [111.29056590379355, 30.68715031923199], [111.29053368468192, 30.687147108652255], [111.29047422420626, 30.687173545123073], [111.29042801344218, 30.68719788707301], [111.29041550297325, 30.68720755298625], [111.2904141935602, 30.687209421777425], [111.29041220515933, 30.687209720352428], [111.29040036468513, 30.68722009762945], [111.29037769997092, 30.687242848678636], [111.29037276269293, 30.687246885735192], [111.29036753223596, 30.68725464418651], [111.29035446868397, 30.687274190951257], [111.29034642065096, 30.687296851168753], [111.29034318489016, 30.687304312843764], [111.29034028367721, 30.687312057805286], [111.29033102066018, 30.687330464229717], [111.29029594440237, 30.687340111257242], [111.29027661797159, 30.687348538804088], [111.29025848763916, 30.687360104985032], [111.2902466004004, 30.687367045053065], [111.29022371265432, 30.687387772627744], [111.29018993861496, 30.687416292827834], [111.29016754279797, 30.68743616244899], [111.29014280514644, 30.687454330552953], [111.29012894569433, 30.687463570187617], [111.29004416120915, 30.687504105330333], [111.28996021129473, 30.687546849207763], [111.28985043105263, 30.68759570487805], [111.28982862519098, 30.68760792936257], [111.28982665387701, 30.687610648912482], [111.28981606615855, 30.687614402682584], [111.28979392395047, 30.687625914904174], [111.28977573156493, 30.68763341075345], [111.28972907203911, 30.687649300874625], [111.2897029098616, 30.68765540097604], [111.28966352315314, 30.687667835002628], [111.28965789699441, 30.687669854880085], [111.2896004545974, 30.687707782888026], [111.28957896889443, 30.687720161156562], [111.28957591569605, 30.687721809613947], [111.28952771563166, 30.68774780541696], [111.2894692390143, 30.68778576669996], [111.28943259343959, 30.68781306202328], [111.28938539791795, 30.68784703930953], [111.28937218957509, 30.68785568269368], [111.28934011615348, 30.68787156292234], [111.28930476290458, 30.68789203778732], [111.28926342286866, 30.68791139299651], [111.2892422366399, 30.687918642431498], [111.2892306551708, 30.687923271242084], [111.28917632532722, 30.687940968101373], [111.28915313990564, 30.68794994063734], [111.28908032000089, 30.687984890090775], [111.28901853028106, 30.68801349392777], [111.28900070122137, 30.688023589717034], [111.2889759159059, 30.688034573137088], [111.28893625310576, 30.688051060408213], [111.28889459201196, 30.68806641093613], [111.28879253065082, 30.688109558609312], [111.28878722285219, 30.68811180421642], [111.28878161018326, 30.688111046088068], [111.28874479014007, 30.688106072837115], [111.28871256833054, 30.68809592488708], [111.28869134612876, 30.688085920828712], [111.28866267574199, 30.688072404917648], [111.2886044383443, 30.68804090976022], [111.28855806120572, 30.688042284823666], [111.28852797168872, 30.68805471435377], [111.28846718471289, 30.688086160947762], [111.2883810602379, 30.68814347833893], [111.2883377452909, 30.688169531698577], [111.2883276036361, 30.688175630900787], [111.28832163573509, 30.688179215598495], [111.28832065097737, 30.688180507924187], [111.28830876463797, 30.6881875703001], [111.28828369963315, 30.68820599381172], [111.28827647178178, 30.688214612014747], [111.28827288168821, 30.688221785007443], [111.28827174044858, 30.68824469703526], [111.28827959242932, 30.688267116234556], [111.28835866981683, 30.688340516201947], [111.28831629106406, 30.688373351349128], [111.28830067163881, 30.688387023742337], [111.28828025702836, 30.68839889839063], [111.28821130061107, 30.688430230770678], [111.28806202394344, 30.688515766189767], [111.28801415393025, 30.68853906222813], [111.28797872513809, 30.688550758810663], [111.28793218702089, 30.688564986984716], [111.28787800196835, 30.688585823377196], [111.28782487991441, 30.688614141229607], [111.28779209872653, 30.688629683313366], [111.28772512531447, 30.688655147617055], [111.2876634129363, 30.68867597861356], [111.28761379643964, 30.688691788695166], [111.28756275901412, 30.688713520812428], [111.28753287993857, 30.688727704020437], [111.28753019096558, 30.68872895137997], [111.28751463179492, 30.688736139661273], [111.28763744141486, 30.68891678558134], [111.28827848356525, 30.68985972114939], [111.28849278031765, 30.690140506579098], [111.288793374215, 30.69050860718653], [111.2888431552874, 30.690569567731416], [111.28886556729208, 30.690595925061984], [111.28917851787435, 30.69096395822021], [111.28918594717385, 30.69097269423463], [111.28955799130836, 30.691428875342467], [111.28966491980037, 30.69155028921466], [111.28971522877498, 30.69160738357391], [111.2899810971499, 30.69192973297089], [111.2904404016034, 30.692472839849813], [111.29042460681023, 30.69248283491504], [111.2908745933878, 30.693004590089913], [111.29132361319438, 30.693552494851815], [111.29164494725649, 30.693881119718014], [111.29191072030363, 30.694100086649712], [111.29221117660455, 30.694292677365354], [111.292217201163, 30.694281533865876]]]}}, {"type": "Feature", "properties": {"社区": "营盘路社区"}, "geometry": {"type": "Polygon", "coordinates": [[[111.29830042592408, 30.72001173025717], [111.2981588177754, 30.719168823582436], [111.29819356488122, 30.71917180933167], [111.29819950490338, 30.71912077640286], [111.29827751299689, 30.718694540021033], [111.2983036293092, 30.718551322985263], [111.29832129289355, 30.718519057108892], [111.29836730041063, 30.718355885915514], [111.29837178532972, 30.718340917599335], [111.29836452870012, 30.718277253692293], [111.29836528413068, 30.718193485441134], [111.29774228058187, 30.717933172178277], [111.29703370564107, 30.71765040194458], [111.29702873688677, 30.71764841804014], [111.29711668968366, 30.717505023837873], [111.29716636823349, 30.717490592416993], [111.2972431712355, 30.717313810883752], [111.29732431796305, 30.717177621150483], [111.297386387372, 30.717192822390928], [111.29751324124322, 30.717167344597385], [111.29763480979864, 30.71705244721278], [111.2977972786216, 30.717047277909558], [111.29799314197004, 30.717091235871806], [111.29799791377275, 30.716922325205246], [111.29800370540676, 30.716717348127247], [111.29807928982746, 30.71654787808211], [111.29816875168666, 30.71639104890795], [111.29817770623634, 30.71637535124148], [111.29820909887093, 30.71632031812834], [111.29816053458109, 30.716312442765002], [111.2981565433899, 30.716311798850597], [111.29810768412233, 30.716319270418126], [111.2979810829608, 30.716225103305987], [111.2976338439268, 30.715952496310706], [111.29757989269808, 30.715906406055865], [111.29760193418196, 30.71588130417888], [111.29760793266007, 30.715876684361604], [111.29769492498099, 30.71579634612459], [111.29769555990225, 30.715776498087052], [111.29768864591432, 30.715724571232045], [111.2975280728624, 30.715629878915877], [111.29755452012506, 30.71558923855258], [111.2976803496685, 30.71542807284726], [111.29773340876994, 30.71535506138713], [111.29773931821495, 30.715346747154797], [111.29779435132832, 30.715297052417213], [111.29780025627684, 30.715287590649837], [111.2978028787, 30.715283290991067], [111.29780812174761, 30.715273546836784], [111.29781073787535, 30.715268103240476], [111.29781531362602, 30.71525836178415], [111.29782316830466, 30.715241649682355], [111.29782769189455, 30.715225145324325], [111.29783028104282, 30.71521570334221], [111.29783223257152, 30.715209975560015], [111.29783482981361, 30.715201673018782], [111.29784554973241, 30.715168465552324], [111.29784914342326, 30.715160159413983], [111.2978510949522, 30.715154719414954], [111.29785667434618, 30.715145272936127], [111.29785996496554, 30.715140698084895], [111.2978672917422, 30.715130512363316], [111.29804492493338, 30.714914776695764], [111.29769497444363, 30.71470135678237], [111.29728522803083, 30.714447142721554], [111.29728174765467, 30.71445132996496], [111.29647963422781, 30.71398359256881], [111.29648076557493, 30.713976467240172], [111.29642523693525, 30.713944426194473], [111.29570802220746, 30.713521947180197], [111.29516881478901, 30.71320168600903], [111.29493396043404, 30.713062202958326], [111.29491533457514, 30.71308960979775], [111.29413492358793, 30.712581302185413], [111.2941391800793, 30.71257733977245], [111.29232815322172, 30.711549578350514], [111.2923282242682, 30.711545056559203], [111.29227831908935, 30.71151911291679], [111.2920458803132, 30.71137882857016], [111.29186052464354, 30.711281396019785], [111.29162274119659, 30.71120078708674], [111.29136296932575, 30.711156025130435], [111.29128640374466, 30.711159999234724], [111.29122614557036, 30.711163126177496], [111.29110625155226, 30.71113883908623], [111.29109900931189, 30.71113883908623], [111.29109470695516, 30.71113883908623], [111.29108543404561, 30.71113883908623], [111.29107868193563, 30.71113883908623], [111.29107396679024, 30.71113883908623], [111.29106703301721, 30.71113883908623], [111.29061319464336, 30.71113883908623], [111.28945641558113, 30.71114275563383], [111.289452633932, 30.711156806641497], [111.28944814631501, 30.711173480072148], [111.2894419140132, 30.711196631319638], [111.28943878976833, 30.71120823976861], [111.28936454263953, 30.711484071732627], [111.28936158387012, 30.711495959870717], [111.28923896940296, 30.71197856935555], [111.2892242142263, 30.712047487101927], [111.28962029903767, 30.712137887853316], [111.2897166326166, 30.712116194406974], [111.29028554284366, 30.71208628565364], [111.29076093077248, 30.712094768958536], [111.29076083994096, 30.712092353379546], [111.29132765834493, 30.712104498723818], [111.29133427555638, 30.712125039239254], [111.29134013194164, 30.71214321543721], [111.29135938462804, 30.712202973588546], [111.29145742242224, 30.712492539099458], [111.29157551689673, 30.712855881393864], [111.2915980143369, 30.712923362922993], [111.29164515500003, 30.713064759730855], [111.29166009993384, 30.713102186816513], [111.29173607466026, 30.713330465328852], [111.29176006137777, 30.71340253699765], [111.29177660620547, 30.71345212111862], [111.29179315013386, 30.71350170523965], [111.29181495329755, 30.713567306286166], [111.29188588642467, 30.713780727998312], [111.29197332121191, 30.714045872419206], [111.29200020014923, 30.71412737258032], [111.29202498276675, 30.714203410259245], [111.29204953695671, 30.714279501897636], [111.29206748472677, 30.71433409074575], [111.29216040987507, 30.714616710792598], [111.29216219143217, 30.714622291985336], [111.29217193019059, 30.714652791593153], [111.29217882259456, 30.714681415215182], [111.29218105561137, 30.714715757626266], [111.29217731802885, 30.714743511603842], [111.29217993595535, 30.71475639619075], [111.29219048680159, 30.714786454231614], [111.29220019768115, 30.71482522760226], [111.29221088342553, 30.714882291384754], [111.29221894135105, 30.714940615117484], [111.29221908884, 30.71495175412025], [111.29223466060114, 30.714974657154755], [111.29225118744239, 30.71502985034749], [111.29226202966908, 30.715108182196957], [111.29227949090597, 30.71521053943502], [111.29227681632221, 30.715220250314417], [111.2922751076103, 30.715256252873928], [111.29228769272294, 30.715275428218604], [111.29229365432872, 30.715289160866178], [111.29229739101186, 30.715302720844022], [111.2923014469543, 30.715318297101817], [111.29230795175067, 30.715350041371437], [111.29231803135218, 30.715403228176626], [111.29232241374848, 30.715430385903687], [111.29232243982875, 30.715442690427835], [111.29232244072813, 30.715446406426565], [111.29232246321112, 30.715453549741653], [111.29232380499968, 30.715462414358967], [111.29232515488201, 30.715470420123893], [111.2923265029658, 30.71547785931591], [111.29232817840284, 30.71548643255295], [111.29232952468789, 30.715493294380167], [111.29233120012492, 30.71550187840893], [111.29233254820866, 30.71550901812674], [111.29233421735029, 30.715515599365574], [111.29233556543409, 30.715523028664904], [111.29233723637446, 30.71553075294196], [111.29233859075345, 30.71553961935814], [111.29233993344121, 30.7155484821767], [111.29234094787648, 30.715556201057893], [111.29234196500971, 30.715564488310577], [111.29234197760036, 30.71557249767261], [111.29234299203563, 30.71557964908169], [111.29234466027788, 30.715585940738663], [111.29234567291462, 30.71559309214757], [111.29234668914847, 30.715601089818506], [111.29234803723227, 30.71560824032821], [111.29234937092684, 30.71561453288456], [111.29267191727524, 30.715589161210914], [111.29280784620522, 30.715605974935897], [111.29281163594828, 30.71470004377204], [111.29307837486726, 30.71445837255601], [111.29329358263283, 30.714930474362006], [111.29326106944279, 30.714942828349024], [111.29335467717681, 30.71514460384043], [111.2934022800913, 30.715249489972052], [111.29345771969798, 30.71531569356449], [111.29347065194918, 30.71532703041828], [111.29366827976747, 30.715506155584706], [111.29368002221537, 30.715517095837356], [111.2937235278186, 30.715557630080696], [111.29382822239461, 30.715655013168373], [111.2938433732732, 30.715669106444295], [111.29385353471287, 30.71567856011751], [111.29387503030858, 30.715698553845243], [111.29397553134578, 30.716021040838427], [111.2940483125796, 30.71625458757933], [111.29411758196096, 30.716336577870834], [111.29414730185664, 30.71638602259702], [111.29421028137943, 30.71649080710523], [111.29449165316731, 30.71695893930365], [111.29449640968164, 30.716966855136434], [111.29465746117307, 30.71724332921633], [111.29468559196658, 30.71730491568934], [111.29473400067366, 30.717410891799318], [111.29473740820498, 30.717420715094022], [111.29474211165916, 30.71742756523014], [111.29477204289566, 30.7174890869519], [111.29477686955704, 30.717497239306283], [111.2948332579486, 30.717614462337735], [111.29485194675999, 30.717665409830886], [111.29488362987564, 30.717742401690543], [111.2949102875798, 30.717797349368198], [111.29491163116688, 30.71780364732058], [111.29492199135694, 30.717826553952364], [111.29493503602328, 30.717860056396603], [111.29494271173684, 30.717873226967868], [111.29496042568326, 30.71791274227928], [111.2949771611672, 30.717939965656967], [111.29497811444855, 30.71794151878612], [111.29497919813156, 30.717942973889194], [111.29498461744612, 30.717950252102582], [111.29500179629594, 30.71797373160257], [111.29500396186342, 30.717976166067274], [111.29503513506342, 30.718013245115344], [111.29504878317488, 30.718025822134052], [111.29511466840728, 30.71808751202923], [111.29516989397553, 30.71812549579505], [111.29517322056773, 30.71812949328165], [111.29517987375237, 30.71813377855102], [111.29518619418758, 30.718136919883023], [111.29519750675962, 30.718146343878857], [111.29521014763037, 30.71815462573545], [111.29524308440102, 30.718176330873064], [111.29527152995712, 30.718199321141753], [111.29529365507824, 30.718215741863105], [111.29532193695786, 30.718241018208573], [111.29537450592869, 30.718284999553134], [111.29540012401662, 30.71830342036668], [111.2954037833581, 30.718307132768075], [111.2954264076028, 30.718325409690067], [111.29550195515128, 30.718378100968607], [111.2955246000804, 30.718395249241496], [111.29562847717256, 30.718464229041103], [111.29563337937708, 30.718468024180083], [111.29570522171878, 30.718516439182395], [111.29575991578758, 30.718545191407543], [111.29578641431169, 30.71855843392467], [111.29634859760978, 30.718793210937974], [111.29642826765053, 30.71882605957518], [111.2965858162824, 30.718881372377552], [111.29666593958154, 30.718907082196154], [111.29669327717312, 30.71891601965865], [111.2967005922585, 30.718916783183033], [111.29670260584072, 30.718918043133215], [111.29672916102203, 30.71892727107678], [111.2967306538967, 30.71892725129169], [111.29693815087501, 30.719003153173105], [111.29703511937527, 30.71905465284999], [111.29704972166746, 30.71906519290451], [111.29706861462506, 30.71908382775655], [111.29711020017572, 30.719129345143244], [111.29711527325134, 30.719135001878954], [111.29714517570949, 30.719175805019518], [111.2971663079789, 30.719225872076322], [111.2971702254257, 30.71924119202754], [111.29717505478504, 30.7192600813878], [111.29717970877653, 30.71928776431895], [111.29721231729474, 30.719286680635946], [111.2972539028454, 30.71928767888346], [111.29726108573061, 30.71929988538153], [111.29726750958798, 30.719306954052854], [111.29728629282835, 30.719319585930236], [111.29730924982215, 30.71928926438818], [111.29731696780397, 30.719290684417615], [111.2970619560445, 30.720163155405317], [111.29702747333931, 30.72028113296801], [111.29698849672184, 30.72041448264241], [111.29667709567161, 30.721189741413525], [111.29664824272243, 30.72126157296333], [111.29668576783399, 30.721275882076327], [111.2966155433727, 30.721500470670264], [111.29636495897574, 30.72230186643816], [111.29620397403431, 30.72281671392028], [111.29609301298223, 30.72295165179736], [111.29607796012994, 30.72295632377535], [111.29597924514616, 30.723104397150223], [111.29601316037912, 30.723111761698533], [111.29548369441699, 30.72351572367188], [111.29529302285471, 30.723741591101714], [111.29573016531492, 30.723563240251337], [111.29649259885451, 30.722650467045526], [111.2974483263792, 30.722038372273175], [111.29766444425888, 30.7216035329767], [111.29820091863758, 30.720524118093692], [111.29833962197597, 30.720245041375676], [111.29830042592408, 30.72001173025717]]]}}]}