{"type": "FeatureCollection", "features": [{"type": "Feature", "geometry": {"type": "Point", "coordinates": [111.2803849268639, 30.720576448075878]}, "properties": {"指标": "非成套住宅数量（套）", "中类": "住房", "board": "民生基础需求", "来源": "2025体检"}}, {"type": "Feature", "geometry": {"type": "Point", "coordinates": [111.2734425897926, 30.723204235373103]}, "properties": {"指标": "非成套住宅数量（套）", "中类": "住房", "board": "民生基础需求", "来源": "2025体检"}}, {"type": "Feature", "geometry": {"type": "Point", "coordinates": [111.28070141685444, 30.720427725257736]}, "properties": {"指标": "非成套住宅数量（套）", "中类": "住房", "board": "民生基础需求", "来源": "2025体检"}}, {"type": "Feature", "geometry": {"type": "Point", "coordinates": [111.2726828576091, 30.71817222593498]}, "properties": {"指标": "非成套住宅数量（套）", "中类": "住房", "board": "民生基础需求", "来源": "2025体检"}}, {"type": "Feature", "geometry": {"type": "Point", "coordinates": [111.27261300994529, 30.723311766476215]}, "properties": {"指标": "非成套住宅数量（套）", "中类": "住房", "board": "民生基础需求", "来源": "2025体检"}}, {"type": "Feature", "geometry": {"type": "Point", "coordinates": [111.28049531326639, 30.720087456536525]}, "properties": {"指标": "非成套住宅数量（套）", "中类": "住房", "board": "民生基础需求", "来源": "2025体检"}}, {"type": "Feature", "geometry": {"type": "Point", "coordinates": [111.28837667440533, 30.730954456580104]}, "properties": {"指标": "非成套住宅数量（套）", "中类": "住房", "board": "民生基础需求", "来源": "2025体检"}}, {"type": "Feature", "geometry": {"type": "Point", "coordinates": [111.28858805633314, 30.730518343247393]}, "properties": {"指标": "非成套住宅数量（套）", "中类": "住房", "board": "民生基础需求", "来源": "2025体检"}}, {"type": "Feature", "geometry": {"type": "Point", "coordinates": [111.29280217500592, 30.73136923250771]}, "properties": {"指标": "非成套住宅数量（套）", "中类": "住房", "board": "民生基础需求", "来源": "2025体检"}}, {"type": "Feature", "geometry": {"type": "Point", "coordinates": [111.28985583038623, 30.72964710551695]}, "properties": {"指标": "非成套住宅数量（套）", "中类": "住房", "board": "民生基础需求", "来源": "2025体检"}}, {"type": "Feature", "geometry": {"type": "Point", "coordinates": [111.27465636373088, 30.725155628954674]}, "properties": {"指标": "非成套住宅数量（套）", "中类": "住房", "board": "民生基础需求", "来源": "2025体检"}}, {"type": "Feature", "geometry": {"type": "Point", "coordinates": [111.2802767914058, 30.72042991366586]}, "properties": {"指标": "非成套住宅数量（套）", "中类": "住房", "board": "民生基础需求", "来源": "2025体检"}}, {"type": "Feature", "geometry": {"type": "Point", "coordinates": [111.28960317275353, 30.737159276578367]}, "properties": {"指标": "非成套住宅数量（套）", "中类": "住房", "board": "民生基础需求", "来源": "2025体检"}}, {"type": "Feature", "geometry": {"type": "Point", "coordinates": [111.274488049913, 30.72393773521763]}, "properties": {"指标": "非成套住宅数量（套）", "中类": "住房", "board": "民生基础需求", "来源": "2025体检"}}, {"type": "Feature", "geometry": {"type": "Point", "coordinates": [111.272991352437, 30.72239896184513]}, "properties": {"指标": "非成套住宅数量（套）", "中类": "住房", "board": "民生基础需求", "来源": "2025体检"}}, {"type": "Feature", "geometry": {"type": "Point", "coordinates": [111.28018575479389, 30.720279222137286]}, "properties": {"指标": "非成套住宅数量（套）", "中类": "住房", "board": "民生基础需求", "来源": "2025体检"}}, {"type": "Feature", "geometry": {"type": "Point", "coordinates": [111.2736707408953, 30.72266614564009]}, "properties": {"指标": "非成套住宅数量（套）", "中类": "住房", "board": "民生基础需求", "来源": "2025体检"}}, {"type": "Feature", "geometry": {"type": "Point", "coordinates": [111.2730781591904, 30.7226018815078]}, "properties": {"指标": "非成套住宅数量（套）", "中类": "住房", "board": "民生基础需求", "来源": "2025体检"}}, {"type": "Feature", "geometry": {"type": "Point", "coordinates": [111.2811225687994, 30.71785012421717]}, "properties": {"指标": "非成套住宅数量（套）", "中类": "住房", "board": "民生基础需求", "来源": "2025体检"}}, {"type": "Feature", "geometry": {"type": "Point", "coordinates": [111.27245962793441, 30.723128036969598]}, "properties": {"指标": "非成套住宅数量（套）", "中类": "住房", "board": "民生基础需求", "来源": "2025体检"}}, {"type": "Feature", "geometry": {"type": "Point", "coordinates": [111.27434019135998, 30.724284694934763]}, "properties": {"指标": "非成套住宅数量（套）", "中类": "住房", "board": "民生基础需求", "来源": "2025体检"}}, {"type": "Feature", "geometry": {"type": "Point", "coordinates": [111.28942689139302, 30.736577441819207]}, "properties": {"指标": "非成套住宅数量（套）", "中类": "住房", "board": "民生基础需求", "来源": "2025体检"}}, {"type": "Feature", "geometry": {"type": "Point", "coordinates": [111.28334901476211, 30.724761776263314]}, "properties": {"指标": "非成套住宅数量（套）", "中类": "住房", "board": "民生基础需求", "来源": "2025体检"}}, {"type": "Feature", "geometry": {"type": "Point", "coordinates": [111.28955381441556, 30.7369483439725]}, "properties": {"指标": "非成套住宅数量（套）", "中类": "住房", "board": "民生基础需求", "来源": "2025体检"}}, {"type": "Feature", "geometry": {"type": "Point", "coordinates": [111.27304096720104, 30.722108399206807]}, "properties": {"指标": "非成套住宅数量（套）", "中类": "住房", "board": "民生基础需求", "来源": "2025体检"}}, {"type": "Feature", "geometry": {"type": "Point", "coordinates": [111.2705774310014, 30.719762171132402]}, "properties": {"指标": "非成套住宅数量（套）", "中类": "住房", "board": "民生基础需求", "来源": "2025体检"}}, {"type": "Feature", "geometry": {"type": "Point", "coordinates": [111.29296973290758, 30.734858964006857]}, "properties": {"指标": "非成套住宅数量（套）", "中类": "住房", "board": "民生基础需求", "来源": "2025体检"}}, {"type": "Feature", "geometry": {"type": "Point", "coordinates": [111.27330718800648, 30.72300605268997]}, "properties": {"指标": "非成套住宅数量（套）", "中类": "住房", "board": "民生基础需求", "来源": "2025体检"}}, {"type": "Feature", "geometry": {"type": "Point", "coordinates": [111.29339849558336, 30.731650886047518]}, "properties": {"指标": "非成套住宅数量（套）", "中类": "住房", "board": "民生基础需求", "来源": "2025体检"}}, {"type": "Feature", "geometry": {"type": "Point", "coordinates": [111.28908396427454, 30.726536785698016]}, "properties": {"指标": "非成套住宅数量（套）", "中类": "住房", "board": "民生基础需求", "来源": "2025体检"}}, {"type": "Feature", "geometry": {"type": "Point", "coordinates": [111.28030917843594, 30.71820739171127]}, "properties": {"指标": "非成套住宅数量（套）", "中类": "住房", "board": "民生基础需求", "来源": "2025体检"}}, {"type": "Feature", "geometry": {"type": "Point", "coordinates": [111.30695828226314, 30.704695540072848]}, "properties": {"指标": "需要进行适老化改造的住宅数量（栋）", "中类": "住房", "board": "民生基础需求", "来源": "2025体检"}}, {"type": "Feature", "geometry": {"type": "Point", "coordinates": [111.29804182526935, 30.731122250475664]}, "properties": {"指标": "需要进行适老化改造的住宅数量（栋）", "中类": "住房", "board": "民生基础需求", "来源": "2025体检"}}, {"type": "Feature", "geometry": {"type": "Point", "coordinates": [111.31150143085381, 30.688509084299973]}, "properties": {"指标": "需要进行适老化改造的住宅数量（栋）", "中类": "住房", "board": "民生基础需求", "来源": "2025体检"}}, {"type": "Feature", "geometry": {"type": "Point", "coordinates": [111.30613890337943, 30.682363100991974]}, "properties": {"指标": "需要进行适老化改造的住宅数量（栋）", "中类": "住房", "board": "民生基础需求", "来源": "2025体检"}}, {"type": "Feature", "geometry": {"type": "Point", "coordinates": [111.307896217863, 30.704663894210615]}, "properties": {"指标": "需要进行适老化改造的住宅数量（栋）", "中类": "住房", "board": "民生基础需求", "来源": "2025体检"}}, {"type": "Feature", "geometry": {"type": "Point", "coordinates": [111.30647941569202, 30.704207341056367]}, "properties": {"指标": "需要进行适老化改造的住宅数量（栋）", "中类": "住房", "board": "民生基础需求", "来源": "2025体检"}}, {"type": "Feature", "geometry": {"type": "Point", "coordinates": [111.30649879770907, 30.705305431570995]}, "properties": {"指标": "需要进行适老化改造的住宅数量（栋）", "中类": "住房", "board": "民生基础需求", "来源": "2025体检"}}, {"type": "Feature", "geometry": {"type": "Point", "coordinates": [111.30569923802274, 30.682795342750634]}, "properties": {"指标": "需要进行适老化改造的住宅数量（栋）", "中类": "住房", "board": "民生基础需求", "来源": "2025体检"}}, {"type": "Feature", "geometry": {"type": "Point", "coordinates": [111.30589745926208, 30.68260944095836]}, "properties": {"指标": "需要进行适老化改造的住宅数量（栋）", "中类": "住房", "board": "民生基础需求", "来源": "2025体检"}}, {"type": "Feature", "geometry": {"type": "Point", "coordinates": [111.30649745491823, 30.705065727309318]}, "properties": {"指标": "需要进行适老化改造的住宅数量（栋）", "中类": "住房", "board": "民生基础需求", "来源": "2025体检"}}, {"type": "Feature", "geometry": {"type": "Point", "coordinates": [111.30695978475659, 30.705303947398153]}, "properties": {"指标": "需要进行适老化改造的住宅数量（栋）", "中类": "住房", "board": "民生基础需求", "来源": "2025体检"}}, {"type": "Feature", "geometry": {"type": "Point", "coordinates": [111.31228632496513, 30.689990627456613]}, "properties": {"指标": "需要进行适老化改造的住宅数量（栋）", "中类": "住房", "board": "民生基础需求", "来源": "2025体检"}}, {"type": "Feature", "geometry": {"type": "Point", "coordinates": [111.30699216528544, 30.703966072342638]}, "properties": {"指标": "需要进行适老化改造的住宅数量（栋）", "中类": "住房", "board": "民生基础需求", "来源": "2025体检"}}, {"type": "Feature", "geometry": {"type": "Point", "coordinates": [111.29521238819633, 30.699049656729883]}, "properties": {"指标": "需要进行适老化改造的住宅数量（栋）", "中类": "住房", "board": "民生基础需求", "来源": "2025体检"}}, {"type": "Feature", "geometry": {"type": "Point", "coordinates": [111.30563149942576, 30.68252283467211]}, "properties": {"指标": "需要进行适老化改造的住宅数量（栋）", "中类": "住房", "board": "民生基础需求", "来源": "2025体检"}}, {"type": "Feature", "geometry": {"type": "Point", "coordinates": [111.30695760400971, 30.704448782127884]}, "properties": {"指标": "需要进行适老化改造的住宅数量（栋）", "中类": "住房", "board": "民生基础需求", "来源": "2025体检"}}, {"type": "Feature", "geometry": {"type": "Point", "coordinates": [111.30648147645219, 30.70372915534362]}, "properties": {"指标": "需要进行适老化改造的住宅数量（栋）", "中类": "住房", "board": "民生基础需求", "来源": "2025体检"}}, {"type": "Feature", "geometry": {"type": "Point", "coordinates": [111.30649781612279, 30.70445685656028]}, "properties": {"指标": "需要进行适老化改造的住宅数量（栋）", "中类": "住房", "board": "民生基础需求", "来源": "2025体检"}}, {"type": "Feature", "geometry": {"type": "Point", "coordinates": [111.2879322594658, 30.714807328004877]}, "properties": {"指标": "需要进行适老化改造的住宅数量（栋）", "中类": "住房", "board": "民生基础需求", "来源": "2025体检"}}, {"type": "Feature", "geometry": {"type": "Point", "coordinates": [111.28875975070144, 30.69153733924071]}, "properties": {"指标": "需要进行适老化改造的住宅数量（栋）", "中类": "住房", "board": "民生基础需求", "来源": "2025体检"}}, {"type": "Feature", "geometry": {"type": "Point", "coordinates": [111.30695285503691, 30.705053101503147]}, "properties": {"指标": "需要进行适老化改造的住宅数量（栋）", "中类": "住房", "board": "民生基础需求", "来源": "2025体检"}}, {"type": "Feature", "geometry": {"type": "Point", "coordinates": [111.31411088632365, 30.67408141329901]}, "properties": {"指标": "需要进行适老化改造的住宅数量（栋）", "中类": "住房", "board": "民生基础需求", "来源": "2025体检"}}, {"type": "Feature", "geometry": {"type": "Point", "coordinates": [111.31081337485608, 30.704411258219768]}, "properties": {"指标": "需要进行适老化改造的住宅数量（栋）", "中类": "住房", "board": "民生基础需求", "来源": "2025体检"}}, {"type": "Feature", "geometry": {"type": "Point", "coordinates": [111.29370226157982, 30.70210275470339]}, "properties": {"指标": "需要进行适老化改造的住宅数量（栋）", "中类": "住房", "board": "民生基础需求", "来源": "2025体检"}}, {"type": "Feature", "geometry": {"type": "Point", "coordinates": [111.2889099338066, 30.69113198671983]}, "properties": {"指标": "需要进行适老化改造的住宅数量（栋）", "中类": "住房", "board": "民生基础需求", "来源": "2025体检"}}, {"type": "Feature", "geometry": {"type": "Point", "coordinates": [111.29730490158252, 30.73093970528051]}, "properties": {"指标": "需要进行适老化改造的住宅数量（栋）", "中类": "住房", "board": "民生基础需求", "来源": "2025体检"}}, {"type": "Feature", "geometry": {"type": "Point", "coordinates": [111.30699210001384, 30.704205640641035]}, "properties": {"指标": "需要进行适老化改造的住宅数量（栋）", "中类": "住房", "board": "民生基础需求", "来源": "2025体检"}}, {"type": "Feature", "geometry": {"type": "Point", "coordinates": [111.30597861527781, 30.682482582481605]}, "properties": {"指标": "需要进行适老化改造的住宅数量（栋）", "中类": "住房", "board": "民生基础需求", "来源": "2025体检"}}, {"type": "Feature", "geometry": {"type": "Point", "coordinates": [111.30699394550643, 30.70372675942765]}, "properties": {"指标": "需要进行适老化改造的住宅数量（栋）", "中类": "住房", "board": "民生基础需求", "来源": "2025体检"}}, {"type": "Feature", "geometry": {"type": "Point", "coordinates": [111.30642642946215, 30.706118446622302]}, "properties": {"指标": "需要进行适老化改造的住宅数量（栋）", "中类": "住房", "board": "民生基础需求", "来源": "2025体检"}}, {"type": "Feature", "geometry": {"type": "Point", "coordinates": [111.28885798330516, 30.691076773133926]}, "properties": {"指标": "需要进行适老化改造的住宅数量（栋）", "中类": "住房", "board": "民生基础需求", "来源": "2025体检"}}, {"type": "Feature", "geometry": {"type": "Point", "coordinates": [111.2883366486305, 30.715334212978327]}, "properties": {"指标": "需要进行适老化改造的住宅数量（栋）", "中类": "住房", "board": "民生基础需求", "来源": "2025体检"}}, {"type": "Feature", "geometry": {"type": "Point", "coordinates": [111.29506477970155, 30.699285532854073]}, "properties": {"指标": "需要进行适老化改造的住宅数量（栋）", "中类": "住房", "board": "民生基础需求", "来源": "2025体检"}}, {"type": "Feature", "geometry": {"type": "Point", "coordinates": [111.30600475500785, 30.68236842728088]}, "properties": {"指标": "需要进行适老化改造的住宅数量（栋）", "中类": "住房", "board": "民生基础需求", "来源": "2025体检"}}, {"type": "Feature", "geometry": {"type": "Point", "coordinates": [111.3056091382433, 30.683061071992885]}, "properties": {"指标": "需要进行适老化改造的住宅数量（栋）", "中类": "住房", "board": "民生基础需求", "来源": "2025体检"}}, {"type": "Feature", "geometry": {"type": "Point", "coordinates": [111.29747019705049, 30.730790024291387]}, "properties": {"指标": "需要进行适老化改造的住宅数量（栋）", "中类": "住房", "board": "民生基础需求", "来源": "2025体检"}}, {"type": "Feature", "geometry": {"type": "Point", "coordinates": [111.30648421323312, 30.703969395475784]}, "properties": {"指标": "需要进行适老化改造的住宅数量（栋）", "中类": "住房", "board": "民生基础需求", "来源": "2025体检"}}, {"type": "Feature", "geometry": {"type": "Point", "coordinates": [111.30641482664207, 30.706716075852288]}, "properties": {"指标": "需要进行适老化改造的住宅数量（栋）", "中类": "住房", "board": "民生基础需求", "来源": "2025体检"}}, {"type": "Feature", "geometry": {"type": "Point", "coordinates": [111.30649674585197, 30.70470314749851]}, "properties": {"指标": "需要进行适老化改造的住宅数量（栋）", "中类": "住房", "board": "民生基础需求", "来源": "2025体检"}}, {"type": "Feature", "properties": {"指标": "需要进行适老化改造的住宅数量（栋）", "中类": "住房", "board": "民生基础需求", "来源": "2026补充", "原图层": "需要进行适老化改造住宅", "街办_源": "点军街办", "社区_源": "红光社区", "小区_源": "红光小区", "楼栋_源": "红光小区居民楼四号楼", "社区": "红光社区"}, "geometry": {"type": "Point", "coordinates": [111.28286329000008, 30.67739042100004]}}, {"type": "Feature", "properties": {"指标": "需要进行适老化改造的住宅数量（栋）", "中类": "住房", "board": "民生基础需求", "来源": "2026补充", "原图层": "需要进行适老化改造住宅", "街办_源": "点军街办", "社区_源": "红光社区", "小区_源": "红光小区", "楼栋_源": "红光小区2栋", "社区": "红光社区"}, "geometry": {"type": "Point", "coordinates": [111.28320312600005, 30.676813765000077]}}, {"type": "Feature", "properties": {"指标": "需要进行适老化改造的住宅数量（栋）", "中类": "住房", "board": "民生基础需求", "来源": "2026补充", "原图层": "需要进行适老化改造住宅", "街办_源": "点军街办", "社区_源": "红光社区", "小区_源": "红光小区", "楼栋_源": "红光小区一号居民楼", "社区": "红光社区"}, "geometry": {"type": "Point", "coordinates": [111.28357663900005, 30.676771634000033]}}, {"type": "Feature", "properties": {"指标": "需要进行适老化改造的住宅数量（栋）", "中类": "住房", "board": "民生基础需求", "来源": "2026补充", "原图层": "需要进行适老化改造住宅", "街办_源": "点军街办", "社区_源": "红光社区", "小区_源": "红光小区", "楼栋_源": "红光小区7栋", "社区": "红光社区"}, "geometry": {"type": "Point", "coordinates": [111.28362868600004, 30.677435185000036]}}, {"type": "Feature", "properties": {"指标": "需要进行适老化改造的住宅数量（栋）", "中类": "住房", "board": "民生基础需求", "来源": "2026补充", "原图层": "需要进行适老化改造住宅", "街办_源": "点军街办", "社区_源": "红光社区", "小区_源": "红光小区", "楼栋_源": "红光小区居民楼六号楼", "社区": "红光社区"}, "geometry": {"type": "Point", "coordinates": [111.28223872600006, 30.677598438000075]}}, {"type": "Feature", "properties": {"指标": "需要进行适老化改造的住宅数量（栋）", "中类": "住房", "board": "民生基础需求", "来源": "2026补充", "原图层": "需要进行适老化改造住宅", "街办_源": "点军街办", "社区_源": "红光社区", "小区_源": "红光小区", "楼栋_源": "红光小区居民楼三号楼", "社区": "红光社区"}, "geometry": {"type": "Point", "coordinates": [111.28305004600008, 30.67711657600006]}}, {"type": "Feature", "properties": {"指标": "需要进行适老化改造的住宅数量（栋）", "中类": "住房", "board": "民生基础需求", "来源": "2026补充", "原图层": "需要进行适老化改造住宅", "街办_源": "点军街办", "社区_源": "红光社区", "小区_源": "红光小区", "楼栋_源": "红光小区5栋", "社区": "红光社区"}, "geometry": {"type": "Point", "coordinates": [111.28251733100007, 30.67742465200007]}}, {"type": "Feature", "properties": {"指标": "需要进行适老化改造的住宅数量（栋）", "中类": "住房", "board": "民生基础需求", "来源": "2026补充", "原图层": "需要进行适老化改造住宅", "街办_源": "点军街办", "社区_源": "五龙社区", "小区_源": "杨家湾小区", "楼栋_源": "杨家湾小区5栋", "社区": "五龙社区"}, "geometry": {"type": "Point", "coordinates": [111.26794132400005, 30.67538859000007]}}, {"type": "Feature", "properties": {"指标": "需要进行适老化改造的住宅数量（栋）", "中类": "住房", "board": "民生基础需求", "来源": "2026补充", "原图层": "需要进行适老化改造住宅", "街办_源": "点军街办", "社区_源": "五龙社区", "小区_源": "杨家湾小区", "楼栋_源": "杨家湾小区7栋", "社区": "五龙社区"}, "geometry": {"type": "Point", "coordinates": [111.26785981500007, 30.675952755000026]}}, {"type": "Feature", "properties": {"指标": "需要进行适老化改造的住宅数量（栋）", "中类": "住房", "board": "民生基础需求", "来源": "2026补充", "原图层": "需要进行适老化改造住宅", "街办_源": "点军街办", "社区_源": "五龙社区", "小区_源": "杨家湾小区", "楼栋_源": "杨家湾小区6栋", "社区": "五龙社区"}, "geometry": {"type": "Point", "coordinates": [111.26753766100006, 30.675448679000056]}}, {"type": "Feature", "properties": {"指标": "需要进行适老化改造的住宅数量（栋）", "中类": "住房", "board": "民生基础需求", "来源": "2026补充", "原图层": "需要进行适老化改造住宅", "街办_源": "点军街办", "社区_源": "五龙社区", "小区_源": "杨家湾小区", "楼栋_源": "杨家湾小区2号楼", "社区": "五龙社区"}, "geometry": {"type": "Point", "coordinates": [111.26749496600007, 30.674370414000066]}}, {"type": "Feature", "properties": {"指标": "需要进行适老化改造的住宅数量（栋）", "中类": "住房", "board": "民生基础需求", "来源": "2026补充", "原图层": "需要进行适老化改造住宅", "街办_源": "点军街办", "社区_源": "五龙社区", "小区_源": "杨家湾小区", "楼栋_源": "杨家湾小区4栋", "社区": "五龙社区"}, "geometry": {"type": "Point", "coordinates": [111.26769291600004, 30.67494793800006]}}, {"type": "Feature", "properties": {"指标": "需要进行适老化改造的住宅数量（栋）", "中类": "住房", "board": "民生基础需求", "来源": "2026补充", "原图层": "需要进行适老化改造住宅", "街办_源": "点军街办", "社区_源": "五龙社区", "小区_源": "杨家湾小区", "楼栋_源": "杨家湾小区3栋", "社区": "五龙社区"}, "geometry": {"type": "Point", "coordinates": [111.26758035600005, 30.67466752200005]}}, {"type": "Feature", "properties": {"指标": "需要进行适老化改造的住宅数量（栋）", "中类": "住房", "board": "民生基础需求", "来源": "2026补充", "原图层": "需要进行适老化改造住宅", "街办_源": "点军街办", "社区_源": "五龙社区", "小区_源": "西边冲小区", "楼栋_源": "西边冲小区9栋", "社区": "五龙社区"}, "geometry": {"type": "Point", "coordinates": [111.27343893200003, 30.67773576700006]}}, {"type": "Feature", "properties": {"指标": "需要进行适老化改造的住宅数量（栋）", "中类": "住房", "board": "民生基础需求", "来源": "2026补充", "原图层": "需要进行适老化改造住宅", "街办_源": "虎牙街办", "社区_源": "虎牙社区", "小区_源": "猇亭大道18号院", "楼栋_源": "锦绣江东经济适用房5号楼", "社区": "虎牙社区"}, "geometry": {"type": "Point", "coordinates": [111.39856534000006, 30.568377592000047]}}, {"type": "Feature", "properties": {"指标": "需要进行适老化改造的住宅数量（栋）", "中类": "住房", "board": "民生基础需求", "来源": "2026补充", "原图层": "需要进行适老化改造住宅", "街办_源": "虎牙街办", "社区_源": "虎牙社区", "小区_源": "猇亭大道18号院", "楼栋_源": "锦绣江东经济适用房6号楼", "社区": "虎牙社区"}, "geometry": {"type": "Point", "coordinates": [111.39890271300004, 30.568472142000076]}}, {"type": "Feature", "properties": {"指标": "需要进行适老化改造的住宅数量（栋）", "中类": "住房", "board": "民生基础需求", "来源": "2026补充", "原图层": "需要进行适老化改造住宅", "街办_源": "小溪塔街办", "社区_源": "朝阳社区", "小区_源": "广厦路西侧杂居小区", "楼栋_源": "1", "社区": "朝阳社区"}, "geometry": {"type": "Point", "coordinates": [111.32671064700008, 30.778453685000045]}}, {"type": "Feature", "properties": {"指标": "需要进行适老化改造的住宅数量（栋）", "中类": "住房", "board": "民生基础需求", "来源": "2026补充", "原图层": "需要进行适老化改造住宅", "街办_源": "小溪塔街办", "社区_源": "峡江社区", "小区_源": "湖锦花园小区", "楼栋_源": "108栋", "社区": "峡江社区"}, "geometry": {"type": "Point", "coordinates": [111.30123301300006, 30.770085618000053]}}, {"type": "Feature", "properties": {"指标": "需要进行适老化改造的住宅数量（栋）", "中类": "住房", "board": "民生基础需求", "来源": "2026补充", "原图层": "需要进行适老化改造住宅", "街办_源": "小溪塔街办", "社区_源": "峡江社区", "小区_源": "碧水蓝天小区", "楼栋_源": "峡洲路11号碧水蓝天1栋", "社区": "峡江社区"}, "geometry": {"type": "Point", "coordinates": [111.30233400500003, 30.77154266200006]}}, {"type": "Feature", "properties": {"指标": "需要进行适老化改造的住宅数量（栋）", "中类": "住房", "board": "民生基础需求", "来源": "2026补充", "原图层": "需要进行适老化改造住宅", "街办_源": "小溪塔街办", "社区_源": "峡江社区", "小区_源": "紫荆花园小区", "楼栋_源": "峡洲路9号紫荆花园1号楼", "社区": "峡江社区"}, "geometry": {"type": "Point", "coordinates": [111.30246052600006, 30.77062101300004]}}, {"type": "Feature", "properties": {"指标": "需要进行适老化改造的住宅数量（栋）", "中类": "住房", "board": "民生基础需求", "来源": "2026补充", "原图层": "需要进行适老化改造住宅", "街办_源": "小溪塔街办", "社区_源": "峡江社区", "小区_源": "幸福家园小区", "楼栋_源": "峡洲路7-3住宅", "社区": "峡江社区"}, "geometry": {"type": "Point", "coordinates": [111.30267901900004, 30.769821060000027]}}, {"type": "Feature", "properties": {"指标": "需要进行适老化改造的住宅数量（栋）", "中类": "住房", "board": "民生基础需求", "来源": "2026补充", "原图层": "需要进行适老化改造住宅", "街办_源": "小溪塔街办", "社区_源": "峡江社区", "小区_源": "幸福家园小区", "楼栋_源": "峡洲路7-1住宅", "社区": "峡江社区"}, "geometry": {"type": "Point", "coordinates": [111.30241652900008, 30.769916480000063]}}, {"type": "Feature", "properties": {"指标": "需要进行适老化改造的住宅数量（栋）", "中类": "住房", "board": "民生基础需求", "来源": "2026补充", "原图层": "需要进行适老化改造住宅", "街办_源": "小溪塔街办", "社区_源": "峡江社区", "小区_源": "幸福家园小区", "楼栋_源": "峡洲路7-2住宅", "社区": "峡江社区"}, "geometry": {"type": "Point", "coordinates": [111.30260229100008, 30.770201005000047]}}, {"type": "Feature", "properties": {"指标": "需要进行适老化改造的住宅数量（栋）", "中类": "住房", "board": "民生基础需求", "来源": "2026补充", "原图层": "需要进行适老化改造住宅", "街办_源": "小溪塔街办", "社区_源": "峡江社区", "小区_源": "香山凤凰城小区", "楼栋_源": "香山凤凰城1栋", "社区": "峡江社区"}, "geometry": {"type": "Point", "coordinates": [111.30191915700004, 30.767946344000052]}}, {"type": "Feature", "properties": {"指标": "需要进行适老化改造的住宅数量（栋）", "中类": "住房", "board": "民生基础需求", "来源": "2026补充", "原图层": "需要进行适老化改造住宅", "街办_源": "小溪塔街办", "社区_源": "东湖社区", "小区_源": "客运宿舍小区", "楼栋_源": "客运站宿舍"}, "geometry": {"type": "Point", "coordinates": [111.32052073000006, 30.769676504000074]}}, {"type": "Feature", "properties": {"指标": "需要进行适老化改造的住宅数量（栋）", "中类": "住房", "board": "民生基础需求", "来源": "2026补充", "原图层": "需要进行适老化改造住宅", "街办_源": "小溪塔街办", "社区_源": "营盘社区", "小区_源": "民政小区", "楼栋_源": "2", "社区": "营盘社区"}, "geometry": {"type": "Point", "coordinates": [111.32826922100008, 30.775917803000027]}}, {"type": "Feature", "properties": {"指标": "需要进行适老化改造的住宅数量（栋）", "中类": "住房", "board": "民生基础需求", "来源": "2026补充", "原图层": "需要进行适老化改造住宅", "街办_源": "小溪塔街办", "社区_源": "营盘社区", "小区_源": "申昌小区", "楼栋_源": "1", "社区": "营盘社区"}, "geometry": {"type": "Point", "coordinates": [111.32800478500008, 30.775251258000026]}}]}