{"type": "FeatureCollection", "features": [{"type": "Feature", "geometry": {"type": "Point", "coordinates": [111.298945, 30.69068]}, "properties": {"指标": "未实施物业管理的小区数量（个）", "中类": "物业街面", "board": "民生基础需求", "来源": "2025体检"}}, {"type": "Feature", "geometry": {"type": "Point", "coordinates": [111.281359, 30.708714]}, "properties": {"指标": "未实施物业管理的小区数量（个）", "中类": "物业街面", "board": "民生基础需求", "来源": "2025体检"}}, {"type": "Feature", "geometry": {"type": "Point", "coordinates": [111.312949, 30.674338]}, "properties": {"指标": "未实施物业管理的小区数量（个）", "中类": "物业街面", "board": "民生基础需求", "来源": "2025体检"}}, {"type": "Feature", "geometry": {"type": "Point", "coordinates": [111.306701, 30.708186]}, "properties": {"指标": "未实施物业管理的小区数量（个）", "中类": "物业街面", "board": "民生基础需求", "来源": "2025体检"}}, {"type": "Feature", "geometry": {"type": "Point", "coordinates": [111.307141, 30.685214]}, "properties": {"指标": "未实施物业管理的小区数量（个）", "中类": "物业街面", "board": "民生基础需求", "来源": "2025体检"}}, {"type": "Feature", "geometry": {"type": "Point", "coordinates": [111.27262, 30.705257]}, "properties": {"指标": "未实施物业管理的小区数量（个）", "中类": "物业街面", "board": "民生基础需求", "来源": "2025体检"}}, {"type": "Feature", "geometry": {"type": "Point", "coordinates": [111.284353, 30.699211]}, "properties": {"指标": "未实施物业管理的小区数量（个）", "中类": "物业街面", "board": "民生基础需求", "来源": "2025体检"}}, {"type": "Feature", "geometry": {"type": "Point", "coordinates": [111.289463, 30.701452]}, "properties": {"指标": "未实施物业管理的小区数量（个）", "中类": "物业街面", "board": "民生基础需求", "来源": "2025体检"}}, {"type": "Feature", "geometry": {"type": "Point", "coordinates": [111.282321, 30.704545]}, "properties": {"指标": "未实施物业管理的小区数量（个）", "中类": "物业街面", "board": "民生基础需求", "来源": "2025体检"}}, {"type": "Feature", "geometry": {"type": "Point", "coordinates": [111.287186, 30.728168]}, "properties": {"指标": "未实施物业管理的小区数量（个）", "中类": "物业街面", "board": "民生基础需求", "来源": "2025体检"}}, {"type": "Feature", "geometry": {"type": "Point", "coordinates": [111.277112, 30.724871]}, "properties": {"指标": "未实施物业管理的小区数量（个）", "中类": "物业街面", "board": "民生基础需求", "来源": "2025体检"}}, {"type": "Feature", "geometry": {"type": "Point", "coordinates": [111.312508, 30.699471]}, "properties": {"指标": "未实施物业管理的小区数量（个）", "中类": "物业街面", "board": "民生基础需求", "来源": "2025体检"}}, {"type": "Feature", "geometry": {"type": "Point", "coordinates": [111.285156, 30.693481]}, "properties": {"指标": "未实施物业管理的小区数量（个）", "中类": "物业街面", "board": "民生基础需求", "来源": "2025体检"}}, {"type": "Feature", "geometry": {"type": "Point", "coordinates": [111.355176, 30.639865]}, "properties": {"指标": "未实施物业管理的小区数量（个）", "中类": "物业街面", "board": "民生基础需求", "来源": "2025体检"}}, {"type": "Feature", "geometry": {"type": "Point", "coordinates": [111.320122, 30.672422]}, "properties": {"指标": "未实施物业管理的小区数量（个）", "中类": "物业街面", "board": "民生基础需求", "来源": "2025体检"}}, {"type": "Feature", "geometry": {"type": "Point", "coordinates": [111.287594, 30.698176]}, "properties": {"指标": "未实施物业管理的小区数量（个）", "中类": "物业街面", "board": "民生基础需求", "来源": "2025体检"}}, {"type": "Feature", "geometry": {"type": "Point", "coordinates": [111.280783, 30.715328]}, "properties": {"指标": "未实施物业管理的小区数量（个）", "中类": "物业街面", "board": "民生基础需求", "来源": "2025体检"}}, {"type": "Feature", "geometry": {"type": "Point", "coordinates": [111.291595, 30.710982]}, "properties": {"指标": "未实施物业管理的小区数量（个）", "中类": "物业街面", "board": "民生基础需求", "来源": "2025体检"}}, {"type": "Feature", "geometry": {"type": "Point", "coordinates": [111.317059, 30.673124]}, "properties": {"指标": "未实施物业管理的小区数量（个）", "中类": "物业街面", "board": "民生基础需求", "来源": "2025体检"}}, {"type": "Feature", "geometry": {"type": "Point", "coordinates": [111.308076, 30.679545]}, "properties": {"指标": "未实施物业管理的小区数量（个）", "中类": "物业街面", "board": "民生基础需求", "来源": "2025体检"}}, {"type": "Feature", "geometry": {"type": "Point", "coordinates": [111.302607, 30.740405]}, "properties": {"指标": "未实施物业管理的小区数量（个）", "中类": "物业街面", "board": "民生基础需求", "来源": "2025体检"}}, {"type": "Feature", "geometry": {"type": "Point", "coordinates": [111.29594, 30.68974]}, "properties": {"指标": "未实施物业管理的小区数量（个）", "中类": "物业街面", "board": "民生基础需求", "来源": "2025体检"}}, {"type": "Feature", "geometry": {"type": "Point", "coordinates": [111.279659, 30.714723]}, "properties": {"指标": "未实施物业管理的小区数量（个）", "中类": "物业街面", "board": "民生基础需求", "来源": "2025体检"}}, {"type": "Feature", "geometry": {"type": "Point", "coordinates": [111.288898, 30.695789]}, "properties": {"指标": "未实施物业管理的小区数量（个）", "中类": "物业街面", "board": "民生基础需求", "来源": "2025体检"}}, {"type": "Feature", "geometry": {"type": "Point", "coordinates": [111.290486, 30.69005]}, "properties": {"指标": "未实施物业管理的小区数量（个）", "中类": "物业街面", "board": "民生基础需求", "来源": "2025体检"}}, {"type": "Feature", "geometry": {"type": "Point", "coordinates": [111.292266, 30.712783]}, "properties": {"指标": "未实施物业管理的小区数量（个）", "中类": "物业街面", "board": "民生基础需求", "来源": "2025体检"}}, {"type": "Feature", "geometry": {"type": "Point", "coordinates": [111.31975, 30.672519]}, "properties": {"指标": "未实施物业管理的小区数量（个）", "中类": "物业街面", "board": "民生基础需求", "来源": "2025体检"}}, {"type": "Feature", "geometry": {"type": "Point", "coordinates": [111.298566, 30.704228]}, "properties": {"指标": "未实施物业管理的小区数量（个）", "中类": "物业街面", "board": "民生基础需求", "来源": "2025体检"}}, {"type": "Feature", "geometry": {"type": "Point", "coordinates": [111.308605, 30.705478]}, "properties": {"指标": "未实施物业管理的小区数量（个）", "中类": "物业街面", "board": "民生基础需求", "来源": "2025体检"}}, {"type": "Feature", "geometry": {"type": "Point", "coordinates": [111.273309, 30.724408]}, "properties": {"指标": "未实施物业管理的小区数量（个）", "中类": "物业街面", "board": "民生基础需求", "来源": "2025体检"}}, {"type": "Feature", "geometry": {"type": "Point", "coordinates": [111.287571, 30.694718]}, "properties": {"指标": "未实施物业管理的小区数量（个）", "中类": "物业街面", "board": "民生基础需求", "来源": "2025体检"}}, {"type": "Feature", "geometry": {"type": "Point", "coordinates": [111.317201, 30.671065]}, "properties": {"指标": "未实施物业管理的小区数量（个）", "中类": "物业街面", "board": "民生基础需求", "来源": "2025体检"}}, {"type": "Feature", "geometry": {"type": "Point", "coordinates": [111.32002, 30.673094]}, "properties": {"指标": "未实施物业管理的小区数量（个）", "中类": "物业街面", "board": "民生基础需求", "来源": "2025体检"}}, {"type": "Feature", "geometry": {"type": "Point", "coordinates": [111.276584, 30.723336]}, "properties": {"指标": "未实施物业管理的小区数量（个）", "中类": "物业街面", "board": "民生基础需求", "来源": "2025体检"}}, {"type": "Feature", "geometry": {"type": "Point", "coordinates": [111.292734, 30.713839]}, "properties": {"指标": "未实施物业管理的小区数量（个）", "中类": "物业街面", "board": "民生基础需求", "来源": "2025体检"}}, {"type": "Feature", "geometry": {"type": "Point", "coordinates": [111.291231, 30.707852]}, "properties": {"指标": "未实施物业管理的小区数量（个）", "中类": "物业街面", "board": "民生基础需求", "来源": "2025体检"}}, {"type": "Feature", "geometry": {"type": "Point", "coordinates": [111.298721, 30.689865]}, "properties": {"指标": "未实施物业管理的小区数量（个）", "中类": "物业街面", "board": "民生基础需求", "来源": "2025体检"}}, {"type": "Feature", "geometry": {"type": "Point", "coordinates": [111.302927, 30.733693]}, "properties": {"指标": "未实施物业管理的小区数量（个）", "中类": "物业街面", "board": "民生基础需求", "来源": "2025体检"}}, {"type": "Feature", "geometry": {"type": "Point", "coordinates": [111.279414, 30.715377]}, "properties": {"指标": "未实施物业管理的小区数量（个）", "中类": "物业街面", "board": "民生基础需求", "来源": "2025体检"}}, {"type": "Feature", "geometry": {"type": "Point", "coordinates": [111.296096, 30.734775]}, "properties": {"指标": "未实施物业管理的小区数量（个）", "中类": "物业街面", "board": "民生基础需求", "来源": "2025体检"}}, {"type": "Feature", "geometry": {"type": "Point", "coordinates": [111.312971, 30.678114]}, "properties": {"指标": "未实施物业管理的小区数量（个）", "中类": "物业街面", "board": "民生基础需求", "来源": "2025体检"}}, {"type": "Feature", "geometry": {"type": "Point", "coordinates": [111.282989, 30.698698]}, "properties": {"指标": "未实施物业管理的小区数量（个）", "中类": "物业街面", "board": "民生基础需求", "来源": "2025体检"}}, {"type": "Feature", "geometry": {"type": "Point", "coordinates": [111.282303, 30.708984]}, "properties": {"指标": "未实施物业管理的小区数量（个）", "中类": "物业街面", "board": "民生基础需求", "来源": "2025体检"}}, {"type": "Feature", "geometry": {"type": "Point", "coordinates": [111.292242, 30.722622]}, "properties": {"指标": "未实施物业管理的小区数量（个）", "中类": "物业街面", "board": "民生基础需求", "来源": "2025体检"}}, {"type": "Feature", "geometry": {"type": "Point", "coordinates": [111.290134, 30.691561]}, "properties": {"指标": "未实施物业管理的小区数量（个）", "中类": "物业街面", "board": "民生基础需求", "来源": "2025体检"}}, {"type": "Feature", "geometry": {"type": "Point", "coordinates": [111.303355, 30.687049]}, "properties": {"指标": "未实施物业管理的小区数量（个）", "中类": "物业街面", "board": "民生基础需求", "来源": "2025体检"}}, {"type": "Feature", "geometry": {"type": "Point", "coordinates": [111.278483, 30.703366]}, "properties": {"指标": "未实施物业管理的小区数量（个）", "中类": "物业街面", "board": "民生基础需求", "来源": "2025体检"}}, {"type": "Feature", "geometry": {"type": "Point", "coordinates": [111.274117, 30.722356]}, "properties": {"指标": "未实施物业管理的小区数量（个）", "中类": "物业街面", "board": "民生基础需求", "来源": "2025体检"}}, {"type": "Feature", "geometry": {"type": "Point", "coordinates": [111.287598, 30.698188]}, "properties": {"指标": "未实施物业管理的小区数量（个）", "中类": "物业街面", "board": "民生基础需求", "来源": "2025体检"}}, {"type": "Feature", "geometry": {"type": "Point", "coordinates": [111.271698, 30.719264]}, "properties": {"指标": "未实施物业管理的小区数量（个）", "中类": "物业街面", "board": "民生基础需求", "来源": "2025体检"}}, {"type": "Feature", "geometry": {"type": "Point", "coordinates": [111.288221, 30.714883]}, "properties": {"指标": "未实施物业管理的小区数量（个）", "中类": "物业街面", "board": "民生基础需求", "来源": "2025体检"}}, {"type": "Feature", "geometry": {"type": "Point", "coordinates": [111.30467, 30.686274]}, "properties": {"指标": "未实施物业管理的小区数量（个）", "中类": "物业街面", "board": "民生基础需求", "来源": "2025体检"}}, {"type": "Feature", "geometry": {"type": "Point", "coordinates": [111.281748, 30.695281]}, "properties": {"指标": "未实施物业管理的小区数量（个）", "中类": "物业街面", "board": "民生基础需求", "来源": "2025体检"}}, {"type": "Feature", "geometry": {"type": "Point", "coordinates": [111.30419, 30.681712]}, "properties": {"指标": "未实施物业管理的小区数量（个）", "中类": "物业街面", "board": "民生基础需求", "来源": "2025体检"}}, {"type": "Feature", "geometry": {"type": "Point", "coordinates": [111.297691, 30.696967]}, "properties": {"指标": "未实施物业管理的小区数量（个）", "中类": "物业街面", "board": "民生基础需求", "来源": "2025体检"}}, {"type": "Feature", "geometry": {"type": "Point", "coordinates": [111.312864, 30.694393]}, "properties": {"指标": "未实施物业管理的小区数量（个）", "中类": "物业街面", "board": "民生基础需求", "来源": "2025体检"}}, {"type": "Feature", "geometry": {"type": "Point", "coordinates": [111.296784, 30.697053]}, "properties": {"指标": "未实施物业管理的小区数量（个）", "中类": "物业街面", "board": "民生基础需求", "来源": "2025体检"}}, {"type": "Feature", "geometry": {"type": "Point", "coordinates": [111.296946, 30.696504]}, "properties": {"指标": "未实施物业管理的小区数量（个）", "中类": "物业街面", "board": "民生基础需求", "来源": "2025体检"}}, {"type": "Feature", "geometry": {"type": "Point", "coordinates": [111.284124, 30.708277]}, "properties": {"指标": "未实施物业管理的小区数量（个）", "中类": "物业街面", "board": "民生基础需求", "来源": "2025体检"}}, {"type": "Feature", "geometry": {"type": "Point", "coordinates": [111.28484, 30.704326]}, "properties": {"指标": "未实施物业管理的小区数量（个）", "中类": "物业街面", "board": "民生基础需求", "来源": "2025体检"}}, {"type": "Feature", "geometry": {"type": "Point", "coordinates": [111.281154, 30.709947]}, "properties": {"指标": "未实施物业管理的小区数量（个）", "中类": "物业街面", "board": "民生基础需求", "来源": "2025体检"}}, {"type": "Feature", "geometry": {"type": "Point", "coordinates": [111.283452, 30.712209]}, "properties": {"指标": "未实施物业管理的小区数量（个）", "中类": "物业街面", "board": "民生基础需求", "来源": "2025体检"}}, {"type": "Feature", "geometry": {"type": "Point", "coordinates": [111.283572, 30.699433]}, "properties": {"指标": "未实施物业管理的小区数量（个）", "中类": "物业街面", "board": "民生基础需求", "来源": "2025体检"}}, {"type": "Feature", "geometry": {"type": "Point", "coordinates": [111.339543, 30.650635]}, "properties": {"指标": "未实施物业管理的小区数量（个）", "中类": "物业街面", "board": "民生基础需求", "来源": "2025体检"}}, {"type": "Feature", "geometry": {"type": "Point", "coordinates": [111.31986, 30.67074]}, "properties": {"指标": "未实施物业管理的小区数量（个）", "中类": "物业街面", "board": "民生基础需求", "来源": "2025体检"}}, {"type": "Feature", "geometry": {"type": "Point", "coordinates": [111.322035, 30.671791]}, "properties": {"指标": "未实施物业管理的小区数量（个）", "中类": "物业街面", "board": "民生基础需求", "来源": "2025体检"}}, {"type": "Feature", "geometry": {"type": "Point", "coordinates": [111.300047, 30.689233]}, "properties": {"指标": "未实施物业管理的小区数量（个）", "中类": "物业街面", "board": "民生基础需求", "来源": "2025体检"}}, {"type": "Feature", "geometry": {"type": "Point", "coordinates": [111.291525, 30.698204]}, "properties": {"指标": "未实施物业管理的小区数量（个）", "中类": "物业街面", "board": "民生基础需求", "来源": "2025体检"}}, {"type": "Feature", "geometry": {"type": "Point", "coordinates": [111.316159, 30.67332]}, "properties": {"指标": "未实施物业管理的小区数量（个）", "中类": "物业街面", "board": "民生基础需求", "来源": "2025体检"}}, {"type": "Feature", "geometry": {"type": "Point", "coordinates": [111.298422, 30.696727]}, "properties": {"指标": "未实施物业管理的小区数量（个）", "中类": "物业街面", "board": "民生基础需求", "来源": "2025体检"}}, {"type": "Feature", "geometry": {"type": "Point", "coordinates": [111.295424, 30.714293]}, "properties": {"指标": "未实施物业管理的小区数量（个）", "中类": "物业街面", "board": "民生基础需求", "来源": "2025体检"}}, {"type": "Feature", "geometry": {"type": "Point", "coordinates": [111.272946, 30.710275]}, "properties": {"指标": "未实施物业管理的小区数量（个）", "中类": "物业街面", "board": "民生基础需求", "来源": "2025体检"}}, {"type": "Feature", "geometry": {"type": "Point", "coordinates": [111.301446, 30.733456]}, "properties": {"指标": "未实施物业管理的小区数量（个）", "中类": "物业街面", "board": "民生基础需求", "来源": "2025体检"}}, {"type": "Feature", "geometry": {"type": "Point", "coordinates": [111.278872, 30.702231]}, "properties": {"指标": "未实施物业管理的小区数量（个）", "中类": "物业街面", "board": "民生基础需求", "来源": "2025体检"}}, {"type": "Feature", "geometry": {"type": "Point", "coordinates": [111.296529, 30.696178]}, "properties": {"指标": "未实施物业管理的小区数量（个）", "中类": "物业街面", "board": "民生基础需求", "来源": "2025体检"}}, {"type": "Feature", "geometry": {"type": "Point", "coordinates": [111.288765, 30.725097]}, "properties": {"指标": "未实施物业管理的小区数量（个）", "中类": "物业街面", "board": "民生基础需求", "来源": "2025体检"}}, {"type": "Feature", "geometry": {"type": "Point", "coordinates": [111.315647, 30.670921]}, "properties": {"指标": "未实施物业管理的小区数量（个）", "中类": "物业街面", "board": "民生基础需求", "来源": "2025体检"}}, {"type": "Feature", "geometry": {"type": "Point", "coordinates": [111.355809, 30.654448]}, "properties": {"指标": "未实施物业管理的小区数量（个）", "中类": "物业街面", "board": "民生基础需求", "来源": "2025体检"}}, {"type": "Feature", "geometry": {"type": "Point", "coordinates": [111.305566, 30.712323]}, "properties": {"指标": "未实施物业管理的小区数量（个）", "中类": "物业街面", "board": "民生基础需求", "来源": "2025体检"}}, {"type": "Feature", "geometry": {"type": "Point", "coordinates": [111.30432, 30.682133]}, "properties": {"指标": "未实施物业管理的小区数量（个）", "中类": "物业街面", "board": "民生基础需求", "来源": "2025体检"}}, {"type": "Feature", "geometry": {"type": "Point", "coordinates": [111.314137, 30.688453]}, "properties": {"指标": "未实施物业管理的小区数量（个）", "中类": "物业街面", "board": "民生基础需求", "来源": "2025体检"}}, {"type": "Feature", "geometry": {"type": "Point", "coordinates": [111.353679, 30.644669]}, "properties": {"指标": "未实施物业管理的小区数量（个）", "中类": "物业街面", "board": "民生基础需求", "来源": "2025体检"}}, {"type": "Feature", "geometry": {"type": "Point", "coordinates": [111.277058, 30.712159]}, "properties": {"指标": "未实施物业管理的小区数量（个）", "中类": "物业街面", "board": "民生基础需求", "来源": "2025体检"}}, {"type": "Feature", "geometry": {"type": "Point", "coordinates": [111.315459, 30.671239]}, "properties": {"指标": "未实施物业管理的小区数量（个）", "中类": "物业街面", "board": "民生基础需求", "来源": "2025体检"}}, {"type": "Feature", "geometry": {"type": "Point", "coordinates": [111.30502, 30.682574]}, "properties": {"指标": "未实施物业管理的小区数量（个）", "中类": "物业街面", "board": "民生基础需求", "来源": "2025体检"}}, {"type": "Feature", "geometry": {"type": "Point", "coordinates": [111.35427, 30.639771]}, "properties": {"指标": "未实施物业管理的小区数量（个）", "中类": "物业街面", "board": "民生基础需求", "来源": "2025体检"}}, {"type": "Feature", "geometry": {"type": "Point", "coordinates": [111.284331, 30.707132]}, "properties": {"指标": "未实施物业管理的小区数量（个）", "中类": "物业街面", "board": "民生基础需求", "来源": "2025体检"}}, {"type": "Feature", "geometry": {"type": "Point", "coordinates": [111.284099, 30.695264]}, "properties": {"指标": "未实施物业管理的小区数量（个）", "中类": "物业街面", "board": "民生基础需求", "来源": "2025体检"}}, {"type": "Feature", "geometry": {"type": "Point", "coordinates": [111.315713, 30.672949]}, "properties": {"指标": "未实施物业管理的小区数量（个）", "中类": "物业街面", "board": "民生基础需求", "来源": "2025体检"}}, {"type": "Feature", "geometry": {"type": "Point", "coordinates": [111.276379, 30.725875]}, "properties": {"指标": "未实施物业管理的小区数量（个）", "中类": "物业街面", "board": "民生基础需求", "来源": "2025体检"}}, {"type": "Feature", "geometry": {"type": "Point", "coordinates": [111.282913, 30.725311]}, "properties": {"指标": "未实施物业管理的小区数量（个）", "中类": "物业街面", "board": "民生基础需求", "来源": "2025体检"}}, {"type": "Feature", "geometry": {"type": "Point", "coordinates": [111.31756, 30.673726]}, "properties": {"指标": "未实施物业管理的小区数量（个）", "中类": "物业街面", "board": "民生基础需求", "来源": "2025体检"}}, {"type": "Feature", "geometry": {"type": "Point", "coordinates": [111.290612, 30.701044]}, "properties": {"指标": "未实施物业管理的小区数量（个）", "中类": "物业街面", "board": "民生基础需求", "来源": "2025体检"}}, {"type": "Feature", "geometry": {"type": "Point", "coordinates": [111.345797, 30.647318]}, "properties": {"指标": "未实施物业管理的小区数量（个）", "中类": "物业街面", "board": "民生基础需求", "来源": "2025体检"}}, {"type": "Feature", "geometry": {"type": "Point", "coordinates": [111.28229, 30.697104]}, "properties": {"指标": "未实施物业管理的小区数量（个）", "中类": "物业街面", "board": "民生基础需求", "来源": "2025体检"}}, {"type": "Feature", "geometry": {"type": "Point", "coordinates": [111.309488, 30.683536]}, "properties": {"指标": "未实施物业管理的小区数量（个）", "中类": "物业街面", "board": "民生基础需求", "来源": "2025体检"}}, {"type": "Feature", "geometry": {"type": "Point", "coordinates": [111.314769, 30.673932]}, "properties": {"指标": "未实施物业管理的小区数量（个）", "中类": "物业街面", "board": "民生基础需求", "来源": "2025体检"}}, {"type": "Feature", "geometry": {"type": "Point", "coordinates": [111.277096, 30.707095]}, "properties": {"指标": "未实施物业管理的小区数量（个）", "中类": "物业街面", "board": "民生基础需求", "来源": "2025体检"}}, {"type": "Feature", "geometry": {"type": "Point", "coordinates": [111.316043, 30.671186]}, "properties": {"指标": "未实施物业管理的小区数量（个）", "中类": "物业街面", "board": "民生基础需求", "来源": "2025体检"}}, {"type": "Feature", "geometry": {"type": "Point", "coordinates": [111.29213, 30.712351]}, "properties": {"指标": "未实施物业管理的小区数量（个）", "中类": "物业街面", "board": "民生基础需求", "来源": "2025体检"}}, {"type": "Feature", "geometry": {"type": "Point", "coordinates": [111.292195, 30.690487]}, "properties": {"指标": "未实施物业管理的小区数量（个）", "中类": "物业街面", "board": "民生基础需求", "来源": "2025体检"}}, {"type": "Feature", "geometry": {"type": "Point", "coordinates": [111.29069, 30.722675]}, "properties": {"指标": "未实施物业管理的小区数量（个）", "中类": "物业街面", "board": "民生基础需求", "来源": "2025体检"}}, {"type": "Feature", "geometry": {"type": "Point", "coordinates": [111.285155, 30.711626]}, "properties": {"指标": "未实施物业管理的小区数量（个）", "中类": "物业街面", "board": "民生基础需求", "来源": "2025体检"}}, {"type": "Feature", "geometry": {"type": "Point", "coordinates": [111.359168, 30.65633]}, "properties": {"指标": "未实施物业管理的小区数量（个）", "中类": "物业街面", "board": "民生基础需求", "来源": "2025体检"}}, {"type": "Feature", "geometry": {"type": "Point", "coordinates": [111.33139, 30.662468]}, "properties": {"指标": "未实施物业管理的小区数量（个）", "中类": "物业街面", "board": "民生基础需求", "来源": "2025体检"}}, {"type": "Feature", "geometry": {"type": "Point", "coordinates": [111.30381, 30.694869]}, "properties": {"指标": "未实施物业管理的小区数量（个）", "中类": "物业街面", "board": "民生基础需求", "来源": "2025体检"}}, {"type": "Feature", "geometry": {"type": "Point", "coordinates": [111.353639, 30.644312]}, "properties": {"指标": "未实施物业管理的小区数量（个）", "中类": "物业街面", "board": "民生基础需求", "来源": "2025体检"}}, {"type": "Feature", "geometry": {"type": "Point", "coordinates": [111.290674, 30.719695]}, "properties": {"指标": "未实施物业管理的小区数量（个）", "中类": "物业街面", "board": "民生基础需求", "来源": "2025体检"}}, {"type": "Feature", "geometry": {"type": "Point", "coordinates": [111.273754, 30.702322]}, "properties": {"指标": "未实施物业管理的小区数量（个）", "中类": "物业街面", "board": "民生基础需求", "来源": "2025体检"}}, {"type": "Feature", "geometry": {"type": "Point", "coordinates": [111.294159, 30.697158]}, "properties": {"指标": "未实施物业管理的小区数量（个）", "中类": "物业街面", "board": "民生基础需求", "来源": "2025体检"}}, {"type": "Feature", "geometry": {"type": "Point", "coordinates": [111.303767, 30.685974]}, "properties": {"指标": "未实施物业管理的小区数量（个）", "中类": "物业街面", "board": "民生基础需求", "来源": "2025体检"}}, {"type": "Feature", "geometry": {"type": "Point", "coordinates": [111.282229, 30.72505]}, "properties": {"指标": "未实施物业管理的小区数量（个）", "中类": "物业街面", "board": "民生基础需求", "来源": "2025体检"}}, {"type": "Feature", "geometry": {"type": "Point", "coordinates": [111.341125, 30.649275]}, "properties": {"指标": "未实施物业管理的小区数量（个）", "中类": "物业街面", "board": "民生基础需求", "来源": "2025体检"}}, {"type": "Feature", "geometry": {"type": "Point", "coordinates": [111.354598, 30.650793]}, "properties": {"指标": "未实施物业管理的小区数量（个）", "中类": "物业街面", "board": "民生基础需求", "来源": "2025体检"}}, {"type": "Feature", "geometry": {"type": "Point", "coordinates": [111.302728, 30.690744]}, "properties": {"指标": "未实施物业管理的小区数量（个）", "中类": "物业街面", "board": "民生基础需求", "来源": "2025体检"}}, {"type": "Feature", "geometry": {"type": "Point", "coordinates": [111.280753, 30.709732]}, "properties": {"指标": "未实施物业管理的小区数量（个）", "中类": "物业街面", "board": "民生基础需求", "来源": "2025体检"}}, {"type": "Feature", "geometry": {"type": "Point", "coordinates": [111.284063, 30.695295]}, "properties": {"指标": "未实施物业管理的小区数量（个）", "中类": "物业街面", "board": "民生基础需求", "来源": "2025体检"}}, {"type": "Feature", "geometry": {"type": "Point", "coordinates": [111.377248, 30.610296]}, "properties": {"指标": "未实施物业管理的小区数量（个）", "中类": "物业街面", "board": "民生基础需求", "来源": "2025体检"}}, {"type": "Feature", "geometry": {"type": "Point", "coordinates": [111.300126, 30.733202]}, "properties": {"指标": "未实施物业管理的小区数量（个）", "中类": "物业街面", "board": "民生基础需求", "来源": "2025体检"}}, {"type": "Feature", "geometry": {"type": "Point", "coordinates": [111.274012, 30.718641]}, "properties": {"指标": "未实施物业管理的小区数量（个）", "中类": "物业街面", "board": "民生基础需求", "来源": "2025体检"}}, {"type": "Feature", "geometry": {"type": "Point", "coordinates": [111.309544, 30.684596]}, "properties": {"指标": "未实施物业管理的小区数量（个）", "中类": "物业街面", "board": "民生基础需求", "来源": "2025体检"}}, {"type": "Feature", "geometry": {"type": "Point", "coordinates": [111.29062, 30.699002]}, "properties": {"指标": "未实施物业管理的小区数量（个）", "中类": "物业街面", "board": "民生基础需求", "来源": "2025体检"}}, {"type": "Feature", "geometry": {"type": "Point", "coordinates": [111.308072, 30.679551]}, "properties": {"指标": "未实施物业管理的小区数量（个）", "中类": "物业街面", "board": "民生基础需求", "来源": "2025体检"}}, {"type": "Feature", "geometry": {"type": "Point", "coordinates": [111.296348, 30.690059]}, "properties": {"指标": "未实施物业管理的小区数量（个）", "中类": "物业街面", "board": "民生基础需求", "来源": "2025体检"}}, {"type": "Feature", "geometry": {"type": "Point", "coordinates": [111.306013, 30.711371]}, "properties": {"指标": "未实施物业管理的小区数量（个）", "中类": "物业街面", "board": "民生基础需求", "来源": "2025体检"}}, {"type": "Feature", "geometry": {"type": "Point", "coordinates": [111.292509, 30.696996]}, "properties": {"指标": "未实施物业管理的小区数量（个）", "中类": "物业街面", "board": "民生基础需求", "来源": "2025体检"}}, {"type": "Feature", "geometry": {"type": "Point", "coordinates": [111.288422, 30.700162]}, "properties": {"指标": "未实施物业管理的小区数量（个）", "中类": "物业街面", "board": "民生基础需求", "来源": "2025体检"}}, {"type": "Feature", "geometry": {"type": "Point", "coordinates": [111.276401, 30.709262]}, "properties": {"指标": "未实施物业管理的小区数量（个）", "中类": "物业街面", "board": "民生基础需求", "来源": "2025体检"}}, {"type": "Feature", "geometry": {"type": "Point", "coordinates": [111.283532, 30.712244]}, "properties": {"指标": "未实施物业管理的小区数量（个）", "中类": "物业街面", "board": "民生基础需求", "来源": "2025体检"}}, {"type": "Feature", "geometry": {"type": "Point", "coordinates": [111.273093, 30.705591]}, "properties": {"指标": "未实施物业管理的小区数量（个）", "中类": "物业街面", "board": "民生基础需求", "来源": "2025体检"}}, {"type": "Feature", "geometry": {"type": "Point", "coordinates": [111.289949, 30.701482]}, "properties": {"指标": "未实施物业管理的小区数量（个）", "中类": "物业街面", "board": "民生基础需求", "来源": "2025体检"}}, {"type": "Feature", "geometry": {"type": "Point", "coordinates": [111.312754, 30.676168]}, "properties": {"指标": "未实施物业管理的小区数量（个）", "中类": "物业街面", "board": "民生基础需求", "来源": "2025体检"}}, {"type": "Feature", "geometry": {"type": "Point", "coordinates": [111.305324, 30.686943]}, "properties": {"指标": "未实施物业管理的小区数量（个）", "中类": "物业街面", "board": "民生基础需求", "来源": "2025体检"}}, {"type": "Feature", "geometry": {"type": "Point", "coordinates": [111.296695, 30.689667]}, "properties": {"指标": "未实施物业管理的小区数量（个）", "中类": "物业街面", "board": "民生基础需求", "来源": "2025体检"}}, {"type": "Feature", "geometry": {"type": "Point", "coordinates": [111.312103, 30.675879]}, "properties": {"指标": "未实施物业管理的小区数量（个）", "中类": "物业街面", "board": "民生基础需求", "来源": "2025体检"}}, {"type": "Feature", "geometry": {"type": "Point", "coordinates": [111.300381, 30.707478]}, "properties": {"指标": "未实施物业管理的小区数量（个）", "中类": "物业街面", "board": "民生基础需求", "来源": "2025体检"}}, {"type": "Feature", "geometry": {"type": "Point", "coordinates": [111.314329, 30.733261]}, "properties": {"指标": "未实施物业管理的小区数量（个）", "中类": "物业街面", "board": "民生基础需求", "来源": "2025体检"}}, {"type": "Feature", "geometry": {"type": "Point", "coordinates": [111.289313, 30.708085]}, "properties": {"指标": "未实施物业管理的小区数量（个）", "中类": "物业街面", "board": "民生基础需求", "来源": "2025体检"}}, {"type": "Feature", "geometry": {"type": "Point", "coordinates": [111.311999, 30.697721]}, "properties": {"指标": "未实施物业管理的小区数量（个）", "中类": "物业街面", "board": "民生基础需求", "来源": "2025体检"}}, {"type": "Feature", "geometry": {"type": "Point", "coordinates": [111.276848, 30.709496]}, "properties": {"指标": "未实施物业管理的小区数量（个）", "中类": "物业街面", "board": "民生基础需求", "来源": "2025体检"}}, {"type": "Feature", "geometry": {"type": "Point", "coordinates": [111.303629, 30.683537]}, "properties": {"指标": "未实施物业管理的小区数量（个）", "中类": "物业街面", "board": "民生基础需求", "来源": "2025体检"}}, {"type": "Feature", "geometry": {"type": "Point", "coordinates": [111.289098, 30.691799]}, "properties": {"指标": "未实施物业管理的小区数量（个）", "中类": "物业街面", "board": "民生基础需求", "来源": "2025体检"}}, {"type": "Feature", "geometry": {"type": "Point", "coordinates": [111.325626, 30.66935]}, "properties": {"指标": "未实施物业管理的小区数量（个）", "中类": "物业街面", "board": "民生基础需求", "来源": "2025体检"}}, {"type": "Feature", "geometry": {"type": "Point", "coordinates": [111.347777, 30.644913]}, "properties": {"指标": "未实施物业管理的小区数量（个）", "中类": "物业街面", "board": "民生基础需求", "来源": "2025体检"}}, {"type": "Feature", "geometry": {"type": "Point", "coordinates": [111.28599, 30.696476]}, "properties": {"指标": "未实施物业管理的小区数量（个）", "中类": "物业街面", "board": "民生基础需求", "来源": "2025体检"}}, {"type": "Feature", "geometry": {"type": "Point", "coordinates": [111.304757, 30.682276]}, "properties": {"指标": "未实施物业管理的小区数量（个）", "中类": "物业街面", "board": "民生基础需求", "来源": "2025体检"}}, {"type": "Feature", "geometry": {"type": "Point", "coordinates": [111.276806, 30.709511]}, "properties": {"指标": "未实施物业管理的小区数量（个）", "中类": "物业街面", "board": "民生基础需求", "来源": "2025体检"}}, {"type": "Feature", "geometry": {"type": "Point", "coordinates": [111.347906, 30.645193]}, "properties": {"指标": "未实施物业管理的小区数量（个）", "中类": "物业街面", "board": "民生基础需求", "来源": "2025体检"}}, {"type": "Feature", "geometry": {"type": "Point", "coordinates": [111.296501, 30.697635]}, "properties": {"指标": "未实施物业管理的小区数量（个）", "中类": "物业街面", "board": "民生基础需求", "来源": "2025体检"}}, {"type": "Feature", "geometry": {"type": "Point", "coordinates": [111.293022, 30.712521]}, "properties": {"指标": "未实施物业管理的小区数量（个）", "中类": "物业街面", "board": "民生基础需求", "来源": "2025体检"}}, {"type": "Feature", "geometry": {"type": "Point", "coordinates": [111.318059, 30.690341]}, "properties": {"指标": "未实施物业管理的小区数量（个）", "中类": "物业街面", "board": "民生基础需求", "来源": "2025体检"}}, {"type": "Feature", "geometry": {"type": "Point", "coordinates": [111.298871, 30.687901]}, "properties": {"指标": "未实施物业管理的小区数量（个）", "中类": "物业街面", "board": "民生基础需求", "来源": "2025体检"}}, {"type": "Feature", "geometry": {"type": "Point", "coordinates": [111.272569, 30.704909]}, "properties": {"指标": "未实施物业管理的小区数量（个）", "中类": "物业街面", "board": "民生基础需求", "来源": "2025体检"}}, {"type": "Feature", "geometry": {"type": "Point", "coordinates": [111.307879, 30.685016]}, "properties": {"指标": "未实施物业管理的小区数量（个）", "中类": "物业街面", "board": "民生基础需求", "来源": "2025体检"}}, {"type": "Feature", "geometry": {"type": "Point", "coordinates": [111.305423, 30.708291]}, "properties": {"指标": "未实施物业管理的小区数量（个）", "中类": "物业街面", "board": "民生基础需求", "来源": "2025体检"}}, {"type": "Feature", "geometry": {"type": "Point", "coordinates": [111.289784, 30.692105]}, "properties": {"指标": "未实施物业管理的小区数量（个）", "中类": "物业街面", "board": "民生基础需求", "来源": "2025体检"}}, {"type": "Feature", "geometry": {"type": "Point", "coordinates": [111.283568, 30.693123]}, "properties": {"指标": "未实施物业管理的小区数量（个）", "中类": "物业街面", "board": "民生基础需求", "来源": "2025体检"}}, {"type": "Feature", "geometry": {"type": "Point", "coordinates": [111.293264, 30.738997]}, "properties": {"指标": "未实施物业管理的小区数量（个）", "中类": "物业街面", "board": "民生基础需求", "来源": "2025体检"}}, {"type": "Feature", "geometry": {"type": "Point", "coordinates": [111.315299, 30.673247]}, "properties": {"指标": "未实施物业管理的小区数量（个）", "中类": "物业街面", "board": "民生基础需求", "来源": "2025体检"}}, {"type": "Feature", "geometry": {"type": "Point", "coordinates": [111.287431, 30.697142]}, "properties": {"指标": "未实施物业管理的小区数量（个）", "中类": "物业街面", "board": "民生基础需求", "来源": "2025体检"}}, {"type": "Feature", "geometry": {"type": "Point", "coordinates": [111.314792, 30.687935]}, "properties": {"指标": "未实施物业管理的小区数量（个）", "中类": "物业街面", "board": "民生基础需求", "来源": "2025体检"}}, {"type": "Feature", "geometry": {"type": "Point", "coordinates": [111.311637, 30.677234]}, "properties": {"指标": "未实施物业管理的小区数量（个）", "中类": "物业街面", "board": "民生基础需求", "来源": "2025体检"}}, {"type": "Feature", "geometry": {"type": "Point", "coordinates": [111.354805, 30.651087]}, "properties": {"指标": "未实施物业管理的小区数量（个）", "中类": "物业街面", "board": "民生基础需求", "来源": "2025体检"}}, {"type": "Feature", "geometry": {"type": "Point", "coordinates": [111.30486, 30.686898]}, "properties": {"指标": "未实施物业管理的小区数量（个）", "中类": "物业街面", "board": "民生基础需求", "来源": "2025体检"}}, {"type": "Feature", "geometry": {"type": "Point", "coordinates": [111.291887, 30.696953]}, "properties": {"指标": "未实施物业管理的小区数量（个）", "中类": "物业街面", "board": "民生基础需求", "来源": "2025体检"}}, {"type": "Feature", "geometry": {"type": "Point", "coordinates": [111.276073, 30.710674]}, "properties": {"指标": "未实施物业管理的小区数量（个）", "中类": "物业街面", "board": "民生基础需求", "来源": "2025体检"}}, {"type": "Feature", "geometry": {"type": "Point", "coordinates": [111.292084, 30.696446]}, "properties": {"指标": "未实施物业管理的小区数量（个）", "中类": "物业街面", "board": "民生基础需求", "来源": "2025体检"}}, {"type": "Feature", "geometry": {"type": "Point", "coordinates": [111.31667, 30.674074]}, "properties": {"指标": "未实施物业管理的小区数量（个）", "中类": "物业街面", "board": "民生基础需求", "来源": "2025体检"}}, {"type": "Feature", "geometry": {"type": "Point", "coordinates": [111.307618, 30.708519]}, "properties": {"指标": "未实施物业管理的小区数量（个）", "中类": "物业街面", "board": "民生基础需求", "来源": "2025体检"}}, {"type": "Feature", "geometry": {"type": "Point", "coordinates": [111.317289, 30.670997]}, "properties": {"指标": "未实施物业管理的小区数量（个）", "中类": "物业街面", "board": "民生基础需求", "来源": "2025体检"}}, {"type": "Feature", "geometry": {"type": "Point", "coordinates": [111.298807, 30.690406]}, "properties": {"指标": "未实施物业管理的小区数量（个）", "中类": "物业街面", "board": "民生基础需求", "来源": "2025体检"}}, {"type": "Feature", "geometry": {"type": "Point", "coordinates": [111.273651, 30.709315]}, "properties": {"指标": "未实施物业管理的小区数量（个）", "中类": "物业街面", "board": "民生基础需求", "来源": "2025体检"}}, {"type": "Feature", "geometry": {"type": "Point", "coordinates": [111.281085, 30.707256]}, "properties": {"指标": "未实施物业管理的小区数量（个）", "中类": "物业街面", "board": "民生基础需求", "来源": "2025体检"}}, {"type": "Feature", "geometry": {"type": "Point", "coordinates": [111.320244, 30.671168]}, "properties": {"指标": "未实施物业管理的小区数量（个）", "中类": "物业街面", "board": "民生基础需求", "来源": "2025体检"}}, {"type": "Feature", "geometry": {"type": "Point", "coordinates": [111.305787, 30.682305]}, "properties": {"指标": "未实施物业管理的小区数量（个）", "中类": "物业街面", "board": "民生基础需求", "来源": "2025体检"}}, {"type": "Feature", "geometry": {"type": "Point", "coordinates": [111.288915, 30.691081]}, "properties": {"指标": "未实施物业管理的小区数量（个）", "中类": "物业街面", "board": "民生基础需求", "来源": "2025体检"}}, {"type": "Feature", "geometry": {"type": "Point", "coordinates": [111.31209, 30.699291]}, "properties": {"指标": "未实施物业管理的小区数量（个）", "中类": "物业街面", "board": "民生基础需求", "来源": "2025体检"}}, {"type": "Feature", "geometry": {"type": "Point", "coordinates": [111.293601, 30.689466]}, "properties": {"指标": "未实施物业管理的小区数量（个）", "中类": "物业街面", "board": "民生基础需求", "来源": "2025体检"}}, {"type": "Feature", "geometry": {"type": "Point", "coordinates": [111.28151, 30.707776]}, "properties": {"指标": "未实施物业管理的小区数量（个）", "中类": "物业街面", "board": "民生基础需求", "来源": "2025体检"}}, {"type": "Feature", "geometry": {"type": "Point", "coordinates": [111.312766, 30.678915]}, "properties": {"指标": "未实施物业管理的小区数量（个）", "中类": "物业街面", "board": "民生基础需求", "来源": "2025体检"}}, {"type": "Feature", "geometry": {"type": "Point", "coordinates": [111.28277, 30.694234]}, "properties": {"指标": "未实施物业管理的小区数量（个）", "中类": "物业街面", "board": "民生基础需求", "来源": "2025体检"}}, {"type": "Feature", "geometry": {"type": "Point", "coordinates": [111.289497, 30.703834]}, "properties": {"指标": "未实施物业管理的小区数量（个）", "中类": "物业街面", "board": "民生基础需求", "来源": "2025体检"}}, {"type": "Feature", "geometry": {"type": "Point", "coordinates": [111.297029, 30.689738]}, "properties": {"指标": "未实施物业管理的小区数量（个）", "中类": "物业街面", "board": "民生基础需求", "来源": "2025体检"}}, {"type": "Feature", "geometry": {"type": "Point", "coordinates": [111.277313, 30.707489]}, "properties": {"指标": "未实施物业管理的小区数量（个）", "中类": "物业街面", "board": "民生基础需求", "来源": "2025体检"}}, {"type": "Feature", "geometry": {"type": "Point", "coordinates": [111.314606, 30.673322]}, "properties": {"指标": "未实施物业管理的小区数量（个）", "中类": "物业街面", "board": "民生基础需求", "来源": "2025体检"}}, {"type": "Feature", "geometry": {"type": "Point", "coordinates": [111.291954, 30.693569]}, "properties": {"指标": "未实施物业管理的小区数量（个）", "中类": "物业街面", "board": "民生基础需求", "来源": "2025体检"}}, {"type": "Feature", "geometry": {"type": "Point", "coordinates": [111.311489, 30.678437]}, "properties": {"指标": "未实施物业管理的小区数量（个）", "中类": "物业街面", "board": "民生基础需求", "来源": "2025体检"}}, {"type": "Feature", "geometry": {"type": "Point", "coordinates": [111.285877, 30.697979]}, "properties": {"指标": "未实施物业管理的小区数量（个）", "中类": "物业街面", "board": "民生基础需求", "来源": "2025体检"}}, {"type": "Feature", "geometry": {"type": "Point", "coordinates": [111.319775, 30.672583]}, "properties": {"指标": "未实施物业管理的小区数量（个）", "中类": "物业街面", "board": "民生基础需求", "来源": "2025体检"}}, {"type": "Feature", "geometry": {"type": "Point", "coordinates": [111.270818, 30.719629]}, "properties": {"指标": "未实施物业管理的小区数量（个）", "中类": "物业街面", "board": "民生基础需求", "来源": "2025体检"}}, {"type": "Feature", "geometry": {"type": "Point", "coordinates": [111.287027, 30.695476]}, "properties": {"指标": "未实施物业管理的小区数量（个）", "中类": "物业街面", "board": "民生基础需求", "来源": "2025体检"}}, {"type": "Feature", "geometry": {"type": "Point", "coordinates": [111.331304, 30.666189]}, "properties": {"指标": "未实施物业管理的小区数量（个）", "中类": "物业街面", "board": "民生基础需求", "来源": "2025体检"}}, {"type": "Feature", "geometry": {"type": "Point", "coordinates": [111.310717, 30.678259]}, "properties": {"指标": "未实施物业管理的小区数量（个）", "中类": "物业街面", "board": "民生基础需求", "来源": "2025体检"}}, {"type": "Feature", "geometry": {"type": "Point", "coordinates": [111.282511, 30.70829]}, "properties": {"指标": "未实施物业管理的小区数量（个）", "中类": "物业街面", "board": "民生基础需求", "来源": "2025体检"}}, {"type": "Feature", "geometry": {"type": "Point", "coordinates": [111.291259, 30.70191]}, "properties": {"指标": "未实施物业管理的小区数量（个）", "中类": "物业街面", "board": "民生基础需求", "来源": "2025体检"}}, {"type": "Feature", "geometry": {"type": "Point", "coordinates": [111.319115, 30.672178]}, "properties": {"指标": "未实施物业管理的小区数量（个）", "中类": "物业街面", "board": "民生基础需求", "来源": "2025体检"}}, {"type": "Feature", "geometry": {"type": "Point", "coordinates": [111.28924, 30.699531]}, "properties": {"指标": "未实施物业管理的小区数量（个）", "中类": "物业街面", "board": "民生基础需求", "来源": "2025体检"}}, {"type": "Feature", "geometry": {"type": "Point", "coordinates": [111.292694, 30.692434]}, "properties": {"指标": "未实施物业管理的小区数量（个）", "中类": "物业街面", "board": "民生基础需求", "来源": "2025体检"}}, {"type": "Feature", "geometry": {"type": "Point", "coordinates": [111.347777, 30.644913]}, "properties": {"指标": "未实施物业管理的小区数量（个）", "中类": "物业街面", "board": "民生基础需求", "来源": "2025体检"}}, {"type": "Feature", "geometry": {"type": "Point", "coordinates": [111.322011, 30.671162]}, "properties": {"指标": "未实施物业管理的小区数量（个）", "中类": "物业街面", "board": "民生基础需求", "来源": "2025体检"}}, {"type": "Feature", "geometry": {"type": "Point", "coordinates": [111.291031, 30.711851]}, "properties": {"指标": "未实施物业管理的小区数量（个）", "中类": "物业街面", "board": "民生基础需求", "来源": "2025体检"}}, {"type": "Feature", "geometry": {"type": "Point", "coordinates": [111.282234, 30.703205]}, "properties": {"指标": "未实施物业管理的小区数量（个）", "中类": "物业街面", "board": "民生基础需求", "来源": "2025体检"}}, {"type": "Feature", "geometry": {"type": "Point", "coordinates": [111.288951, 30.701174]}, "properties": {"指标": "未实施物业管理的小区数量（个）", "中类": "物业街面", "board": "民生基础需求", "来源": "2025体检"}}, {"type": "Feature", "geometry": {"type": "Point", "coordinates": [111.312394, 30.678465]}, "properties": {"指标": "未实施物业管理的小区数量（个）", "中类": "物业街面", "board": "民生基础需求", "来源": "2025体检"}}, {"type": "Feature", "geometry": {"type": "Point", "coordinates": [111.281973, 30.714372]}, "properties": {"指标": "未实施物业管理的小区数量（个）", "中类": "物业街面", "board": "民生基础需求", "来源": "2025体检"}}, {"type": "Feature", "geometry": {"type": "Point", "coordinates": [111.296816, 30.708774]}, "properties": {"指标": "未实施物业管理的小区数量（个）", "中类": "物业街面", "board": "民生基础需求", "来源": "2025体检"}}, {"type": "Feature", "geometry": {"type": "Point", "coordinates": [111.33755, 30.660483]}, "properties": {"指标": "未实施物业管理的小区数量（个）", "中类": "物业街面", "board": "民生基础需求", "来源": "2025体检"}}, {"type": "Feature", "geometry": {"type": "Point", "coordinates": [111.305537, 30.710298]}, "properties": {"指标": "未实施物业管理的小区数量（个）", "中类": "物业街面", "board": "民生基础需求", "来源": "2025体检"}}, {"type": "Feature", "geometry": {"type": "Point", "coordinates": [111.319919, 30.672313]}, "properties": {"指标": "未实施物业管理的小区数量（个）", "中类": "物业街面", "board": "民生基础需求", "来源": "2025体检"}}, {"type": "Feature", "geometry": {"type": "Point", "coordinates": [111.318532, 30.672696]}, "properties": {"指标": "未实施物业管理的小区数量（个）", "中类": "物业街面", "board": "民生基础需求", "来源": "2025体检"}}, {"type": "Feature", "geometry": {"type": "Point", "coordinates": [111.289787, 30.700211]}, "properties": {"指标": "未实施物业管理的小区数量（个）", "中类": "物业街面", "board": "民生基础需求", "来源": "2025体检"}}, {"type": "Feature", "geometry": {"type": "Point", "coordinates": [111.293508, 30.707977]}, "properties": {"指标": "未实施物业管理的小区数量（个）", "中类": "物业街面", "board": "民生基础需求", "来源": "2025体检"}}, {"type": "Feature", "geometry": {"type": "Point", "coordinates": [111.308969, 30.684997]}, "properties": {"指标": "未实施物业管理的小区数量（个）", "中类": "物业街面", "board": "民生基础需求", "来源": "2025体检"}}, {"type": "Feature", "geometry": {"type": "Point", "coordinates": [111.316545, 30.695499]}, "properties": {"指标": "未实施物业管理的小区数量（个）", "中类": "物业街面", "board": "民生基础需求", "来源": "2025体检"}}, {"type": "Feature", "geometry": {"type": "Point", "coordinates": [111.293306, 30.702472]}, "properties": {"指标": "未实施物业管理的小区数量（个）", "中类": "物业街面", "board": "民生基础需求", "来源": "2025体检"}}, {"type": "Feature", "geometry": {"type": "Point", "coordinates": [111.294016, 30.713982]}, "properties": {"指标": "未实施物业管理的小区数量（个）", "中类": "物业街面", "board": "民生基础需求", "来源": "2025体检"}}, {"type": "Feature", "geometry": {"type": "Point", "coordinates": [111.30614, 30.708135]}, "properties": {"指标": "未实施物业管理的小区数量（个）", "中类": "物业街面", "board": "民生基础需求", "来源": "2025体检"}}, {"type": "Feature", "geometry": {"type": "Point", "coordinates": [111.291738, 30.69632]}, "properties": {"指标": "未实施物业管理的小区数量（个）", "中类": "物业街面", "board": "民生基础需求", "来源": "2025体检"}}, {"type": "Feature", "geometry": {"type": "Point", "coordinates": [111.293863, 30.696378]}, "properties": {"指标": "未实施物业管理的小区数量（个）", "中类": "物业街面", "board": "民生基础需求", "来源": "2025体检"}}, {"type": "Feature", "geometry": {"type": "Point", "coordinates": [111.283199, 30.692946]}, "properties": {"指标": "未实施物业管理的小区数量（个）", "中类": "物业街面", "board": "民生基础需求", "来源": "2025体检"}}, {"type": "Feature", "geometry": {"type": "Point", "coordinates": [111.29367, 30.714159]}, "properties": {"指标": "未实施物业管理的小区数量（个）", "中类": "物业街面", "board": "民生基础需求", "来源": "2025体检"}}, {"type": "Feature", "geometry": {"type": "Point", "coordinates": [111.302975, 30.730729]}, "properties": {"指标": "未实施物业管理的小区数量（个）", "中类": "物业街面", "board": "民生基础需求", "来源": "2025体检"}}, {"type": "Feature", "geometry": {"type": "Point", "coordinates": [111.300078, 30.696893]}, "properties": {"指标": "未实施物业管理的小区数量（个）", "中类": "物业街面", "board": "民生基础需求", "来源": "2025体检"}}, {"type": "Feature", "geometry": {"type": "Point", "coordinates": [111.282893, 30.710894]}, "properties": {"指标": "未实施物业管理的小区数量（个）", "中类": "物业街面", "board": "民生基础需求", "来源": "2025体检"}}, {"type": "Feature", "geometry": {"type": "Point", "coordinates": [111.287256, 30.701907]}, "properties": {"指标": "未实施物业管理的小区数量（个）", "中类": "物业街面", "board": "民生基础需求", "来源": "2025体检"}}, {"type": "Feature", "geometry": {"type": "Point", "coordinates": [111.304506, 30.734651]}, "properties": {"指标": "未实施物业管理的小区数量（个）", "中类": "物业街面", "board": "民生基础需求", "来源": "2025体检"}}, {"type": "Feature", "geometry": {"type": "Point", "coordinates": [111.314657, 30.700126]}, "properties": {"指标": "未实施物业管理的小区数量（个）", "中类": "物业街面", "board": "民生基础需求", "来源": "2025体检"}}, {"type": "Feature", "geometry": {"type": "Point", "coordinates": [111.311296, 30.676989]}, "properties": {"指标": "未实施物业管理的小区数量（个）", "中类": "物业街面", "board": "民生基础需求", "来源": "2025体检"}}, {"type": "Feature", "geometry": {"type": "Point", "coordinates": [111.27247, 30.703244]}, "properties": {"指标": "未实施物业管理的小区数量（个）", "中类": "物业街面", "board": "民生基础需求", "来源": "2025体检"}}, {"type": "Feature", "geometry": {"type": "Point", "coordinates": [111.289512, 30.727902]}, "properties": {"指标": "未实施物业管理的小区数量（个）", "中类": "物业街面", "board": "民生基础需求", "来源": "2025体检"}}, {"type": "Feature", "geometry": {"type": "Point", "coordinates": [111.279509, 30.713739]}, "properties": {"指标": "未实施物业管理的小区数量（个）", "中类": "物业街面", "board": "民生基础需求", "来源": "2025体检"}}, {"type": "Feature", "geometry": {"type": "Point", "coordinates": [111.28288, 30.710583]}, "properties": {"指标": "未实施物业管理的小区数量（个）", "中类": "物业街面", "board": "民生基础需求", "来源": "2025体检"}}, {"type": "Feature", "geometry": {"type": "Point", "coordinates": [111.288929, 30.700408]}, "properties": {"指标": "未实施物业管理的小区数量（个）", "中类": "物业街面", "board": "民生基础需求", "来源": "2025体检"}}, {"type": "Feature", "geometry": {"type": "Point", "coordinates": [111.281052, 30.701852]}, "properties": {"指标": "未实施物业管理的小区数量（个）", "中类": "物业街面", "board": "民生基础需求", "来源": "2025体检"}}, {"type": "Feature", "geometry": {"type": "Point", "coordinates": [111.318088, 30.672549]}, "properties": {"指标": "未实施物业管理的小区数量（个）", "中类": "物业街面", "board": "民生基础需求", "来源": "2025体检"}}, {"type": "Feature", "geometry": {"type": "Point", "coordinates": [111.316043, 30.671186]}, "properties": {"指标": "未实施物业管理的小区数量（个）", "中类": "物业街面", "board": "民生基础需求", "来源": "2025体检"}}, {"type": "Feature", "geometry": {"type": "Point", "coordinates": [111.339458, 30.650035]}, "properties": {"指标": "未实施物业管理的小区数量（个）", "中类": "物业街面", "board": "民生基础需求", "来源": "2025体检"}}, {"type": "Feature", "geometry": {"type": "Point", "coordinates": [111.317206, 30.697964]}, "properties": {"指标": "未实施物业管理的小区数量（个）", "中类": "物业街面", "board": "民生基础需求", "来源": "2025体检"}}, {"type": "Feature", "geometry": {"type": "Point", "coordinates": [111.287989, 30.731781]}, "properties": {"指标": "未实施物业管理的小区数量（个）", "中类": "物业街面", "board": "民生基础需求", "来源": "2025体检"}}, {"type": "Feature", "geometry": {"type": "Point", "coordinates": [111.338388, 30.651071]}, "properties": {"指标": "未实施物业管理的小区数量（个）", "中类": "物业街面", "board": "民生基础需求", "来源": "2025体检"}}, {"type": "Feature", "geometry": {"type": "Point", "coordinates": [111.288317, 30.702584]}, "properties": {"指标": "未实施物业管理的小区数量（个）", "中类": "物业街面", "board": "民生基础需求", "来源": "2025体检"}}, {"type": "Feature", "geometry": {"type": "Point", "coordinates": [111.284187, 30.69642]}, "properties": {"指标": "未实施物业管理的小区数量（个）", "中类": "物业街面", "board": "民生基础需求", "来源": "2025体检"}}, {"type": "Feature", "geometry": {"type": "Point", "coordinates": [111.29559, 30.690168]}, "properties": {"指标": "未实施物业管理的小区数量（个）", "中类": "物业街面", "board": "民生基础需求", "来源": "2025体检"}}, {"type": "Feature", "geometry": {"type": "Point", "coordinates": [111.290028, 30.69244]}, "properties": {"指标": "未实施物业管理的小区数量（个）", "中类": "物业街面", "board": "民生基础需求", "来源": "2025体检"}}, {"type": "Feature", "geometry": {"type": "Point", "coordinates": [111.287431, 30.707043]}, "properties": {"指标": "未实施物业管理的小区数量（个）", "中类": "物业街面", "board": "民生基础需求", "来源": "2025体检"}}, {"type": "Feature", "geometry": {"type": "Point", "coordinates": [111.287326, 30.707987]}, "properties": {"指标": "未实施物业管理的小区数量（个）", "中类": "物业街面", "board": "民生基础需求", "来源": "2025体检"}}, {"type": "Feature", "geometry": {"type": "Point", "coordinates": [111.296262, 30.716548]}, "properties": {"指标": "未实施物业管理的小区数量（个）", "中类": "物业街面", "board": "民生基础需求", "来源": "2025体检"}}, {"type": "Feature", "geometry": {"type": "Point", "coordinates": [111.299166, 30.688963]}, "properties": {"指标": "未实施物业管理的小区数量（个）", "中类": "物业街面", "board": "民生基础需求", "来源": "2025体检"}}, {"type": "Feature", "geometry": {"type": "Point", "coordinates": [111.298628, 30.690633]}, "properties": {"指标": "未实施物业管理的小区数量（个）", "中类": "物业街面", "board": "民生基础需求", "来源": "2025体检"}}, {"type": "Feature", "geometry": {"type": "Point", "coordinates": [111.272934, 30.720403]}, "properties": {"指标": "未实施物业管理的小区数量（个）", "中类": "物业街面", "board": "民生基础需求", "来源": "2025体检"}}, {"type": "Feature", "geometry": {"type": "Point", "coordinates": [111.31455, 30.693646]}, "properties": {"指标": "未实施物业管理的小区数量（个）", "中类": "物业街面", "board": "民生基础需求", "来源": "2025体检"}}, {"type": "Feature", "geometry": {"type": "Point", "coordinates": [111.285008, 30.697187]}, "properties": {"指标": "未实施物业管理的小区数量（个）", "中类": "物业街面", "board": "民生基础需求", "来源": "2025体检"}}, {"type": "Feature", "geometry": {"type": "Point", "coordinates": [111.300909, 30.702012]}, "properties": {"指标": "未实施物业管理的小区数量（个）", "中类": "物业街面", "board": "民生基础需求", "来源": "2025体检"}}, {"type": "Feature", "geometry": {"type": "Point", "coordinates": [111.317222, 30.673294]}, "properties": {"指标": "未实施物业管理的小区数量（个）", "中类": "物业街面", "board": "民生基础需求", "来源": "2025体检"}}, {"type": "Feature", "geometry": {"type": "Point", "coordinates": [111.287508, 30.696976]}, "properties": {"指标": "未实施物业管理的小区数量（个）", "中类": "物业街面", "board": "民生基础需求", "来源": "2025体检"}}, {"type": "Feature", "geometry": {"type": "Point", "coordinates": [111.307678, 30.683859]}, "properties": {"指标": "未实施物业管理的小区数量（个）", "中类": "物业街面", "board": "民生基础需求", "来源": "2025体检"}}, {"type": "Feature", "geometry": {"type": "Point", "coordinates": [111.293849, 30.71341]}, "properties": {"指标": "未实施物业管理的小区数量（个）", "中类": "物业街面", "board": "民生基础需求", "来源": "2025体检"}}, {"type": "Feature", "geometry": {"type": "Point", "coordinates": [111.279876, 30.703966]}, "properties": {"指标": "未实施物业管理的小区数量（个）", "中类": "物业街面", "board": "民生基础需求", "来源": "2025体检"}}, {"type": "Feature", "geometry": {"type": "Point", "coordinates": [111.292022, 30.700536]}, "properties": {"指标": "未实施物业管理的小区数量（个）", "中类": "物业街面", "board": "民生基础需求", "来源": "2025体检"}}, {"type": "Feature", "geometry": {"type": "Point", "coordinates": [111.307289, 30.683491]}, "properties": {"指标": "未实施物业管理的小区数量（个）", "中类": "物业街面", "board": "民生基础需求", "来源": "2025体检"}}, {"type": "Feature", "geometry": {"type": "Point", "coordinates": [111.287969, 30.717247]}, "properties": {"指标": "未实施物业管理的小区数量（个）", "中类": "物业街面", "board": "民生基础需求", "来源": "2025体检"}}, {"type": "Feature", "geometry": {"type": "Point", "coordinates": [111.306019, 30.68741]}, "properties": {"指标": "未实施物业管理的小区数量（个）", "中类": "物业街面", "board": "民生基础需求", "来源": "2025体检"}}, {"type": "Feature", "geometry": {"type": "Point", "coordinates": [111.294375, 30.688764]}, "properties": {"指标": "未实施物业管理的小区数量（个）", "中类": "物业街面", "board": "民生基础需求", "来源": "2025体检"}}, {"type": "Feature", "geometry": {"type": "Point", "coordinates": [111.320392, 30.670827]}, "properties": {"指标": "未实施物业管理的小区数量（个）", "中类": "物业街面", "board": "民生基础需求", "来源": "2025体检"}}, {"type": "Feature", "geometry": {"type": "Point", "coordinates": [111.288926, 30.695817]}, "properties": {"指标": "未实施物业管理的小区数量（个）", "中类": "物业街面", "board": "民生基础需求", "来源": "2025体检"}}, {"type": "Feature", "geometry": {"type": "Point", "coordinates": [111.27946, 30.704176]}, "properties": {"指标": "未实施物业管理的小区数量（个）", "中类": "物业街面", "board": "民生基础需求", "来源": "2025体检"}}, {"type": "Feature", "geometry": {"type": "Point", "coordinates": [111.281234, 30.709424]}, "properties": {"指标": "未实施物业管理的小区数量（个）", "中类": "物业街面", "board": "民生基础需求", "来源": "2025体检"}}, {"type": "Feature", "geometry": {"type": "Point", "coordinates": [111.328923, 30.682785]}, "properties": {"指标": "未实施物业管理的小区数量（个）", "中类": "物业街面", "board": "民生基础需求", "来源": "2025体检"}}, {"type": "Feature", "geometry": {"type": "Point", "coordinates": [111.294902, 30.690711]}, "properties": {"指标": "未实施物业管理的小区数量（个）", "中类": "物业街面", "board": "民生基础需求", "来源": "2025体检"}}, {"type": "Feature", "geometry": {"type": "Point", "coordinates": [111.312036, 30.712425]}, "properties": {"指标": "未实施物业管理的小区数量（个）", "中类": "物业街面", "board": "民生基础需求", "来源": "2025体检"}}, {"type": "Feature", "geometry": {"type": "Point", "coordinates": [111.278264, 30.72864]}, "properties": {"指标": "未实施物业管理的小区数量（个）", "中类": "物业街面", "board": "民生基础需求", "来源": "2025体检"}}, {"type": "Feature", "geometry": {"type": "Point", "coordinates": [111.323147, 30.668845]}, "properties": {"指标": "未实施物业管理的小区数量（个）", "中类": "物业街面", "board": "民生基础需求", "来源": "2025体检"}}, {"type": "Feature", "geometry": {"type": "Point", "coordinates": [111.312346, 30.675676]}, "properties": {"指标": "未实施物业管理的小区数量（个）", "中类": "物业街面", "board": "民生基础需求", "来源": "2025体检"}}, {"type": "Feature", "geometry": {"type": "Point", "coordinates": [111.37162469543117, 30.638832964577894]}, "properties": {"指标": "存在乱停乱放车辆问题的道路数量（条）", "中类": "物业街面", "board": "民生基础需求", "来源": "2025体检"}}, {"type": "Feature", "geometry": {"type": "Point", "coordinates": [111.37879082639937, 30.654247914745504]}, "properties": {"指标": "存在乱停乱放车辆问题的道路数量（条）", "中类": "物业街面", "board": "民生基础需求", "来源": "2025体检"}}, {"type": "Feature", "geometry": {"type": "Point", "coordinates": [111.32499183389167, 30.681222005492778]}, "properties": {"指标": "存在乱停乱放车辆问题的道路数量（条）", "中类": "物业街面", "board": "民生基础需求", "来源": "2025体检"}}, {"type": "Feature", "geometry": {"type": "Point", "coordinates": [111.28125306429722, 30.696759557553605]}, "properties": {"指标": "存在乱停乱放车辆问题的道路数量（条）", "中类": "物业街面", "board": "民生基础需求", "来源": "2025体检"}}, {"type": "Feature", "geometry": {"type": "Point", "coordinates": [111.32224229313177, 30.739987454774102]}, "properties": {"指标": "存在乱停乱放车辆问题的道路数量（条）", "中类": "物业街面", "board": "民生基础需求", "来源": "2025体检"}}, {"type": "Feature", "properties": {"指标": "未实施物业管理的小区数量（个）", "中类": "物业街面", "board": "民生基础需求", "来源": "2026补充", "原图层": "未实施物业管理的小区数量", "社区": "朝阳社区"}, "geometry": {"type": "Point", "coordinates": [111.32989849100005, 30.778705006000052]}}, {"type": "Feature", "properties": {"指标": "未实施物业管理的小区数量（个）", "中类": "物业街面", "board": "民生基础需求", "来源": "2026补充", "原图层": "未实施物业管理的小区数量", "社区": "下马槽社区"}, "geometry": {"type": "Point", "coordinates": [111.45218327700007, 30.49612711700007]}}]}