{"type": "FeatureCollection", "name": "停车泊位缺口小区_2025体检", "features": [
{"type": "Feature", "geometry": {"type": "Point", "coordinates": [111.296357, 30.696726]}, "properties": {"name": "停车泊位缺口小区", "指标": "停车泊位缺口数（个）", "来源": "2025城市体检", "point_count": 1}},
{"type": "Feature", "geometry": {"type": "Point", "coordinates": [111.288358, 30.708491]}, "properties": {"name": "停车泊位缺口小区", "指标": "停车泊位缺口数（个）", "来源": "2025城市体检", "point_count": 1}},
{"type": "Feature", "geometry": {"type": "Point", "coordinates": [111.293021, 30.725234]}, "properties": {"name": "停车泊位缺口小区", "指标": "停车泊位缺口数（个）", "来源": "2025城市体检", "point_count": 1}},
{"type": "Feature", "geometry": {"type": "Point", "coordinates": [111.309816, 30.706365]}, "properties": {"name": "停车泊位缺口小区", "指标": "停车泊位缺口数（个）", "来源": "2025城市体检", "point_count": 1}},
{"type": "Feature", "geometry": {"type": "Point", "coordinates": [111.29217, 30.733531]}, "properties": {"name": "停车泊位缺口小区", "指标": "停车泊位缺口数（个）", "来源": "2025城市体检", "point_count": 1}},
{"type": "Feature", "geometry": {"type": "Point", "coordinates": [111.297034, 30.708713]}, "properties": {"name": "停车泊位缺口小区", "指标": "停车泊位缺口数（个）", "来源": "2025城市体检", "point_count": 1}},
{"type": "Feature", "geometry": {"type": "Point", "coordinates": [111.294518, 30.690903]}, "properties": {"name": "停车泊位缺口小区", "指标": "停车泊位缺口数（个）", "来源": "2025城市体检", "point_count": 1}},
{"type": "Feature", "geometry": {"type": "Point", "coordinates": [111.278259, 30.715184]}, "properties": {"name": "停车泊位缺口小区", "指标": "停车泊位缺口数（个）", "来源": "2025城市体检", "point_count": 1}},
{"type": "Feature", "geometry": {"type": "Point", "coordinates": [111.355258, 30.644507]}, "properties": {"name": "停车泊位缺口小区", "指标": "停车泊位缺口数（个）", "来源": "2025城市体检", "point_count": 1}},
{"type": "Feature", "geometry": {"type": "Point", "coordinates": [111.290318, 30.712872]}, "properties": {"name": "停车泊位缺口小区", "指标": "停车泊位缺口数（个）", "来源": "2025城市体检", "point_count": 1}},
{"type": "Feature", "geometry": {"type": "Point", "coordinates": [111.303175, 30.685193]}, "properties": {"name": "停车泊位缺口小区", "指标": "停车泊位缺口数（个）", "来源": "2025城市体检", "point_count": 1}},
{"type": "Feature", "geometry": {"type": "Point", "coordinates": [111.303773, 30.689757]}, "properties": {"name": "停车泊位缺口小区", "指标": "停车泊位缺口数（个）", "来源": "2025城市体检", "point_count": 1}},
{"type": "Feature", "geometry": {"type": "Point", "coordinates": [111.29451, 30.698231]}, "properties": {"name": "停车泊位缺口小区", "指标": "停车泊位缺口数（个）", "来源": "2025城市体检", "point_count": 1}},
{"type": "Feature", "geometry": {"type": "Point", "coordinates": [111.303056, 30.719281]}, "properties": {"name": "停车泊位缺口小区", "指标": "停车泊位缺口数（个）", "来源": "2025城市体检", "point_count": 1}},
{"type": "Feature", "geometry": {"type": "Point", "coordinates": [111.297422, 30.705311]}, "properties": {"name": "停车泊位缺口小区", "指标": "停车泊位缺口数（个）", "来源": "2025城市体检", "point_count": 1}},
{"type": "Feature", "geometry": {"type": "Point", "coordinates": [111.275057, 30.714095]}, "properties": {"name": "停车泊位缺口小区", "指标": "停车泊位缺口数（个）", "来源": "2025城市体检", "point_count": 1}},
{"type": "Feature", "geometry": {"type": "Point", "coordinates": [111.279288, 30.707016]}, "properties": {"name": "停车泊位缺口小区", "指标": "停车泊位缺口数（个）", "来源": "2025城市体检", "point_count": 1}},
{"type": "Feature", "geometry": {"type": "Point", "coordinates": [111.325671, 30.713098]}, "properties": {"name": "停车泊位缺口小区", "指标": "停车泊位缺口数（个）", "来源": "2025城市体检", "point_count": 1}},
{"type": "Feature", "geometry": {"type": "Point", "coordinates": [111.34016, 30.646974]}, "properties": {"name": "停车泊位缺口小区", "指标": "停车泊位缺口数（个）", "来源": "2025城市体检", "point_count": 1}},
{"type": "Feature", "geometry": {"type": "Point", "coordinates": [111.288262, 30.695898]}, "properties": {"name": "停车泊位缺口小区", "指标": "停车泊位缺口数（个）", "来源": "2025城市体检", "point_count": 1}},
{"type": "Feature", "geometry": {"type": "Point", "coordinates": [111.289771, 30.722479]}, "properties": {"name": "停车泊位缺口小区", "指标": "停车泊位缺口数（个）", "来源": "2025城市体检", "point_count": 1}},
{"type": "Feature", "geometry": {"type": "Point", "coordinates": [111.287297, 30.710647]}, "properties": {"name": "停车泊位缺口小区", "指标": "停车泊位缺口数（个）", "来源": "2025城市体检", "point_count": 1}},
{"type": "Feature", "geometry": {"type": "Point", "coordinates": [111.297135, 30.731504]}, "properties": {"name": "停车泊位缺口小区", "指标": "停车泊位缺口数（个）", "来源": "2025城市体检", "point_count": 1}},
{"type": "Feature", "geometry": {"type": "Point", "coordinates": [111.292515, 30.709968]}, "properties": {"name": "停车泊位缺口小区", "指标": "停车泊位缺口数（个）", "来源": "2025城市体检", "point_count": 1}},
{"type": "Feature", "geometry": {"type": "Point", "coordinates": [111.296584, 30.692886]}, "properties": {"name": "停车泊位缺口小区", "指标": "停车泊位缺口数（个）", "来源": "2025城市体检", "point_count": 1}},
{"type": "Feature", "geometry": {"type": "Point", "coordinates": [111.295307, 30.713781]}, "properties": {"name": "停车泊位缺口小区", "指标": "停车泊位缺口数（个）", "来源": "2025城市体检", "point_count": 1}},
{"type": "Feature", "geometry": {"type": "Point", "coordinates": [111.280028, 30.71498]}, "properties": {"name": "停车泊位缺口小区", "指标": "停车泊位缺口数（个）", "来源": "2025城市体检", "point_count": 1}},
{"type": "Feature", "geometry": {"type": "Point", "coordinates": [111.29222, 30.712349]}, "properties": {"name": "停车泊位缺口小区", "指标": "停车泊位缺口数（个）", "来源": "2025城市体检", "point_count": 1}},
{"type": "Feature", "geometry": {"type": "Point", "coordinates": [111.353922, 30.64478]}, "properties": {"name": "停车泊位缺口小区", "指标": "停车泊位缺口数（个）", "来源": "2025城市体检", "point_count": 1}},
{"type": "Feature", "geometry": {"type": "Point", "coordinates": [111.34048, 30.722079]}, "properties": {"name": "停车泊位缺口小区", "指标": "停车泊位缺口数（个）", "来源": "2025城市体检", "point_count": 1}},
{"type": "Feature", "geometry": {"type": "Point", "coordinates": [111.293244, 30.709305]}, "properties": {"name": "停车泊位缺口小区", "指标": "停车泊位缺口数（个）", "来源": "2025城市体检", "point_count": 1}},
{"type": "Feature", "geometry": {"type": "Point", "coordinates": [111.292285, 30.708549]}, "properties": {"name": "停车泊位缺口小区", "指标": "停车泊位缺口数（个）", "来源": "2025城市体检", "point_count": 1}},
{"type": "Feature", "geometry": {"type": "Point", "coordinates": [111.294437, 30.734705]}, "properties": {"name": "停车泊位缺口小区", "指标": "停车泊位缺口数（个）", "来源": "2025城市体检", "point_count": 1}},
{"type": "Feature", "geometry": {"type": "Point", "coordinates": [111.279302, 30.704197]}, "properties": {"name": "停车泊位缺口小区", "指标": "停车泊位缺口数（个）", "来源": "2025城市体检", "point_count": 1}},
{"type": "Feature", "geometry": {"type": "Point", "coordinates": [111.286851, 30.709671]}, "properties": {"name": "停车泊位缺口小区", "指标": "停车泊位缺口数（个）", "来源": "2025城市体检", "point_count": 1}},
{"type": "Feature", "geometry": {"type": "Point", "coordinates": [111.29217, 30.733531]}, "properties": {"name": "停车泊位缺口小区", "指标": "停车泊位缺口数（个）", "来源": "2025城市体检", "point_count": 1}},
{"type": "Feature", "geometry": {"type": "Point", "coordinates": [111.292413, 30.697069]}, "properties": {"name": "停车泊位缺口小区", "指标": "停车泊位缺口数（个）", "来源": "2025城市体检", "point_count": 1}},
{"type": "Feature", "geometry": {"type": "Point", "coordinates": [111.289672, 30.707959]}, "properties": {"name": "停车泊位缺口小区", "指标": "停车泊位缺口数（个）", "来源": "2025城市体检", "point_count": 1}},
{"type": "Feature", "geometry": {"type": "Point", "coordinates": [111.288004, 30.698995]}, "properties": {"name": "停车泊位缺口小区", "指标": "停车泊位缺口数（个）", "来源": "2025城市体检", "point_count": 1}},
{"type": "Feature", "geometry": {"type": "Point", "coordinates": [111.288455, 30.737538]}, "properties": {"name": "停车泊位缺口小区", "指标": "停车泊位缺口数（个）", "来源": "2025城市体检", "point_count": 1}},
{"type": "Feature", "geometry": {"type": "Point", "coordinates": [111.290457, 30.700587]}, "properties": {"name": "停车泊位缺口小区", "指标": "停车泊位缺口数（个）", "来源": "2025城市体检", "point_count": 1}},
{"type": "Feature", "geometry": {"type": "Point", "coordinates": [111.292985, 30.712984]}, "properties": {"name": "停车泊位缺口小区", "指标": "停车泊位缺口数（个）", "来源": "2025城市体检", "point_count": 1}},
{"type": "Feature", "geometry": {"type": "Point", "coordinates": [111.309804, 30.70856]}, "properties": {"name": "停车泊位缺口小区", "指标": "停车泊位缺口数（个）", "来源": "2025城市体检", "point_count": 1}},
{"type": "Feature", "geometry": {"type": "Point", "coordinates": [111.278105, 30.728902]}, "properties": {"name": "停车泊位缺口小区", "指标": "停车泊位缺口数（个）", "来源": "2025城市体检", "point_count": 1}},
{"type": "Feature", "geometry": {"type": "Point", "coordinates": [111.306026, 30.695871]}, "properties": {"name": "停车泊位缺口小区", "指标": "停车泊位缺口数（个）", "来源": "2025城市体检", "point_count": 1}},
{"type": "Feature", "geometry": {"type": "Point", "coordinates": [111.312347, 30.699467]}, "properties": {"name": "停车泊位缺口小区", "指标": "停车泊位缺口数（个）", "来源": "2025城市体检", "point_count": 1}},
{"type": "Feature", "geometry": {"type": "Point", "coordinates": [111.294591, 30.713609]}, "properties": {"name": "停车泊位缺口小区", "指标": "停车泊位缺口数（个）", "来源": "2025城市体检", "point_count": 1}},
{"type": "Feature", "geometry": {"type": "Point", "coordinates": [111.297961, 30.696291]}, "properties": {"name": "停车泊位缺口小区", "指标": "停车泊位缺口数（个）", "来源": "2025城市体检", "point_count": 1}},
{"type": "Feature", "geometry": {"type": "Point", "coordinates": [111.307187, 30.706028]}, "properties": {"name": "停车泊位缺口小区", "指标": "停车泊位缺口数（个）", "来源": "2025城市体检", "point_count": 1}},
{"type": "Feature", "geometry": {"type": "Point", "coordinates": [111.308865, 30.688489]}, "properties": {"name": "停车泊位缺口小区", "指标": "停车泊位缺口数（个）", "来源": "2025城市体检", "point_count": 1}},
{"type": "Feature", "geometry": {"type": "Point", "coordinates": [111.290855, 30.694923]}, "properties": {"name": "停车泊位缺口小区", "指标": "停车泊位缺口数（个）", "来源": "2025城市体检", "point_count": 1}},
{"type": "Feature", "geometry": {"type": "Point", "coordinates": [111.279444, 30.712777]}, "properties": {"name": "停车泊位缺口小区", "指标": "停车泊位缺口数（个）", "来源": "2025城市体检", "point_count": 1}},
{"type": "Feature", "geometry": {"type": "Point", "coordinates": [111.290953, 30.723558]}, "properties": {"name": "停车泊位缺口小区", "指标": "停车泊位缺口数（个）", "来源": "2025城市体检", "point_count": 1}},
{"type": "Feature", "geometry": {"type": "Point", "coordinates": [111.292134, 30.691672]}, "properties": {"name": "停车泊位缺口小区", "指标": "停车泊位缺口数（个）", "来源": "2025城市体检", "point_count": 1}},
{"type": "Feature", "geometry": {"type": "Point", "coordinates": [111.294009, 30.724647]}, "properties": {"name": "停车泊位缺口小区", "指标": "停车泊位缺口数（个）", "来源": "2025城市体检", "point_count": 1}},
{"type": "Feature", "geometry": {"type": "Point", "coordinates": [111.284594, 30.704764]}, "properties": {"name": "停车泊位缺口小区", "指标": "停车泊位缺口数（个）", "来源": "2025城市体检", "point_count": 1}},
{"type": "Feature", "geometry": {"type": "Point", "coordinates": [111.287577, 30.726115]}, "properties": {"name": "停车泊位缺口小区", "指标": "停车泊位缺口数（个）", "来源": "2025城市体检", "point_count": 1}},
{"type": "Feature", "geometry": {"type": "Point", "coordinates": [111.278401, 30.729845]}, "properties": {"name": "停车泊位缺口小区", "指标": "停车泊位缺口数（个）", "来源": "2025城市体检", "point_count": 1}},
{"type": "Feature", "geometry": {"type": "Point", "coordinates": [111.288257, 30.709844]}, "properties": {"name": "停车泊位缺口小区", "指标": "停车泊位缺口数（个）", "来源": "2025城市体检", "point_count": 1}},
{"type": "Feature", "geometry": {"type": "Point", "coordinates": [111.29151, 30.707344]}, "properties": {"name": "停车泊位缺口小区", "指标": "停车泊位缺口数（个）", "来源": "2025城市体检", "point_count": 1}},
{"type": "Feature", "geometry": {"type": "Point", "coordinates": [111.323412, 30.669757]}, "properties": {"name": "停车泊位缺口小区", "指标": "停车泊位缺口数（个）", "来源": "2025城市体检", "point_count": 1}},
{"type": "Feature", "geometry": {"type": "Point", "coordinates": [111.300736, 30.706532]}, "properties": {"name": "停车泊位缺口小区", "指标": "停车泊位缺口数（个）", "来源": "2025城市体检", "point_count": 1}},
{"type": "Feature", "geometry": {"type": "Point", "coordinates": [111.302914, 30.690356]}, "properties": {"name": "停车泊位缺口小区", "指标": "停车泊位缺口数（个）", "来源": "2025城市体检", "point_count": 1}},
{"type": "Feature", "geometry": {"type": "Point", "coordinates": [111.293664, 30.714153]}, "properties": {"name": "停车泊位缺口小区", "指标": "停车泊位缺口数（个）", "来源": "2025城市体检", "point_count": 1}},
{"type": "Feature", "geometry": {"type": "Point", "coordinates": [111.300234, 30.696097]}, "properties": {"name": "停车泊位缺口小区", "指标": "停车泊位缺口数（个）", "来源": "2025城市体检", "point_count": 1}},
{"type": "Feature", "geometry": {"type": "Point", "coordinates": [111.293173, 30.726343]}, "properties": {"name": "停车泊位缺口小区", "指标": "停车泊位缺口数（个）", "来源": "2025城市体检", "point_count": 1}},
{"type": "Feature", "geometry": {"type": "Point", "coordinates": [111.272369, 30.722415]}, "properties": {"name": "停车泊位缺口小区", "指标": "停车泊位缺口数（个）", "来源": "2025城市体检", "point_count": 1}},
{"type": "Feature", "geometry": {"type": "Point", "coordinates": [111.290335, 30.714678]}, "properties": {"name": "停车泊位缺口小区", "指标": "停车泊位缺口数（个）", "来源": "2025城市体检", "point_count": 1}},
{"type": "Feature", "geometry": {"type": "Point", "coordinates": [111.294203, 30.70894]}, "properties": {"name": "停车泊位缺口小区", "指标": "停车泊位缺口数（个）", "来源": "2025城市体检", "point_count": 1}},
{"type": "Feature", "geometry": {"type": "Point", "coordinates": [111.296145, 30.697403]}, "properties": {"name": "停车泊位缺口小区", "指标": "停车泊位缺口数（个）", "来源": "2025城市体检", "point_count": 1}},
{"type": "Feature", "geometry": {"type": "Point", "coordinates": [111.288081, 30.718235]}, "properties": {"name": "停车泊位缺口小区", "指标": "停车泊位缺口数（个）", "来源": "2025城市体检", "point_count": 1}},
{"type": "Feature", "geometry": {"type": "Point", "coordinates": [111.316395, 30.692181]}, "properties": {"name": "停车泊位缺口小区", "指标": "停车泊位缺口数（个）", "来源": "2025城市体检", "point_count": 1}},
{"type": "Feature", "geometry": {"type": "Point", "coordinates": [111.327371, 30.661534]}, "properties": {"name": "停车泊位缺口小区", "指标": "停车泊位缺口数（个）", "来源": "2025城市体检", "point_count": 1}},
{"type": "Feature", "geometry": {"type": "Point", "coordinates": [111.270888, 30.720106]}, "properties": {"name": "停车泊位缺口小区", "指标": "停车泊位缺口数（个）", "来源": "2025城市体检", "point_count": 1}},
{"type": "Feature", "geometry": {"type": "Point", "coordinates": [111.290318, 30.712872]}, "properties": {"name": "停车泊位缺口小区", "指标": "停车泊位缺口数（个）", "来源": "2025城市体检", "point_count": 1}},
{"type": "Feature", "geometry": {"type": "Point", "coordinates": [111.291553, 30.69013]}, "properties": {"name": "停车泊位缺口小区", "指标": "停车泊位缺口数（个）", "来源": "2025城市体检", "point_count": 1}},
{"type": "Feature", "geometry": {"type": "Point", "coordinates": [111.345888, 30.651303]}, "properties": {"name": "停车泊位缺口小区", "指标": "停车泊位缺口数（个）", "来源": "2025城市体检", "point_count": 1}},
{"type": "Feature", "geometry": {"type": "Point", "coordinates": [111.28583, 30.722554]}, "properties": {"name": "停车泊位缺口小区", "指标": "停车泊位缺口数（个）", "来源": "2025城市体检", "point_count": 1}},
{"type": "Feature", "geometry": {"type": "Point", "coordinates": [111.280231, 30.713963]}, "properties": {"name": "停车泊位缺口小区", "指标": "停车泊位缺口数（个）", "来源": "2025城市体检", "point_count": 1}},
{"type": "Feature", "geometry": {"type": "Point", "coordinates": [111.295331, 30.708059]}, "properties": {"name": "停车泊位缺口小区", "指标": "停车泊位缺口数（个）", "来源": "2025城市体检", "point_count": 1}},
{"type": "Feature", "geometry": {"type": "Point", "coordinates": [111.276475, 30.723355]}, "properties": {"name": "停车泊位缺口小区", "指标": "停车泊位缺口数（个）", "来源": "2025城市体检", "point_count": 1}},
{"type": "Feature", "geometry": {"type": "Point", "coordinates": [111.276543, 30.728945]}, "properties": {"name": "停车泊位缺口小区", "指标": "停车泊位缺口数（个）", "来源": "2025城市体检", "point_count": 1}},
{"type": "Feature", "geometry": {"type": "Point", "coordinates": [111.315848, 30.706132]}, "properties": {"name": "停车泊位缺口小区", "指标": "停车泊位缺口数（个）", "来源": "2025城市体检", "point_count": 1}},
{"type": "Feature", "geometry": {"type": "Point", "coordinates": [111.290378, 30.709765]}, "properties": {"name": "停车泊位缺口小区", "指标": "停车泊位缺口数（个）", "来源": "2025城市体检", "point_count": 1}},
{"type": "Feature", "geometry": {"type": "Point", "coordinates": [111.287992, 30.718202]}, "properties": {"name": "停车泊位缺口小区", "指标": "停车泊位缺口数（个）", "来源": "2025城市体检", "point_count": 1}},
{"type": "Feature", "geometry": {"type": "Point", "coordinates": [111.292654, 30.712194]}, "properties": {"name": "停车泊位缺口小区", "指标": "停车泊位缺口数（个）", "来源": "2025城市体检", "point_count": 1}},
{"type": "Feature", "geometry": {"type": "Point", "coordinates": [111.322824, 30.671353]}, "properties": {"name": "停车泊位缺口小区", "指标": "停车泊位缺口数（个）", "来源": "2025城市体检", "point_count": 1}},
{"type": "Feature", "geometry": {"type": "Point", "coordinates": [111.306013, 30.711371]}, "properties": {"name": "停车泊位缺口小区", "指标": "停车泊位缺口数（个）", "来源": "2025城市体检", "point_count": 1}},
{"type": "Feature", "geometry": {"type": "Point", "coordinates": [111.290432, 30.724727]}, "properties": {"name": "停车泊位缺口小区", "指标": "停车泊位缺口数（个）", "来源": "2025城市体检", "point_count": 1}},
{"type": "Feature", "geometry": {"type": "Point", "coordinates": [111.29217, 30.733531]}, "properties": {"name": "停车泊位缺口小区", "指标": "停车泊位缺口数（个）", "来源": "2025城市体检", "point_count": 1}},
{"type": "Feature", "geometry": {"type": "Point", "coordinates": [111.292148, 30.712641]}, "properties": {"name": "停车泊位缺口小区", "指标": "停车泊位缺口数（个）", "来源": "2025城市体检", "point_count": 1}},
{"type": "Feature", "geometry": {"type": "Point", "coordinates": [111.296596, 30.696805]}, "properties": {"name": "停车泊位缺口小区", "指标": "停车泊位缺口数（个）", "来源": "2025城市体检", "point_count": 1}},
{"type": "Feature", "geometry": {"type": "Point", "coordinates": [111.281201, 30.70561]}, "properties": {"name": "停车泊位缺口小区", "指标": "停车泊位缺口数（个）", "来源": "2025城市体检", "point_count": 1}},
{"type": "Feature", "geometry": {"type": "Point", "coordinates": [111.280687, 30.705573]}, "properties": {"name": "停车泊位缺口小区", "指标": "停车泊位缺口数（个）", "来源": "2025城市体检", "point_count": 1}},
{"type": "Feature", "geometry": {"type": "Point", "coordinates": [111.288943, 30.72094]}, "properties": {"name": "停车泊位缺口小区", "指标": "停车泊位缺口数（个）", "来源": "2025城市体检", "point_count": 1}},
{"type": "Feature", "geometry": {"type": "Point", "coordinates": [111.277839, 30.705758]}, "properties": {"name": "停车泊位缺口小区", "指标": "停车泊位缺口数（个）", "来源": "2025城市体检", "point_count": 1}},
{"type": "Feature", "geometry": {"type": "Point", "coordinates": [111.296516, 30.697615]}, "properties": {"name": "停车泊位缺口小区", "指标": "停车泊位缺口数（个）", "来源": "2025城市体检", "point_count": 1}},
{"type": "Feature", "geometry": {"type": "Point", "coordinates": [111.319826, 30.715112]}, "properties": {"name": "停车泊位缺口小区", "指标": "停车泊位缺口数（个）", "来源": "2025城市体检", "point_count": 1}},
{"type": "Feature", "geometry": {"type": "Point", "coordinates": [111.299348, 30.697686]}, "properties": {"name": "停车泊位缺口小区", "指标": "停车泊位缺口数（个）", "来源": "2025城市体检", "point_count": 1}},
{"type": "Feature", "geometry": {"type": "Point", "coordinates": [111.313919, 30.673953]}, "properties": {"name": "停车泊位缺口小区", "指标": "停车泊位缺口数（个）", "来源": "2025城市体检", "point_count": 1}},
{"type": "Feature", "geometry": {"type": "Point", "coordinates": [111.307849, 30.705801]}, "properties": {"name": "停车泊位缺口小区", "指标": "停车泊位缺口数（个）", "来源": "2025城市体检", "point_count": 1}},
{"type": "Feature", "geometry": {"type": "Point", "coordinates": [111.287427, 30.706934]}, "properties": {"name": "停车泊位缺口小区", "指标": "停车泊位缺口数（个）", "来源": "2025城市体检", "point_count": 1}},
{"type": "Feature", "geometry": {"type": "Point", "coordinates": [111.280703, 30.699948]}, "properties": {"name": "停车泊位缺口小区", "指标": "停车泊位缺口数（个）", "来源": "2025城市体检", "point_count": 1}},
{"type": "Feature", "geometry": {"type": "Point", "coordinates": [111.288879, 30.72527]}, "properties": {"name": "停车泊位缺口小区", "指标": "停车泊位缺口数（个）", "来源": "2025城市体检", "point_count": 1}},
{"type": "Feature", "geometry": {"type": "Point", "coordinates": [111.290949, 30.708519]}, "properties": {"name": "停车泊位缺口小区", "指标": "停车泊位缺口数（个）", "来源": "2025城市体检", "point_count": 1}},
{"type": "Feature", "geometry": {"type": "Point", "coordinates": [111.288262, 30.695898]}, "properties": {"name": "停车泊位缺口小区", "指标": "停车泊位缺口数（个）", "来源": "2025城市体检", "point_count": 1}},
{"type": "Feature", "geometry": {"type": "Point", "coordinates": [111.274769, 30.728262]}, "properties": {"name": "停车泊位缺口小区", "指标": "停车泊位缺口数（个）", "来源": "2025城市体检", "point_count": 1}},
{"type": "Feature", "geometry": {"type": "Point", "coordinates": [111.314064, 30.693117]}, "properties": {"name": "停车泊位缺口小区", "指标": "停车泊位缺口数（个）", "来源": "2025城市体检", "point_count": 1}},
{"type": "Feature", "geometry": {"type": "Point", "coordinates": [111.279379, 30.709007]}, "properties": {"name": "停车泊位缺口小区", "指标": "停车泊位缺口数（个）", "来源": "2025城市体检", "point_count": 1}},
{"type": "Feature", "geometry": {"type": "Point", "coordinates": [111.308873, 30.690367]}, "properties": {"name": "停车泊位缺口小区", "指标": "停车泊位缺口数（个）", "来源": "2025城市体检", "point_count": 1}},
{"type": "Feature", "geometry": {"type": "Point", "coordinates": [111.310886, 30.724414]}, "properties": {"name": "停车泊位缺口小区", "指标": "停车泊位缺口数（个）", "来源": "2025城市体检", "point_count": 1}},
{"type": "Feature", "geometry": {"type": "Point", "coordinates": [111.292612, 30.688706]}, "properties": {"name": "停车泊位缺口小区", "指标": "停车泊位缺口数（个）", "来源": "2025城市体检", "point_count": 1}},
{"type": "Feature", "geometry": {"type": "Point", "coordinates": [111.30918, 30.74205]}, "properties": {"name": "停车泊位缺口小区", "指标": "停车泊位缺口数（个）", "来源": "2025城市体检", "point_count": 1}},
{"type": "Feature", "geometry": {"type": "Point", "coordinates": [111.310886, 30.724414]}, "properties": {"name": "停车泊位缺口小区", "指标": "停车泊位缺口数（个）", "来源": "2025城市体检", "point_count": 1}},
{"type": "Feature", "geometry": {"type": "Point", "coordinates": [111.279024, 30.72859]}, "properties": {"name": "停车泊位缺口小区", "指标": "停车泊位缺口数（个）", "来源": "2025城市体检", "point_count": 1}},
{"type": "Feature", "geometry": {"type": "Point", "coordinates": [111.293672, 30.69412]}, "properties": {"name": "停车泊位缺口小区", "指标": "停车泊位缺口数（个）", "来源": "2025城市体检", "point_count": 1}},
{"type": "Feature", "geometry": {"type": "Point", "coordinates": [111.30174, 30.692597]}, "properties": {"name": "停车泊位缺口小区", "指标": "停车泊位缺口数（个）", "来源": "2025城市体检", "point_count": 1}},
{"type": "Feature", "geometry": {"type": "Point", "coordinates": [111.327574, 30.670243]}, "properties": {"name": "停车泊位缺口小区", "指标": "停车泊位缺口数（个）", "来源": "2025城市体检", "point_count": 1}},
{"type": "Feature", "geometry": {"type": "Point", "coordinates": [111.312825, 30.688433]}, "properties": {"name": "停车泊位缺口小区", "指标": "停车泊位缺口数（个）", "来源": "2025城市体检", "point_count": 1}},
{"type": "Feature", "geometry": {"type": "Point", "coordinates": [111.345046, 30.644634]}, "properties": {"name": "停车泊位缺口小区", "指标": "停车泊位缺口数（个）", "来源": "2025城市体检", "point_count": 1}},
{"type": "Feature", "geometry": {"type": "Point", "coordinates": [111.296558, 30.709928]}, "properties": {"name": "停车泊位缺口小区", "指标": "停车泊位缺口数（个）", "来源": "2025城市体检", "point_count": 1}},
{"type": "Feature", "geometry": {"type": "Point", "coordinates": [111.321441, 30.715656]}, "properties": {"name": "停车泊位缺口小区", "指标": "停车泊位缺口数（个）", "来源": "2025城市体检", "point_count": 1}},
{"type": "Feature", "geometry": {"type": "Point", "coordinates": [111.301614, 30.705943]}, "properties": {"name": "停车泊位缺口小区", "指标": "停车泊位缺口数（个）", "来源": "2025城市体检", "point_count": 1}},
{"type": "Feature", "geometry": {"type": "Point", "coordinates": [111.283478, 30.693816]}, "properties": {"name": "停车泊位缺口小区", "指标": "停车泊位缺口数（个）", "来源": "2025城市体检", "point_count": 1}},
{"type": "Feature", "geometry": {"type": "Point", "coordinates": [111.277229, 30.726965]}, "properties": {"name": "停车泊位缺口小区", "指标": "停车泊位缺口数（个）", "来源": "2025城市体检", "point_count": 1}},
{"type": "Feature", "geometry": {"type": "Point", "coordinates": [111.292686, 30.713849]}, "properties": {"name": "停车泊位缺口小区", "指标": "停车泊位缺口数（个）", "来源": "2025城市体检", "point_count": 1}},
{"type": "Feature", "geometry": {"type": "Point", "coordinates": [111.287379, 30.708493]}, "properties": {"name": "停车泊位缺口小区", "指标": "停车泊位缺口数（个）", "来源": "2025城市体检", "point_count": 1}},
{"type": "Feature", "geometry": {"type": "Point", "coordinates": [111.276502, 30.711097]}, "properties": {"name": "停车泊位缺口小区", "指标": "停车泊位缺口数（个）", "来源": "2025城市体检", "point_count": 1}},
{"type": "Feature", "geometry": {"type": "Point", "coordinates": [111.317135, 30.685492]}, "properties": {"name": "停车泊位缺口小区", "指标": "停车泊位缺口数（个）", "来源": "2025城市体检", "point_count": 1}},
{"type": "Feature", "geometry": {"type": "Point", "coordinates": [111.288262, 30.695898]}, "properties": {"name": "停车泊位缺口小区", "指标": "停车泊位缺口数（个）", "来源": "2025城市体检", "point_count": 1}},
{"type": "Feature", "geometry": {"type": "Point", "coordinates": [111.31196, 30.707365]}, "properties": {"name": "停车泊位缺口小区", "指标": "停车泊位缺口数（个）", "来源": "2025城市体检", "point_count": 1}},
{"type": "Feature", "geometry": {"type": "Point", "coordinates": [111.290951, 30.711785]}, "properties": {"name": "停车泊位缺口小区", "指标": "停车泊位缺口数（个）", "来源": "2025城市体检", "point_count": 1}},
{"type": "Feature", "geometry": {"type": "Point", "coordinates": [111.29844, 30.733975]}, "properties": {"name": "停车泊位缺口小区", "指标": "停车泊位缺口数（个）", "来源": "2025城市体检", "point_count": 1}},
{"type": "Feature", "geometry": {"type": "Point", "coordinates": [111.319967, 30.715572]}, "properties": {"name": "停车泊位缺口小区", "指标": "停车泊位缺口数（个）", "来源": "2025城市体检", "point_count": 1}},
{"type": "Feature", "geometry": {"type": "Point", "coordinates": [111.296151, 30.716585]}, "properties": {"name": "停车泊位缺口小区", "指标": "停车泊位缺口数（个）", "来源": "2025城市体检", "point_count": 1}},
{"type": "Feature", "geometry": {"type": "Point", "coordinates": [111.310836, 30.676345]}, "properties": {"name": "停车泊位缺口小区", "指标": "停车泊位缺口数（个）", "来源": "2025城市体检", "point_count": 1}},
{"type": "Feature", "geometry": {"type": "Point", "coordinates": [111.29105, 30.72251]}, "properties": {"name": "停车泊位缺口小区", "指标": "停车泊位缺口数（个）", "来源": "2025城市体检", "point_count": 1}},
{"type": "Feature", "geometry": {"type": "Point", "coordinates": [111.310286, 30.702701]}, "properties": {"name": "停车泊位缺口小区", "指标": "停车泊位缺口数（个）", "来源": "2025城市体检", "point_count": 1}},
{"type": "Feature", "geometry": {"type": "Point", "coordinates": [111.30796, 30.702215]}, "properties": {"name": "停车泊位缺口小区", "指标": "停车泊位缺口数（个）", "来源": "2025城市体检", "point_count": 1}},
{"type": "Feature", "geometry": {"type": "Point", "coordinates": [111.28037, 30.710975]}, "properties": {"name": "停车泊位缺口小区", "指标": "停车泊位缺口数（个）", "来源": "2025城市体检", "point_count": 1}}
]}
