{"type": "FeatureCollection", "features": [{"type": "Feature", "properties": {"指标": "未实施物业管理的小区数量（个）", "中类": "物业街面", "board": "民生基础需求", "来源": "2026补充", "原图层": "未实施物业管理的小区数量", "社区": "朝阳社区"}, "geometry": {"type": "Point", "coordinates": [111.32989849100005, 30.778705006000052]}}, {"type": "Feature", "properties": {"指标": "未实施物业管理的小区数量（个）", "中类": "物业街面", "board": "民生基础需求", "来源": "2026补充", "原图层": "未实施物业管理的小区数量", "社区": "下马槽社区"}, "geometry": {"type": "Point", "coordinates": [111.45218327700007, 30.49612711700007]}}]}