{"type": "FeatureCollection", "features": [{"type": "Feature", "properties": {"指标": "存在管线管道破损的住宅数量（栋）", "中类": "市政管网", "board": "安全韧性底线", "来源": "2026补充", "原图层": "存在管线管道破损的住宅", "街办_源": "点军街办", "社区_源": "五龙社区", "小区_源": "五龙阳光小区", "楼栋_源": "五龙阳光小区11栋1", "社区": "五龙社区"}, "geometry": {"type": "Point", "coordinates": [111.27454822900006, 30.679821270000048]}}, {"type": "Feature", "properties": {"指标": "存在管线管道破损的住宅数量（栋）", "中类": "市政管网", "board": "安全韧性底线", "来源": "2026补充", "原图层": "存在管线管道破损的住宅", "街办_源": "点军街办", "社区_源": "五龙社区", "小区_源": "五龙阳光小区", "楼栋_源": "五龙阳光小区2栋", "社区": "五龙社区"}, "geometry": {"type": "Point", "coordinates": [111.27564465800003, 30.68019172000004]}}, {"type": "Feature", "properties": {"指标": "存在管线管道破损的住宅数量（栋）", "中类": "市政管网", "board": "安全韧性底线", "来源": "2026补充", "原图层": "存在管线管道破损的住宅", "街办_源": "点军街办", "社区_源": "五龙社区", "小区_源": "五龙阳光小区", "楼栋_源": "五龙阳光小区12栋", "社区": "红光社区"}, "geometry": {"type": "Point", "coordinates": [111.27684387700003, 30.679993866000075]}}, {"type": "Feature", "properties": {"指标": "存在管线管道破损的住宅数量（栋）", "中类": "市政管网", "board": "安全韧性底线", "来源": "2026补充", "原图层": "存在管线管道破损的住宅", "街办_源": "点军街办", "社区_源": "五龙社区", "小区_源": "五龙阳光小区", "楼栋_源": "五龙阳光小区居民楼1号楼", "社区": "五龙社区"}, "geometry": {"type": "Point", "coordinates": [111.27595302900005, 30.67984652800004]}}, {"type": "Feature", "properties": {"指标": "存在管线管道破损的住宅数量（栋）", "中类": "市政管网", "board": "安全韧性底线", "来源": "2026补充", "原图层": "存在管线管道破损的住宅", "街办_源": "点军街办", "社区_源": "五龙社区", "小区_源": "五龙阳光小区", "楼栋_源": "五龙阳光小区3栋", "社区": "五龙社区"}, "geometry": {"type": "Point", "coordinates": [111.27531181400008, 30.68055374900007]}}, {"type": "Feature", "properties": {"指标": "存在管线管道破损的住宅数量（栋）", "中类": "市政管网", "board": "安全韧性底线", "来源": "2026补充", "原图层": "存在管线管道破损的住宅", "街办_源": "点军街办", "社区_源": "五龙社区", "小区_源": "建投樾山", "楼栋_源": "6栋", "社区": "五龙社区"}, "geometry": {"type": "Point", "coordinates": [111.25531397400005, 30.675688425000033]}}, {"type": "Feature", "properties": {"指标": "存在管线管道破损的住宅数量（栋）", "中类": "市政管网", "board": "安全韧性底线", "来源": "2026补充", "原图层": "存在管线管道破损的住宅", "街办_源": "点军街办", "社区_源": "五龙社区", "小区_源": "建投樾山", "楼栋_源": "9栋", "社区": "五龙社区"}, "geometry": {"type": "Point", "coordinates": [111.25560848900005, 30.67634086100003]}}, {"type": "Feature", "properties": {"指标": "存在管线管道破损的住宅数量（栋）", "中类": "市政管网", "board": "安全韧性底线", "来源": "2026补充", "原图层": "存在管线管道破损的住宅", "街办_源": "点军街办", "社区_源": "五龙社区", "小区_源": "建投樾山", "楼栋_源": "3栋", "社区": "五龙社区"}, "geometry": {"type": "Point", "coordinates": [111.25711181100007, 30.67540470600005]}}, {"type": "Feature", "properties": {"指标": "存在管线管道破损的住宅数量（栋）", "中类": "市政管网", "board": "安全韧性底线", "来源": "2026补充", "原图层": "存在管线管道破损的住宅", "街办_源": "点军街办", "社区_源": "五龙社区", "小区_源": "建投樾山", "楼栋_源": "4栋", "社区": "五龙社区"}, "geometry": {"type": "Point", "coordinates": [111.25727345100006, 30.675895539000066]}}, {"type": "Feature", "properties": {"指标": "存在管线管道破损的住宅数量（栋）", "中类": "市政管网", "board": "安全韧性底线", "来源": "2026补充", "原图层": "存在管线管道破损的住宅", "街办_源": "点军街办", "社区_源": "五龙社区", "小区_源": "建投樾山", "楼栋_源": "5栋", "社区": "五龙社区"}, "geometry": {"type": "Point", "coordinates": [111.25630031000009, 30.675847307000026]}}, {"type": "Feature", "properties": {"指标": "存在管线管道破损的住宅数量（栋）", "中类": "市政管网", "board": "安全韧性底线", "来源": "2026补充", "原图层": "存在管线管道破损的住宅", "街办_源": "点军街办", "社区_源": "五龙社区", "小区_源": "阳光花苑小区", "楼栋_源": "阳光花苑1栋", "社区": "五龙社区"}, "geometry": {"type": "Point", "coordinates": [111.26547867400006, 30.67456115500005]}}, {"type": "Feature", "properties": {"指标": "存在管线管道破损的住宅数量（栋）", "中类": "市政管网", "board": "安全韧性底线", "来源": "2026补充", "原图层": "存在管线管道破损的住宅", "街办_源": "点军街办", "社区_源": "五龙社区", "小区_源": "杨家湾小区", "楼栋_源": "杨家湾1栋", "社区": "五龙社区"}, "geometry": {"type": "Point", "coordinates": [111.26740643600004, 30.673993738000036]}}, {"type": "Feature", "properties": {"指标": "存在管线管道破损的住宅数量（栋）", "中类": "市政管网", "board": "安全韧性底线", "来源": "2026补充", "原图层": "存在管线管道破损的住宅", "街办_源": "点军街办", "社区_源": "五龙社区", "小区_源": "西边冲小区", "楼栋_源": "西边冲小区8号楼", "社区": "五龙社区"}, "geometry": {"type": "Point", "coordinates": [111.27313810100009, 30.677598740000064]}}, {"type": "Feature", "properties": {"指标": "存在管线管道破损的住宅数量（栋）", "中类": "市政管网", "board": "安全韧性底线", "来源": "2026补充", "原图层": "存在管线管道破损的住宅", "街办_源": "虎牙街办", "社区_源": "虎牙社区", "小区_源": "猇亭大道18号院", "楼栋_源": "锦绣江东经济适用房", "社区": "虎牙社区"}, "geometry": {"type": "Point", "coordinates": [111.39871951600009, 30.568409674000065]}}, {"type": "Feature", "properties": {"指标": "存在管线管道破损的住宅数量（栋）", "中类": "市政管网", "board": "安全韧性底线", "来源": "2026补充", "原图层": "存在管线管道破损的住宅", "街办_源": "虎牙街办", "社区_源": "鸡山社区", "小区_源": "鸡山三村", "楼栋_源": "鸡山新村小区30栋", "社区": "鸡山社区"}, "geometry": {"type": "Point", "coordinates": [111.44719425200009, 30.554903558000035]}}, {"type": "Feature", "properties": {"指标": "存在管线管道破损的住宅数量（栋）", "中类": "市政管网", "board": "安全韧性底线", "来源": "2026补充", "原图层": "存在管线管道破损的住宅", "街办_源": "古老背街办", "社区_源": "古老背社区", "小区_源": "二印小区", "楼栋_源": "二印小区2号的房屋", "社区": "古老背社区"}, "geometry": {"type": "Point", "coordinates": [111.41273630800004, 30.52906876700007]}}, {"type": "Feature", "properties": {"指标": "存在管线管道破损的住宅数量（栋）", "中类": "市政管网", "board": "安全韧性底线", "来源": "2026补充", "原图层": "存在管线管道破损的住宅", "街办_源": "古老背街办", "社区_源": "桐岭新村社区", "小区_源": "桐岭新村", "楼栋_源": "二期18栋的房屋", "社区": "桐岭新村社区"}, "geometry": {"type": "Point", "coordinates": [111.42660591000003, 30.52461536900006]}}, {"type": "Feature", "properties": {"指标": "存在管线管道破损的住宅数量（栋）", "中类": "市政管网", "board": "安全韧性底线", "来源": "2026补充", "原图层": "存在管线管道破损的住宅", "街办_源": "小溪塔街办", "社区_源": "谭家榜社区", "小区_源": "谭家榜杂居小区", "楼栋_源": "谭家榜杂居小区12", "社区": "谭家榜社区"}, "geometry": {"type": "Point", "coordinates": [111.34618667600006, 30.79318684800006]}}, {"type": "Feature", "properties": {"指标": "存在管线管道破损的住宅数量（栋）", "中类": "市政管网", "board": "安全韧性底线", "来源": "2026补充", "原图层": "存在管线管道破损的住宅", "街办_源": "小溪塔街办", "社区_源": "长江市场社区", "小区_源": "宇隆广场小区", "楼栋_源": "宇隆广场", "社区": "长江市场社区"}, "geometry": {"type": "Point", "coordinates": [111.29435224500008, 30.768301241000074]}}, {"type": "Feature", "properties": {"指标": "存在管线管道破损的住宅数量（栋）", "中类": "市政管网", "board": "安全韧性底线", "来源": "2026补充", "原图层": "存在管线管道破损的住宅", "街办_源": "小溪塔街办", "社区_源": "朝阳社区", "小区_源": "星城花园小区", "楼栋_源": "2幢", "社区": "朝阳社区"}, "geometry": {"type": "Point", "coordinates": [111.32786484100006, 30.77923940200003]}}, {"type": "Feature", "properties": {"指标": "存在管线管道破损的住宅数量（栋）", "中类": "市政管网", "board": "安全韧性底线", "来源": "2026补充", "原图层": "存在管线管道破损的住宅", "街办_源": "小溪塔街办", "社区_源": "朝阳社区", "小区_源": "金凤朝阳西侧杂居小区", "楼栋_源": "1", "社区": "朝阳社区"}, "geometry": {"type": "Point", "coordinates": [111.32933571400008, 30.78336510200006]}}, {"type": "Feature", "properties": {"指标": "存在管线管道破损的住宅数量（栋）", "中类": "市政管网", "board": "安全韧性底线", "来源": "2026补充", "原图层": "存在管线管道破损的住宅", "街办_源": "小溪塔街办", "社区_源": "朝阳社区", "小区_源": "广厦街东侧杂居小区", "楼栋_源": "2", "社区": "朝阳社区"}, "geometry": {"type": "Point", "coordinates": [111.33028975500008, 30.778826223000067]}}, {"type": "Feature", "properties": {"指标": "存在管线管道破损的住宅数量（栋）", "中类": "市政管网", "board": "安全韧性底线", "来源": "2026补充", "原图层": "存在管线管道破损的住宅", "街办_源": "小溪塔街办", "社区_源": "峡江社区", "小区_源": "湖光路北侧杂居小区", "楼栋_源": "湖光金苑（老）1栋一单元", "社区": "峡江社区"}, "geometry": {"type": "Point", "coordinates": [111.29896735700004, 30.767726246000052]}}, {"type": "Feature", "properties": {"指标": "存在管线管道破损的住宅数量（栋）", "中类": "市政管网", "board": "安全韧性底线", "来源": "2026补充", "原图层": "存在管线管道破损的住宅", "街办_源": "小溪塔街办", "社区_源": "峡江社区", "小区_源": "湖光路北侧杂居小区", "楼栋_源": "张海峰的住宅", "社区": "峡江社区"}, "geometry": {"type": "Point", "coordinates": [111.29825840700005, 30.768153360000042]}}, {"type": "Feature", "properties": {"指标": "存在管线管道破损的住宅数量（栋）", "中类": "市政管网", "board": "安全韧性底线", "来源": "2026补充", "原图层": "存在管线管道破损的住宅", "街办_源": "东城试验区", "社区_源": "润城社区", "小区_源": "清江润城-北区", "楼栋_源": "24号楼", "社区": "润城社区"}, "geometry": {"type": "Point", "coordinates": [111.34049201000005, 30.751075316000026]}}, {"type": "Feature", "properties": {"指标": "存在管线管道破损的住宅数量（栋）", "中类": "市政管网", "board": "安全韧性底线", "来源": "2026补充", "原图层": "存在管线管道破损的住宅", "街办_源": "东城试验区", "社区_源": "润城社区", "小区_源": "清江润城-北区", "楼栋_源": "清江润城40", "社区": "润城社区"}, "geometry": {"type": "Point", "coordinates": [111.33985286000006, 30.75494674400005]}}, {"type": "Feature", "properties": {"指标": "存在管线管道破损的住宅数量（栋）", "中类": "市政管网", "board": "安全韧性底线", "来源": "2026补充", "原图层": "存在管线管道破损的住宅", "街办_源": "东城试验区", "社区_源": "润城社区", "小区_源": "清江润城-北区", "楼栋_源": "14栋", "社区": "润城社区"}, "geometry": {"type": "Point", "coordinates": [111.33926078400009, 30.753015168000047]}}, {"type": "Feature", "properties": {"指标": "存在管线管道破损的住宅数量（栋）", "中类": "市政管网", "board": "安全韧性底线", "来源": "2026补充", "原图层": "存在管线管道破损的住宅", "街办_源": "东城试验区", "社区_源": "润城社区", "小区_源": "清江润城-北区", "楼栋_源": "7号楼", "社区": "润城社区"}, "geometry": {"type": "Point", "coordinates": [111.33877469200007, 30.754977023000038]}}, {"type": "Feature", "properties": {"指标": "存在管线管道破损的住宅数量（栋）", "中类": "市政管网", "board": "安全韧性底线", "来源": "2026补充", "原图层": "存在管线管道破损的住宅", "街办_源": "东城试验区", "社区_源": "润城社区", "小区_源": "清江润城-北区", "楼栋_源": "15号楼", "社区": "润城社区"}, "geometry": {"type": "Point", "coordinates": [111.33925740100005, 30.752751493000062]}}, {"type": "Feature", "properties": {"指标": "存在管线管道破损的住宅数量（栋）", "中类": "市政管网", "board": "安全韧性底线", "来源": "2026补充", "原图层": "存在管线管道破损的住宅", "街办_源": "东城试验区", "社区_源": "润城社区", "小区_源": "清江润城-北区", "楼栋_源": "清江润城05", "社区": "润城社区"}, "geometry": {"type": "Point", "coordinates": [111.33946770600005, 30.75440664100006]}}, {"type": "Feature", "properties": {"指标": "存在管线管道破损的住宅数量（栋）", "中类": "市政管网", "board": "安全韧性底线", "来源": "2026补充", "原图层": "存在管线管道破损的住宅", "街办_源": "东城试验区", "社区_源": "润城社区", "小区_源": "清江润城-北区", "楼栋_源": "清江润城31", "社区": "润城社区"}, "geometry": {"type": "Point", "coordinates": [111.34041534000005, 30.754369746000066]}}, {"type": "Feature", "properties": {"指标": "存在管线管道破损的住宅数量（栋）", "中类": "市政管网", "board": "安全韧性底线", "来源": "2026补充", "原图层": "存在管线管道破损的住宅", "街办_源": "东城试验区", "社区_源": "润城社区", "小区_源": "清江润城-北区", "楼栋_源": "11号楼", "社区": "润城社区"}, "geometry": {"type": "Point", "coordinates": [111.33906460000009, 30.75399767500005]}}, {"type": "Feature", "properties": {"指标": "存在管线管道破损的住宅数量（栋）", "中类": "市政管网", "board": "安全韧性底线", "来源": "2026补充", "原图层": "存在管线管道破损的住宅", "街办_源": "东城试验区", "社区_源": "润城社区", "小区_源": "清江润城-北区", "楼栋_源": "30号楼", "社区": "润城社区"}, "geometry": {"type": "Point", "coordinates": [111.33955844300004, 30.75110826100007]}}, {"type": "Feature", "properties": {"指标": "存在管线管道破损的住宅数量（栋）", "中类": "市政管网", "board": "安全韧性底线", "来源": "2026补充", "原图层": "存在管线管道破损的住宅", "街办_源": "东城试验区", "社区_源": "润城社区", "小区_源": "清江润城-北区", "楼栋_源": "清江润城2", "社区": "润城社区"}, "geometry": {"type": "Point", "coordinates": [111.34059079800005, 30.752859553000064]}}, {"type": "Feature", "properties": {"指标": "存在管线管道破损的住宅数量（栋）", "中类": "市政管网", "board": "安全韧性底线", "来源": "2026补充", "原图层": "存在管线管道破损的住宅", "街办_源": "东城试验区", "社区_源": "润城社区", "小区_源": "清江润城-北区", "楼栋_源": "清江润城34", "社区": "润城社区"}, "geometry": {"type": "Point", "coordinates": [111.34067381800008, 30.755691605000038]}}, {"type": "Feature", "properties": {"指标": "存在管线管道破损的住宅数量（栋）", "中类": "市政管网", "board": "安全韧性底线", "来源": "2026补充", "原图层": "存在管线管道破损的住宅", "街办_源": "东城试验区", "社区_源": "润城社区", "小区_源": "清江润城-北区", "楼栋_源": "35号楼", "社区": "润城社区"}, "geometry": {"type": "Point", "coordinates": [111.34017701500005, 30.75603981000006]}}, {"type": "Feature", "properties": {"指标": "存在管线管道破损的住宅数量（栋）", "中类": "市政管网", "board": "安全韧性底线", "来源": "2026补充", "原图层": "存在管线管道破损的住宅", "街办_源": "东城试验区", "社区_源": "润城社区", "小区_源": "清江润城-北区", "楼栋_源": "18号楼", "社区": "润城社区"}, "geometry": {"type": "Point", "coordinates": [111.33969893100004, 30.752542563000077]}}, {"type": "Feature", "properties": {"指标": "存在管线管道破损的住宅数量（栋）", "中类": "市政管网", "board": "安全韧性底线", "来源": "2026补充", "原图层": "存在管线管道破损的住宅", "街办_源": "东城试验区", "社区_源": "润城社区", "小区_源": "清江润城-北区", "楼栋_源": "1号楼", "社区": "润城社区"}, "geometry": {"type": "Point", "coordinates": [111.34038159400006, 30.752481057000068]}}, {"type": "Feature", "properties": {"指标": "存在管线管道破损的住宅数量（栋）", "中类": "市政管网", "board": "安全韧性底线", "来源": "2026补充", "原图层": "存在管线管道破损的住宅", "街办_源": "东城试验区", "社区_源": "润城社区", "小区_源": "清江润城-北区", "楼栋_源": "20号楼", "社区": "润城社区"}, "geometry": {"type": "Point", "coordinates": [111.33978943900007, 30.753011898000068]}}, {"type": "Feature", "properties": {"指标": "存在管线管道破损的住宅数量（栋）", "中类": "市政管网", "board": "安全韧性底线", "来源": "2026补充", "原图层": "存在管线管道破损的住宅", "街办_源": "东城试验区", "社区_源": "润城社区", "小区_源": "清江润城-北区", "楼栋_源": "38号楼", "社区": "润城社区"}, "geometry": {"type": "Point", "coordinates": [111.33866095600007, 30.75540068600003]}}, {"type": "Feature", "properties": {"指标": "存在管线管道破损的住宅数量（栋）", "中类": "市政管网", "board": "安全韧性底线", "来源": "2026补充", "原图层": "存在管线管道破损的住宅", "街办_源": "东城试验区", "社区_源": "润城社区", "小区_源": "清江润城-北区", "楼栋_源": "清江润城22", "社区": "润城社区"}, "geometry": {"type": "Point", "coordinates": [111.33964864300009, 30.753877527000043]}}, {"type": "Feature", "properties": {"指标": "存在管线管道破损的住宅数量（栋）", "中类": "市政管网", "board": "安全韧性底线", "来源": "2026补充", "原图层": "存在管线管道破损的住宅", "街办_源": "东城试验区", "社区_源": "润城社区", "小区_源": "清江润城-北区", "楼栋_源": "9号楼", "社区": "润城社区"}, "geometry": {"type": "Point", "coordinates": [111.33887334800005, 30.754456224000023]}}, {"type": "Feature", "properties": {"指标": "存在管线管道破损的住宅数量（栋）", "中类": "市政管网", "board": "安全韧性底线", "来源": "2026补充", "原图层": "存在管线管道破损的住宅", "街办_源": "东城试验区", "社区_源": "润城社区", "小区_源": "清江润城-北区", "楼栋_源": "36号楼", "社区": "润城社区"}, "geometry": {"type": "Point", "coordinates": [111.33971178200005, 30.756315345000075]}}, {"type": "Feature", "properties": {"指标": "存在管线管道破损的住宅数量（栋）", "中类": "市政管网", "board": "安全韧性底线", "来源": "2026补充", "原图层": "存在管线管道破损的住宅", "街办_源": "东城试验区", "社区_源": "润城社区", "小区_源": "清江润城-北区", "楼栋_源": "清江润城32", "社区": "润城社区"}, "geometry": {"type": "Point", "coordinates": [111.34069539900008, 30.75480405500008]}}, {"type": "Feature", "properties": {"指标": "存在管线管道破损的住宅数量（栋）", "中类": "市政管网", "board": "安全韧性底线", "来源": "2026补充", "原图层": "存在管线管道破损的住宅", "街办_源": "东城试验区", "社区_源": "润城社区", "小区_源": "清江润城-北区", "楼栋_源": "12号楼", "社区": "润城社区"}, "geometry": {"type": "Point", "coordinates": [111.33914465200007, 30.753729521000025]}}, {"type": "Feature", "properties": {"指标": "存在管线管道破损的住宅数量（栋）", "中类": "市政管网", "board": "安全韧性底线", "来源": "2026补充", "原图层": "存在管线管道破损的住宅", "街办_源": "东城试验区", "社区_源": "润城社区", "小区_源": "清江润城-北区", "楼栋_源": "清江润城21", "社区": "润城社区"}, "geometry": {"type": "Point", "coordinates": [111.33973306400009, 30.75363262700006]}}, {"type": "Feature", "properties": {"指标": "存在管线管道破损的住宅数量（栋）", "中类": "市政管网", "board": "安全韧性底线", "来源": "2026补充", "原图层": "存在管线管道破损的住宅", "街办_源": "东城试验区", "社区_源": "润城社区", "小区_源": "清江润城-北区", "楼栋_源": "26号楼", "社区": "润城社区"}, "geometry": {"type": "Point", "coordinates": [111.34050821700004, 30.75207625300004]}}, {"type": "Feature", "properties": {"指标": "存在管线管道破损的住宅数量（栋）", "中类": "市政管网", "board": "安全韧性底线", "来源": "2026补充", "原图层": "存在管线管道破损的住宅", "街办_源": "东城试验区", "社区_源": "润城社区", "小区_源": "清江润城-北区", "楼栋_源": "28号楼", "社区": "润城社区"}, "geometry": {"type": "Point", "coordinates": [111.33904929900007, 30.751809222000077]}}, {"type": "Feature", "properties": {"指标": "存在管线管道破损的住宅数量（栋）", "中类": "市政管网", "board": "安全韧性底线", "来源": "2026补充", "原图层": "存在管线管道破损的住宅", "街办_源": "东城试验区", "社区_源": "润城社区", "小区_源": "清江润城-北区", "楼栋_源": "39号楼", "社区": "润城社区"}, "geometry": {"type": "Point", "coordinates": [111.33934901000003, 30.755276785000035]}}, {"type": "Feature", "properties": {"指标": "存在管线管道破损的住宅数量（栋）", "中类": "市政管网", "board": "安全韧性底线", "来源": "2026补充", "原图层": "存在管线管道破损的住宅", "街办_源": "东城试验区", "社区_源": "润城社区", "小区_源": "清江润城-北区", "楼栋_源": "10号楼", "社区": "润城社区"}, "geometry": {"type": "Point", "coordinates": [111.33893919200005, 30.754217397000048]}}, {"type": "Feature", "properties": {"指标": "存在管线管道破损的住宅数量（栋）", "中类": "市政管网", "board": "安全韧性底线", "来源": "2026补充", "原图层": "存在管线管道破损的住宅", "街办_源": "东城试验区", "社区_源": "润城社区", "小区_源": "清江润城-北区", "楼栋_源": "17号楼", "社区": "润城社区"}, "geometry": {"type": "Point", "coordinates": [111.33916491100007, 30.752282346000072]}}, {"type": "Feature", "properties": {"指标": "存在管线管道破损的住宅数量（栋）", "中类": "市政管网", "board": "安全韧性底线", "来源": "2026补充", "原图层": "存在管线管道破损的住宅", "街办_源": "东城试验区", "社区_源": "润城社区", "小区_源": "清江润城-北区", "楼栋_源": "27号楼", "社区": "润城社区"}, "geometry": {"type": "Point", "coordinates": [111.33974847900004, 30.751880191000055]}}, {"type": "Feature", "properties": {"指标": "存在管线管道破损的住宅数量（栋）", "中类": "市政管网", "board": "安全韧性底线", "来源": "2026补充", "原图层": "存在管线管道破损的住宅", "街办_源": "东城试验区", "社区_源": "润城社区", "小区_源": "清江润城-北区", "楼栋_源": "25号楼", "社区": "润城社区"}, "geometry": {"type": "Point", "coordinates": [111.34055226000004, 30.75162470400005]}}, {"type": "Feature", "properties": {"指标": "存在管线管道破损的住宅数量（栋）", "中类": "市政管网", "board": "安全韧性底线", "来源": "2026补充", "原图层": "存在管线管道破损的住宅", "街办_源": "东城试验区", "社区_源": "润城社区", "小区_源": "清江润城-北区", "楼栋_源": "16号楼", "社区": "润城社区"}, "geometry": {"type": "Point", "coordinates": [111.33918693300006, 30.752518907000024]}}, {"type": "Feature", "properties": {"指标": "存在管线管道破损的住宅数量（栋）", "中类": "市政管网", "board": "安全韧性底线", "来源": "2026补充", "原图层": "存在管线管道破损的住宅", "街办_源": "东城试验区", "社区_源": "润城社区", "小区_源": "清江润城-北区", "楼栋_源": "清江润城33", "社区": "润城社区"}, "geometry": {"type": "Point", "coordinates": [111.34070689300006, 30.755251799000064]}}, {"type": "Feature", "properties": {"指标": "存在管线管道破损的住宅数量（栋）", "中类": "市政管网", "board": "安全韧性底线", "来源": "2026补充", "原图层": "存在管线管道破损的住宅", "街办_源": "东城试验区", "社区_源": "润城社区", "小区_源": "清江润城-北区", "楼栋_源": "清江润城6", "社区": "润城社区"}, "geometry": {"type": "Point", "coordinates": [111.33935026900008, 30.754759472000046]}}, {"type": "Feature", "properties": {"指标": "存在管线管道破损的住宅数量（栋）", "中类": "市政管网", "board": "安全韧性底线", "来源": "2026补充", "原图层": "存在管线管道破损的住宅", "街办_源": "东城试验区", "社区_源": "润城社区", "小区_源": "清江润城-北区", "楼栋_源": "清江润城03", "社区": "润城社区"}, "geometry": {"type": "Point", "coordinates": [111.34056664800005, 30.753673508000077]}}, {"type": "Feature", "properties": {"指标": "存在管线管道破损的住宅数量（栋）", "中类": "市政管网", "board": "安全韧性底线", "来源": "2026补充", "原图层": "存在管线管道破损的住宅", "街办_源": "东城试验区", "社区_源": "润城社区", "小区_源": "清江润城-北区", "楼栋_源": "13号楼", "社区": "润城社区"}, "geometry": {"type": "Point", "coordinates": [111.33927015500007, 30.753489493000075]}}, {"type": "Feature", "properties": {"指标": "存在管线管道破损的住宅数量（栋）", "中类": "市政管网", "board": "安全韧性底线", "来源": "2026补充", "原图层": "存在管线管道破损的住宅", "街办_源": "东城试验区", "社区_源": "润城社区", "小区_源": "清江润城-北区", "楼栋_源": "19号楼", "社区": "润城社区"}, "geometry": {"type": "Point", "coordinates": [111.33979227200007, 30.75275847100005]}}, {"type": "Feature", "properties": {"指标": "存在管线管道破损的住宅数量（栋）", "中类": "市政管网", "board": "安全韧性底线", "来源": "2026补充", "原图层": "存在管线管道破损的住宅", "街办_源": "东城试验区", "社区_源": "润城社区", "小区_源": "清江润城-北区", "楼栋_源": "清江润城23", "社区": "润城社区"}, "geometry": {"type": "Point", "coordinates": [111.33957026200005, 30.754129290000037]}}, {"type": "Feature", "properties": {"指标": "存在管线管道破损的住宅数量（栋）", "中类": "市政管网", "board": "安全韧性底线", "来源": "2026补充", "原图层": "存在管线管道破损的住宅", "街办_源": "东城试验区", "社区_源": "润城社区", "小区_源": "清江润城-北区", "楼栋_源": "8号楼", "社区": "润城社区"}, "geometry": {"type": "Point", "coordinates": [111.33877443700004, 30.75468180200005]}}, {"type": "Feature", "properties": {"指标": "存在管线管道破损的住宅数量（栋）", "中类": "市政管网", "board": "安全韧性底线", "来源": "2026补充", "原图层": "存在管线管道破损的住宅", "街办_源": "东城试验区", "社区_源": "润城社区", "小区_源": "清江润城-北区", "楼栋_源": "29号楼", "社区": "润城社区"}, "geometry": {"type": "Point", "coordinates": [111.33908829400008, 30.751346828000067]}}, {"type": "Feature", "properties": {"指标": "存在管线管道破损的住宅数量（栋）", "中类": "市政管网", "board": "安全韧性底线", "来源": "2026补充", "原图层": "存在管线管道破损的住宅", "街办_源": "东城试验区", "社区_源": "润城社区", "小区_源": "清江润城-北区", "楼栋_源": "37号楼", "社区": "润城社区"}, "geometry": {"type": "Point", "coordinates": [111.33909361100007, 30.755803203000028]}}, {"type": "Feature", "properties": {"指标": "存在管线管道破损的住宅数量（栋）", "中类": "市政管网", "board": "安全韧性底线", "来源": "2026补充", "原图层": "存在管线管道破损的住宅", "街办_源": "小溪塔街办", "社区_源": "东湖社区", "小区_源": "客运宿舍小区", "楼栋_源": "330宿舍3号"}, "geometry": {"type": "Point", "coordinates": [111.32019133600005, 30.769359515000076]}}, {"type": "Feature", "properties": {"指标": "存在管线管道破损的住宅数量（栋）", "中类": "市政管网", "board": "安全韧性底线", "来源": "2026补充", "原图层": "存在管线管道破损的住宅", "街办_源": "小溪塔街办", "社区_源": "东湖社区", "小区_源": "电信杂居小区", "楼栋_源": "2栋"}, "geometry": {"type": "Point", "coordinates": [111.32729970200006, 30.770831652000027]}}, {"type": "Feature", "properties": {"指标": "存在管线管道破损的住宅数量（栋）", "中类": "市政管网", "board": "安全韧性底线", "来源": "2026补充", "原图层": "存在管线管道破损的住宅", "街办_源": "小溪塔街办", "社区_源": "东湖社区", "小区_源": "罗河二巷杂居小区", "楼栋_源": "33"}, "geometry": {"type": "Point", "coordinates": [111.32685477200005, 30.77185428000007]}}, {"type": "Feature", "properties": {"指标": "存在管线管道破损的住宅数量（栋）", "中类": "市政管网", "board": "安全韧性底线", "来源": "2026补充", "原图层": "存在管线管道破损的住宅", "街办_源": "小溪塔街办", "社区_源": "东湖社区", "小区_源": "罗河二巷杂居小区", "楼栋_源": "37"}, "geometry": {"type": "Point", "coordinates": [111.32730804400006, 30.772191172000078]}}]}