{"type": "FeatureCollection", "features": [{"type": "Feature", "geometry": {"type": "Point", "coordinates": [111.287811, 30.698677]}, "properties": {"指标": "未达标配建养老服务设施的小区数量（个）", "中类": "公服设施", "board": "民生基础需求"}}, {"type": "Feature", "geometry": {"type": "Point", "coordinates": [111.299502, 30.698192]}, "properties": {"指标": "未达标配建养老服务设施的小区数量（个）", "中类": "公服设施", "board": "民生基础需求"}}, {"type": "Feature", "geometry": {"type": "Point", "coordinates": [111.287047, 30.723858]}, "properties": {"指标": "未达标配建婴幼儿照护服务设施的小区数量（个）", "中类": "公服设施", "board": "民生基础需求"}}, {"type": "Feature", "geometry": {"type": "Point", "coordinates": [111.268848, 30.717952]}, "properties": {"指标": "未达标配建婴幼儿照护服务设施的小区数量（个）", "中类": "公服设施", "board": "民生基础需求"}}, {"type": "Feature", "geometry": {"type": "Point", "coordinates": [111.26815, 30.717904]}, "properties": {"指标": "未达标配建婴幼儿照护服务设施的小区数量（个）", "中类": "公服设施", "board": "民生基础需求"}}, {"type": "Feature", "geometry": {"type": "Point", "coordinates": [111.308519, 30.743677]}, "properties": {"指标": "未达标配建婴幼儿照护服务设施的小区数量（个）", "中类": "公服设施", "board": "民生基础需求"}}, {"type": "Feature", "geometry": {"type": "Point", "coordinates": [111.372926, 30.664848]}, "properties": {"指标": "未达标配建婴幼儿照护服务设施的小区数量（个）", "中类": "公服设施", "board": "民生基础需求"}}, {"type": "Feature", "geometry": {"type": "Point", "coordinates": [111.280137, 30.69875]}, "properties": {"指标": "未达标配建婴幼儿照护服务设施的小区数量（个）", "中类": "公服设施", "board": "民生基础需求"}}, {"type": "Feature", "geometry": {"type": "Point", "coordinates": [111.323824, 30.72293]}, "properties": {"指标": "未达标配建婴幼儿照护服务设施的小区数量（个）", "中类": "公服设施", "board": "民生基础需求"}}, {"type": "Feature", "geometry": {"type": "Point", "coordinates": [111.287734, 30.72159]}, "properties": {"指标": "未达标配建婴幼儿照护服务设施的小区数量（个）", "中类": "公服设施", "board": "民生基础需求"}}, {"type": "Feature", "geometry": {"type": "Point", "coordinates": [111.364934, 30.637053]}, "properties": {"指标": "未达标配建婴幼儿照护服务设施的小区数量（个）", "中类": "公服设施", "board": "民生基础需求"}}, {"type": "Feature", "geometry": {"type": "Point", "coordinates": [111.324234, 30.725283]}, "properties": {"指标": "未达标配建婴幼儿照护服务设施的小区数量（个）", "中类": "公服设施", "board": "民生基础需求"}}, {"type": "Feature", "geometry": {"type": "Point", "coordinates": [111.308364, 30.704745]}, "properties": {"指标": "未达标配建婴幼儿照护服务设施的小区数量（个）", "中类": "公服设施", "board": "民生基础需求"}}, {"type": "Feature", "geometry": {"type": "Point", "coordinates": [111.330976, 30.666502]}, "properties": {"指标": "未达标配建婴幼儿照护服务设施的小区数量（个）", "中类": "公服设施", "board": "民生基础需求"}}, {"type": "Feature", "geometry": {"type": "Point", "coordinates": [111.287565, 30.72616]}, "properties": {"指标": "未达标配建婴幼儿照护服务设施的小区数量（个）", "中类": "公服设施", "board": "民生基础需求"}}, {"type": "Feature", "geometry": {"type": "Point", "coordinates": [111.334582, 30.724433]}, "properties": {"指标": "未达标配建婴幼儿照护服务设施的小区数量（个）", "中类": "公服设施", "board": "民生基础需求"}}, {"type": "Feature", "geometry": {"type": "Point", "coordinates": [111.317078, 30.699434]}, "properties": {"指标": "未达标配建婴幼儿照护服务设施的小区数量（个）", "中类": "公服设施", "board": "民生基础需求"}}, {"type": "Feature", "geometry": {"type": "Point", "coordinates": [111.347777, 30.644913]}, "properties": {"指标": "未达标配建婴幼儿照护服务设施的小区数量（个）", "中类": "公服设施", "board": "民生基础需求"}}, {"type": "Feature", "geometry": {"type": "Point", "coordinates": [111.288276, 30.737605]}, "properties": {"指标": "未达标配建婴幼儿照护服务设施的小区数量（个）", "中类": "公服设施", "board": "民生基础需求"}}, {"type": "Feature", "geometry": {"type": "Point", "coordinates": [111.287365, 30.720762]}, "properties": {"指标": "未达标配建婴幼儿照护服务设施的小区数量（个）", "中类": "公服设施", "board": "民生基础需求"}}, {"type": "Feature", "geometry": {"type": "Point", "coordinates": [111.357668, 30.635155]}, "properties": {"指标": "未达标配建婴幼儿照护服务设施的小区数量（个）", "中类": "公服设施", "board": "民生基础需求"}}, {"type": "Feature", "geometry": {"type": "Point", "coordinates": [111.268378, 30.71721]}, "properties": {"指标": "未达标配建婴幼儿照护服务设施的小区数量（个）", "中类": "公服设施", "board": "民生基础需求"}}, {"type": "Feature", "geometry": {"type": "Point", "coordinates": [111.375865, 30.664369]}, "properties": {"指标": "未达标配建婴幼儿照护服务设施的小区数量（个）", "中类": "公服设施", "board": "民生基础需求"}}, {"type": "Feature", "geometry": {"type": "Point", "coordinates": [111.308686, 30.67881]}, "properties": {"指标": "未达标配建婴幼儿照护服务设施的小区数量（个）", "中类": "公服设施", "board": "民生基础需求"}}, {"type": "Feature", "geometry": {"type": "Point", "coordinates": [111.287139, 30.725156]}, "properties": {"指标": "未达标配建婴幼儿照护服务设施的小区数量（个）", "中类": "公服设施", "board": "民生基础需求"}}, {"type": "Feature", "geometry": {"type": "Point", "coordinates": [111.360621, 30.636698]}, "properties": {"指标": "未达标配建婴幼儿照护服务设施的小区数量（个）", "中类": "公服设施", "board": "民生基础需求"}}, {"type": "Feature", "geometry": {"type": "Point", "coordinates": [111.268058, 30.718171]}, "properties": {"指标": "未达标配建婴幼儿照护服务设施的小区数量（个）", "中类": "公服设施", "board": "民生基础需求"}}, {"type": "Feature", "geometry": {"type": "Point", "coordinates": [111.353676, 30.643956]}, "properties": {"指标": "未达标配建婴幼儿照护服务设施的小区数量（个）", "中类": "公服设施", "board": "民生基础需求"}}, {"type": "Feature", "geometry": {"type": "Point", "coordinates": [111.301205, 30.730251]}, "properties": {"指标": "未达标配建婴幼儿照护服务设施的小区数量（个）", "中类": "公服设施", "board": "民生基础需求"}}, {"type": "Feature", "geometry": {"type": "Point", "coordinates": [111.282913, 30.725311]}, "properties": {"指标": "未达标配建婴幼儿照护服务设施的小区数量（个）", "中类": "公服设施", "board": "民生基础需求"}}, {"type": "Feature", "geometry": {"type": "Point", "coordinates": [111.268953, 30.71774]}, "properties": {"指标": "未达标配建婴幼儿照护服务设施的小区数量（个）", "中类": "公服设施", "board": "民生基础需求"}}, {"type": "Feature", "geometry": {"type": "Point", "coordinates": [111.310467, 30.696444]}, "properties": {"指标": "未达标配建婴幼儿照护服务设施的小区数量（个）", "中类": "公服设施", "board": "民生基础需求"}}, {"type": "Feature", "geometry": {"type": "Point", "coordinates": [111.293069, 30.725585]}, "properties": {"指标": "未达标配建婴幼儿照护服务设施的小区数量（个）", "中类": "公服设施", "board": "民生基础需求"}}, {"type": "Feature", "geometry": {"type": "Point", "coordinates": [111.273682, 30.728464]}, "properties": {"指标": "未达标配建婴幼儿照护服务设施的小区数量（个）", "中类": "公服设施", "board": "民生基础需求"}}, {"type": "Feature", "geometry": {"type": "Point", "coordinates": [111.319131, 30.723036]}, "properties": {"指标": "未达标配建婴幼儿照护服务设施的小区数量（个）", "中类": "公服设施", "board": "民生基础需求"}}, {"type": "Feature", "geometry": {"type": "Point", "coordinates": [111.375841, 30.676022]}, "properties": {"指标": "未达标配建婴幼儿照护服务设施的小区数量（个）", "中类": "公服设施", "board": "民生基础需求"}}, {"type": "Feature", "geometry": {"type": "Point", "coordinates": [111.358957, 30.635691]}, "properties": {"指标": "未达标配建幼儿园的小区数量（个）", "中类": "公服设施", "board": "民生基础需求"}}, {"type": "Feature", "geometry": {"type": "Point", "coordinates": [111.336623, 30.653542]}, "properties": {"指标": "未达标配建幼儿园的小区数量（个）", "中类": "公服设施", "board": "民生基础需求"}}, {"type": "Feature", "geometry": {"type": "Point", "coordinates": [111.288247, 30.737644]}, "properties": {"指标": "未达标配建幼儿园的小区数量（个）", "中类": "公服设施", "board": "民生基础需求"}}, {"type": "Feature", "geometry": {"type": "Point", "coordinates": [111.298939, 30.702173]}, "properties": {"指标": "未达标配建幼儿园的小区数量（个）", "中类": "公服设施", "board": "民生基础需求"}}, {"type": "Feature", "geometry": {"type": "Point", "coordinates": [111.288358, 30.708491]}, "properties": {"指标": "未达标配建幼儿园的小区数量（个）", "中类": "公服设施", "board": "民生基础需求"}}, {"type": "Feature", "geometry": {"type": "Point", "coordinates": [111.293234, 30.725247]}, "properties": {"指标": "未达标配建幼儿园的小区数量（个）", "中类": "公服设施", "board": "民生基础需求"}}, {"type": "Feature", "geometry": {"type": "Point", "coordinates": [111.28092, 30.700162]}, "properties": {"指标": "未达标配建幼儿园的小区数量（个）", "中类": "公服设施", "board": "民生基础需求"}}, {"type": "Feature", "geometry": {"type": "Point", "coordinates": [111.301205, 30.730251]}, "properties": {"指标": "未达标配建幼儿园的小区数量（个）", "中类": "公服设施", "board": "民生基础需求"}}, {"type": "Feature", "geometry": {"type": "Point", "coordinates": [111.361209, 30.632323]}, "properties": {"指标": "未达标配建幼儿园的小区数量（个）", "中类": "公服设施", "board": "民生基础需求"}}, {"type": "Feature", "geometry": {"type": "Point", "coordinates": [111.308364, 30.704745]}, "properties": {"指标": "未达标配建幼儿园的小区数量（个）", "中类": "公服设施", "board": "民生基础需求"}}, {"type": "Feature", "geometry": {"type": "Point", "coordinates": [111.278276, 30.717529]}, "properties": {"指标": "未达标配建幼儿园的小区数量（个）", "中类": "公服设施", "board": "民生基础需求"}}, {"type": "Feature", "geometry": {"type": "Point", "coordinates": [111.286553, 30.726235]}, "properties": {"指标": "未达标配建公共活动场地的小区数量（个）", "中类": "公服设施", "board": "民生基础需求"}}, {"type": "Feature", "geometry": {"type": "Point", "coordinates": [111.277961, 30.7174]}, "properties": {"指标": "未达标配建公共活动场地的小区数量（个）", "中类": "公服设施", "board": "民生基础需求"}}, {"type": "Feature", "geometry": {"type": "Point", "coordinates": [111.308552, 30.679138]}, "properties": {"指标": "未达标配建公共活动场地的小区数量（个）", "中类": "公服设施", "board": "民生基础需求"}}, {"type": "Feature", "geometry": {"type": "Point", "coordinates": [111.287147, 30.728159]}, "properties": {"指标": "未达标配建公共活动场地的小区数量（个）", "中类": "公服设施", "board": "民生基础需求"}}, {"type": "Feature", "geometry": {"type": "Point", "coordinates": [111.287152, 30.725304]}, "properties": {"指标": "未达标配建公共活动场地的小区数量（个）", "中类": "公服设施", "board": "民生基础需求"}}, {"type": "Feature", "geometry": {"type": "Point", "coordinates": [111.287695, 30.720483]}, "properties": {"指标": "未达标配建公共活动场地的小区数量（个）", "中类": "公服设施", "board": "民生基础需求"}}, {"type": "Feature", "geometry": {"type": "Point", "coordinates": [111.293918, 30.701329]}, "properties": {"指标": "未达标配建公共活动场地的小区数量（个）", "中类": "公服设施", "board": "民生基础需求"}}, {"type": "Feature", "geometry": {"type": "Point", "coordinates": [111.295341, 30.714256]}, "properties": {"指标": "未达标配建公共活动场地的小区数量（个）", "中类": "公服设施", "board": "民生基础需求"}}, {"type": "Feature", "geometry": {"type": "Point", "coordinates": [111.313016, 30.692943]}, "properties": {"指标": "未达标配建公共活动场地的小区数量（个）", "中类": "公服设施", "board": "民生基础需求"}}, {"type": "Feature", "geometry": {"type": "Point", "coordinates": [111.290042, 30.718507]}, "properties": {"指标": "未达标配建公共活动场地的小区数量（个）", "中类": "公服设施", "board": "民生基础需求"}}, {"type": "Feature", "geometry": {"type": "Point", "coordinates": [111.326865, 30.668877]}, "properties": {"指标": "未达标配建公共活动场地的小区数量（个）", "中类": "公服设施", "board": "民生基础需求"}}, {"type": "Feature", "geometry": {"type": "Point", "coordinates": [111.287868, 30.723497]}, "properties": {"指标": "未达标配建公共活动场地的小区数量（个）", "中类": "公服设施", "board": "民生基础需求"}}, {"type": "Feature", "geometry": {"type": "Point", "coordinates": [111.312096, 30.697705]}, "properties": {"指标": "未达标配建公共活动场地的小区数量（个）", "中类": "公服设施", "board": "民生基础需求"}}, {"type": "Feature", "geometry": {"type": "Point", "coordinates": [111.294813, 30.730043]}, "properties": {"指标": "未达标配建公共活动场地的小区数量（个）", "中类": "公服设施", "board": "民生基础需求"}}, {"type": "Feature", "geometry": {"type": "Point", "coordinates": [111.313889, 30.693335]}, "properties": {"指标": "未达标配建公共活动场地的小区数量（个）", "中类": "公服设施", "board": "民生基础需求"}}, {"type": "Feature", "geometry": {"type": "Point", "coordinates": [111.312852, 30.694533]}, "properties": {"指标": "未达标配建公共活动场地的小区数量（个）", "中类": "公服设施", "board": "民生基础需求"}}, {"type": "Feature", "geometry": {"type": "Point", "coordinates": [111.281317, 30.714159]}, "properties": {"指标": "未达标配建公共活动场地的小区数量（个）", "中类": "公服设施", "board": "民生基础需求"}}, {"type": "Feature", "geometry": {"type": "Point", "coordinates": [111.28735, 30.725051]}, "properties": {"指标": "未达标配建公共活动场地的小区数量（个）", "中类": "公服设施", "board": "民生基础需求"}}, {"type": "Feature", "geometry": {"type": "Point", "coordinates": [111.276502, 30.711097]}, "properties": {"指标": "未达标配建公共活动场地的小区数量（个）", "中类": "公服设施", "board": "民生基础需求"}}, {"type": "Feature", "geometry": {"type": "Point", "coordinates": [111.280665, 30.70558]}, "properties": {"指标": "未达标配建公共活动场地的小区数量（个）", "中类": "公服设施", "board": "民生基础需求"}}, {"type": "Feature", "geometry": {"type": "Point", "coordinates": [111.312695, 30.693943]}, "properties": {"指标": "未达标配建公共活动场地的小区数量（个）", "中类": "公服设施", "board": "民生基础需求"}}, {"type": "Feature", "geometry": {"type": "Point", "coordinates": [111.292238, 30.712703]}, "properties": {"指标": "未达标配建公共活动场地的小区数量（个）", "中类": "公服设施", "board": "民生基础需求"}}, {"type": "Feature", "geometry": {"type": "Point", "coordinates": [111.292296, 30.708608]}, "properties": {"指标": "未达标配建公共活动场地的小区数量（个）", "中类": "公服设施", "board": "民生基础需求"}}, {"type": "Feature", "geometry": {"type": "Point", "coordinates": [111.29099, 30.711809]}, "properties": {"指标": "未达标配建公共活动场地的小区数量（个）", "中类": "公服设施", "board": "民生基础需求"}}, {"type": "Feature", "geometry": {"type": "Point", "coordinates": [111.280201, 30.713934]}, "properties": {"指标": "未达标配建公共活动场地的小区数量（个）", "中类": "公服设施", "board": "民生基础需求"}}, {"type": "Feature", "geometry": {"type": "Point", "coordinates": [111.306115, 30.695919]}, "properties": {"指标": "未达标配建公共活动场地的小区数量（个）", "中类": "公服设施", "board": "民生基础需求"}}, {"type": "Feature", "geometry": {"type": "Point", "coordinates": [111.287553, 30.726095]}, "properties": {"指标": "未达标配建公共活动场地的小区数量（个）", "中类": "公服设施", "board": "民生基础需求"}}, {"type": "Feature", "geometry": {"type": "Point", "coordinates": [111.277063, 30.708885]}, "properties": {"指标": "未达标配建的多功能运动场地数量（个）", "中类": "公服设施", "board": "民生基础需求"}}, {"type": "Feature", "geometry": {"type": "Point", "coordinates": [111.287833, 30.737159]}, "properties": {"指标": "未达标配建的多功能运动场地数量（个）", "中类": "公服设施", "board": "民生基础需求"}}, {"type": "Feature", "geometry": {"type": "Point", "coordinates": [111.299037, 30.715993]}, "properties": {"指标": "未达标配建的多功能运动场地数量（个）", "中类": "公服设施", "board": "民生基础需求"}}, {"type": "Feature", "geometry": {"type": "Point", "coordinates": [111.292895, 30.691693]}, "properties": {"指标": "未达标配建的多功能运动场地数量（个）", "中类": "公服设施", "board": "民生基础需求"}}, {"type": "Feature", "geometry": {"type": "Point", "coordinates": [111.327652, 30.711453]}, "properties": {"指标": "未达标配建的多功能运动场地数量（个）", "中类": "公服设施", "board": "民生基础需求"}}, {"type": "Feature", "geometry": {"type": "Point", "coordinates": [111.412814, 30.684063]}, "properties": {"指标": "未达标配建的多功能运动场地数量（个）", "中类": "公服设施", "board": "民生基础需求"}}, {"type": "Feature", "geometry": {"type": "Point", "coordinates": [111.292154, 30.725751]}, "properties": {"指标": "小学学位缺口数（个）", "中类": "公服设施", "board": "民生基础需求"}}, {"type": "Feature", "geometry": {"type": "Point", "coordinates": [111.311984, 30.712816]}, "properties": {"指标": "小学学位缺口数（个）", "中类": "公服设施", "board": "民生基础需求"}}, {"type": "Feature", "geometry": {"type": "Point", "coordinates": [111.312214, 30.693164]}, "properties": {"指标": "小学学位缺口数（个）", "中类": "公服设施", "board": "民生基础需求"}}, {"type": "Feature", "geometry": {"type": "Point", "coordinates": [111.346173, 30.654735]}, "properties": {"指标": "小学学位缺口数（个）", "中类": "公服设施", "board": "民生基础需求"}}, {"type": "Feature", "geometry": {"type": "Point", "coordinates": [111.328774, 30.687685]}, "properties": {"指标": "小学学位缺口数（个）", "中类": "公服设施", "board": "民生基础需求"}}, {"type": "Feature", "geometry": {"type": "Point", "coordinates": [111.333306, 30.678151]}, "properties": {"指标": "小学学位缺口数（个）", "中类": "公服设施", "board": "民生基础需求"}}, {"type": "Feature", "geometry": {"type": "Point", "coordinates": [111.33782, 30.650274]}, "properties": {"指标": "小学学位缺口数（个）", "中类": "公服设施", "board": "民生基础需求"}}, {"type": "Feature", "geometry": {"type": "Point", "coordinates": [111.354742, 30.637896]}, "properties": {"指标": "小学学位缺口数（个）", "中类": "公服设施", "board": "民生基础需求"}}, {"type": "Feature", "geometry": {"type": "Point", "coordinates": [111.28223, 30.700821]}, "properties": {"指标": "小学学位缺口数（个）", "中类": "公服设施", "board": "民生基础需求"}}, {"type": "Feature", "geometry": {"type": "Point", "coordinates": [111.324998, 30.737895]}, "properties": {"指标": "小学学位缺口数（个）", "中类": "公服设施", "board": "民生基础需求"}}, {"type": "Feature", "geometry": {"type": "Point", "coordinates": [111.290643, 30.728211]}, "properties": {"指标": "小学学位缺口数（个）", "中类": "公服设施", "board": "民生基础需求"}}, {"type": "Feature", "geometry": {"type": "Point", "coordinates": [111.362917, 30.639784]}, "properties": {"指标": "小学学位缺口数（个）", "中类": "公服设施", "board": "民生基础需求"}}, {"type": "Feature", "geometry": {"type": "Point", "coordinates": [111.317379, 30.672542]}, "properties": {"指标": "小学学位缺口数（个）", "中类": "公服设施", "board": "民生基础需求"}}, {"type": "Feature", "geometry": {"type": "Point", "coordinates": [111.296162, 30.706904]}, "properties": {"指标": "小学学位缺口数（个）", "中类": "公服设施", "board": "民生基础需求"}}, {"type": "Feature", "geometry": {"type": "Point", "coordinates": [111.283691, 30.69368]}, "properties": {"指标": "小学学位缺口数（个）", "中类": "公服设施", "board": "民生基础需求"}}, {"type": "Feature", "geometry": {"type": "Point", "coordinates": [111.311895, 30.746311]}, "properties": {"指标": "小学学位缺口数（个）", "中类": "公服设施", "board": "民生基础需求"}}, {"type": "Feature", "geometry": {"type": "Point", "coordinates": [111.282098, 30.715337]}, "properties": {"指标": "小学学位缺口数（个）", "中类": "公服设施", "board": "民生基础需求"}}, {"type": "Feature", "geometry": {"type": "Point", "coordinates": [111.348496, 30.642739]}, "properties": {"指标": "小学学位缺口数（个）", "中类": "公服设施", "board": "民生基础需求"}}, {"type": "Feature", "geometry": {"type": "Point", "coordinates": [111.302927, 30.689634]}, "properties": {"指标": "小学学位缺口数（个）", "中类": "公服设施", "board": "民生基础需求"}}, {"type": "Feature", "geometry": {"type": "Point", "coordinates": [111.344545, 30.673571]}, "properties": {"指标": "小学学位缺口数（个）", "中类": "公服设施", "board": "民生基础需求"}}, {"type": "Feature", "geometry": {"type": "Point", "coordinates": [111.29178, 30.715197]}, "properties": {"指标": "小学学位缺口数（个）", "中类": "公服设施", "board": "民生基础需求"}}, {"type": "Feature", "geometry": {"type": "Point", "coordinates": [111.297322, 30.718173]}, "properties": {"指标": "小学学位缺口数（个）", "中类": "公服设施", "board": "民生基础需求"}}, {"type": "Feature", "geometry": {"type": "Point", "coordinates": [111.315732, 30.704321]}, "properties": {"指标": "小学学位缺口数（个）", "中类": "公服设施", "board": "民生基础需求"}}, {"type": "Feature", "geometry": {"type": "Point", "coordinates": [111.274938, 30.722273]}, "properties": {"指标": "小学学位缺口数（个）", "中类": "公服设施", "board": "民生基础需求"}}, {"type": "Feature", "geometry": {"type": "Point", "coordinates": [111.334876, 30.711119]}, "properties": {"指标": "小学学位缺口数（个）", "中类": "公服设施", "board": "民生基础需求"}}, {"type": "Feature", "geometry": {"type": "Point", "coordinates": [111.282806, 30.707616]}, "properties": {"指标": "小学学位缺口数（个）", "中类": "公服设施", "board": "民生基础需求"}}, {"type": "Feature", "geometry": {"type": "Point", "coordinates": [111.275553, 30.710184]}, "properties": {"指标": "小学学位缺口数（个）", "中类": "公服设施", "board": "民生基础需求"}}, {"type": "Feature", "geometry": {"type": "Point", "coordinates": [111.279739, 30.719147]}, "properties": {"指标": "小学学位缺口数（个）", "中类": "公服设施", "board": "民生基础需求"}}, {"type": "Feature", "geometry": {"type": "Point", "coordinates": [111.28661, 30.697143]}, "properties": {"指标": "小学学位缺口数（个）", "中类": "公服设施", "board": "民生基础需求"}}, {"type": "Feature", "geometry": {"type": "Point", "coordinates": [111.295279, 30.73008]}, "properties": {"指标": "小学学位缺口数（个）", "中类": "公服设施", "board": "民生基础需求"}}, {"type": "Feature", "geometry": {"type": "Point", "coordinates": [111.37273, 30.650174]}, "properties": {"指标": "小学学位缺口数（个）", "中类": "公服设施", "board": "民生基础需求"}}]}