{"type": "FeatureCollection", "features": [{"type": "Feature", "properties": {"指标": "存在结构安全隐患的住宅数量（栋）", "中类": "住房", "board": "安全韧性底线", "来源": "2026补充", "原图层": "存在结构安全隐患的住宅", "社区": "虎牙社区"}, "geometry": {"type": "Point", "coordinates": [111.40195341800006, 30.567952931000036]}}, {"type": "Feature", "properties": {"指标": "存在结构安全隐患的住宅数量（栋）", "中类": "住房", "board": "安全韧性底线", "来源": "2026补充", "原图层": "存在结构安全隐患的住宅", "社区": "云池社区"}, "geometry": {"type": "Point", "coordinates": [111.45602803700007, 30.488309169000047]}}, {"type": "Feature", "properties": {"指标": "存在结构安全隐患的住宅数量（栋）", "中类": "住房", "board": "安全韧性底线", "来源": "2026补充", "原图层": "存在结构安全隐患的住宅", "社区": "丁家坝社区"}, "geometry": {"type": "Point", "coordinates": [111.30679358500004, 30.78023588800005]}}, {"type": "Feature", "properties": {"指标": "存在结构安全隐患的住宅数量（栋）", "中类": "住房", "board": "安全韧性底线", "来源": "2026补充", "原图层": "存在结构安全隐患的住宅", "社区": "双桥社区"}, "geometry": {"type": "Point", "coordinates": [111.42112553800007, 30.53452759100003]}}, {"type": "Feature", "properties": {"指标": "存在结构安全隐患的住宅数量（栋）", "中类": "住房", "board": "安全韧性底线", "来源": "2026补充", "原图层": "存在结构安全隐患的住宅", "社区": "古老背社区"}, "geometry": {"type": "Point", "coordinates": [111.41308014000003, 30.53359157500006]}}, {"type": "Feature", "properties": {"指标": "存在结构安全隐患的住宅数量（栋）", "中类": "住房", "board": "安全韧性底线", "来源": "2026补充", "原图层": "存在结构安全隐患的住宅", "社区": "虎牙社区"}, "geometry": {"type": "Point", "coordinates": [111.41204309700004, 30.566837409000073]}}, {"type": "Feature", "properties": {"指标": "存在结构安全隐患的住宅数量（栋）", "中类": "住房", "board": "安全韧性底线", "来源": "2026补充", "原图层": "存在结构安全隐患的住宅", "社区": "黄龙寺社区"}, "geometry": {"type": "Point", "coordinates": [111.47576434300004, 30.54677249300005]}}, {"type": "Feature", "properties": {"指标": "存在结构安全隐患的住宅数量（栋）", "中类": "住房", "board": "安全韧性底线", "来源": "2026补充", "原图层": "存在结构安全隐患的住宅", "社区": "云池社区"}, "geometry": {"type": "Point", "coordinates": [111.45465068800007, 30.48697721900004]}}, {"type": "Feature", "properties": {"指标": "存在结构安全隐患的住宅数量（栋）", "中类": "住房", "board": "安全韧性底线", "来源": "2026补充", "原图层": "存在结构安全隐患的住宅", "社区": "石板冲社区"}, "geometry": {"type": "Point", "coordinates": [111.44021629100007, 30.527382299000067]}}, {"type": "Feature", "properties": {"指标": "存在结构安全隐患的住宅数量（栋）", "中类": "住房", "board": "安全韧性底线", "来源": "2026补充", "原图层": "存在结构安全隐患的住宅", "社区": "石板冲社区"}, "geometry": {"type": "Point", "coordinates": [111.45304650300005, 30.535387557000035]}}, {"type": "Feature", "properties": {"指标": "存在结构安全隐患的住宅数量（栋）", "中类": "住房", "board": "安全韧性底线", "来源": "2026补充", "原图层": "存在结构安全隐患的住宅", "社区": "六泉湖社区"}, "geometry": {"type": "Point", "coordinates": [111.45613214800005, 30.548207956000056]}}, {"type": "Feature", "properties": {"指标": "存在围护安全隐患的住宅数量（栋）", "中类": "住房", "board": "安全韧性底线", "来源": "2026补充", "原图层": "存在围护安全隐患的住宅", "街办_源": "点军街办", "社区_源": "朱市街社区", "小区_源": "锦绣城南", "楼栋_源": "3栋", "社区": "朱市街社区"}, "geometry": {"type": "Point", "coordinates": [111.25106170700008, 30.702223031000074]}}, {"type": "Feature", "properties": {"指标": "存在围护安全隐患的住宅数量（栋）", "中类": "住房", "board": "安全韧性底线", "来源": "2026补充", "原图层": "存在围护安全隐患的住宅", "街办_源": "点军街办", "社区_源": "朱市街社区", "小区_源": "锦绣城南", "楼栋_源": "10栋", "社区": "朱市街社区"}, "geometry": {"type": "Point", "coordinates": [111.25120473700008, 30.70565951800006]}}, {"type": "Feature", "properties": {"指标": "存在围护安全隐患的住宅数量（栋）", "中类": "住房", "board": "安全韧性底线", "来源": "2026补充", "原图层": "存在围护安全隐患的住宅", "街办_源": "点军街办", "社区_源": "朱市街社区", "小区_源": "锦绣城南", "楼栋_源": "14栋", "社区": "朱市街社区"}, "geometry": {"type": "Point", "coordinates": [111.25070278000004, 30.707257850000076]}}, {"type": "Feature", "properties": {"指标": "存在围护安全隐患的住宅数量（栋）", "中类": "住房", "board": "安全韧性底线", "来源": "2026补充", "原图层": "存在围护安全隐患的住宅", "街办_源": "点军街办", "社区_源": "红光社区", "小区_源": "红光小区", "楼栋_源": "红光小区居民楼四号楼", "社区": "红光社区"}, "geometry": {"type": "Point", "coordinates": [111.28277345500004, 30.677267811000036]}}, {"type": "Feature", "properties": {"指标": "存在围护安全隐患的住宅数量（栋）", "中类": "住房", "board": "安全韧性底线", "来源": "2026补充", "原图层": "存在围护安全隐患的住宅", "街办_源": "点军街办", "社区_源": "红光社区", "小区_源": "红光小区", "楼栋_源": "红光小区2栋", "社区": "红光社区"}, "geometry": {"type": "Point", "coordinates": [111.28330660600005, 30.676941036000073]}}, {"type": "Feature", "properties": {"指标": "存在围护安全隐患的住宅数量（栋）", "中类": "住房", "board": "安全韧性底线", "来源": "2026补充", "原图层": "存在围护安全隐患的住宅", "街办_源": "点军街办", "社区_源": "红光社区", "小区_源": "红光小区", "楼栋_源": "红光小区一号居民楼", "社区": "红光社区"}, "geometry": {"type": "Point", "coordinates": [111.28357011800006, 30.676775012000064]}}, {"type": "Feature", "properties": {"指标": "存在围护安全隐患的住宅数量（栋）", "中类": "住房", "board": "安全韧性底线", "来源": "2026补充", "原图层": "存在围护安全隐患的住宅", "街办_源": "点军街办", "社区_源": "红光社区", "小区_源": "红光小区", "楼栋_源": "红光小区7栋", "社区": "红光社区"}, "geometry": {"type": "Point", "coordinates": [111.28361914300007, 30.677433834000055]}}, {"type": "Feature", "properties": {"指标": "存在围护安全隐患的住宅数量（栋）", "中类": "住房", "board": "安全韧性底线", "来源": "2026补充", "原图层": "存在围护安全隐患的住宅", "街办_源": "点军街办", "社区_源": "红光社区", "小区_源": "红光小区", "楼栋_源": "红光小区居民楼六号楼", "社区": "红光社区"}, "geometry": {"type": "Point", "coordinates": [111.28222804700005, 30.67758404500006]}}, {"type": "Feature", "properties": {"指标": "存在围护安全隐患的住宅数量（栋）", "中类": "住房", "board": "安全韧性底线", "来源": "2026补充", "原图层": "存在围护安全隐患的住宅", "街办_源": "点军街办", "社区_源": "红光社区", "小区_源": "红光小区", "楼栋_源": "红光小区居民楼三号楼", "社区": "红光社区"}, "geometry": {"type": "Point", "coordinates": [111.28304309500004, 30.677112329000067]}}, {"type": "Feature", "properties": {"指标": "存在围护安全隐患的住宅数量（栋）", "中类": "住房", "board": "安全韧性底线", "来源": "2026补充", "原图层": "存在围护安全隐患的住宅", "街办_源": "点军街办", "社区_源": "红光社区", "小区_源": "红光小区", "楼栋_源": "红光小区5栋", "社区": "红光社区"}, "geometry": {"type": "Point", "coordinates": [111.28251300700003, 30.677428563000035]}}, {"type": "Feature", "properties": {"指标": "存在围护安全隐患的住宅数量（栋）", "中类": "住房", "board": "安全韧性底线", "来源": "2026补充", "原图层": "存在围护安全隐患的住宅", "街办_源": "点军街办", "社区_源": "五龙社区", "小区_源": "五龙阳光小区", "楼栋_源": "五龙阳光小区7栋", "社区": "五龙社区"}, "geometry": {"type": "Point", "coordinates": [111.27274260700005, 30.681302826000035]}}, {"type": "Feature", "properties": {"指标": "存在围护安全隐患的住宅数量（栋）", "中类": "住房", "board": "安全韧性底线", "来源": "2026补充", "原图层": "存在围护安全隐患的住宅", "街办_源": "点军街办", "社区_源": "五龙社区", "小区_源": "五龙阳光小区", "楼栋_源": "五龙阳光小区11栋1", "社区": "五龙社区"}, "geometry": {"type": "Point", "coordinates": [111.27454879900006, 30.679816323000068]}}, {"type": "Feature", "properties": {"指标": "存在围护安全隐患的住宅数量（栋）", "中类": "住房", "board": "安全韧性底线", "来源": "2026补充", "原图层": "存在围护安全隐患的住宅", "街办_源": "点军街办", "社区_源": "五龙社区", "小区_源": "五龙阳光小区", "楼栋_源": "五龙阳光小区10栋", "社区": "五龙社区"}, "geometry": {"type": "Point", "coordinates": [111.27341413400006, 30.680393043000038]}}, {"type": "Feature", "properties": {"指标": "存在围护安全隐患的住宅数量（栋）", "中类": "住房", "board": "安全韧性底线", "来源": "2026补充", "原图层": "存在围护安全隐患的住宅", "街办_源": "点军街办", "社区_源": "五龙社区", "小区_源": "五龙阳光小区", "楼栋_源": "五龙阳光小区2栋", "社区": "五龙社区"}, "geometry": {"type": "Point", "coordinates": [111.27564259400003, 30.68019694900005]}}, {"type": "Feature", "properties": {"指标": "存在围护安全隐患的住宅数量（栋）", "中类": "住房", "board": "安全韧性底线", "来源": "2026补充", "原图层": "存在围护安全隐患的住宅", "街办_源": "点军街办", "社区_源": "五龙社区", "小区_源": "五龙阳光小区", "楼栋_源": "五龙阳光小区4栋", "社区": "五龙社区"}, "geometry": {"type": "Point", "coordinates": [111.27467901900008, 30.680801443000064]}}, {"type": "Feature", "properties": {"指标": "存在围护安全隐患的住宅数量（栋）", "中类": "住房", "board": "安全韧性底线", "来源": "2026补充", "原图层": "存在围护安全隐患的住宅", "街办_源": "点军街办", "社区_源": "五龙社区", "小区_源": "五龙阳光小区", "楼栋_源": "五龙阳光小区12栋", "社区": "红光社区"}, "geometry": {"type": "Point", "coordinates": [111.27684642400004, 30.679993698000033]}}, {"type": "Feature", "properties": {"指标": "存在围护安全隐患的住宅数量（栋）", "中类": "住房", "board": "安全韧性底线", "来源": "2026补充", "原图层": "存在围护安全隐患的住宅", "街办_源": "点军街办", "社区_源": "五龙社区", "小区_源": "五龙阳光小区", "楼栋_源": "五龙阳光小区居民楼1号楼", "社区": "五龙社区"}, "geometry": {"type": "Point", "coordinates": [111.27593717100007, 30.67984215100006]}}, {"type": "Feature", "properties": {"指标": "存在围护安全隐患的住宅数量（栋）", "中类": "住房", "board": "安全韧性底线", "来源": "2026补充", "原图层": "存在围护安全隐患的住宅", "街办_源": "点军街办", "社区_源": "五龙社区", "小区_源": "五龙阳光小区", "楼栋_源": "五龙阳光小区居民楼10栋", "社区": "五龙社区"}, "geometry": {"type": "Point", "coordinates": [111.27395189000003, 30.68010815200006]}}, {"type": "Feature", "properties": {"指标": "存在围护安全隐患的住宅数量（栋）", "中类": "住房", "board": "安全韧性底线", "来源": "2026补充", "原图层": "存在围护安全隐患的住宅", "街办_源": "点军街办", "社区_源": "五龙社区", "小区_源": "五龙阳光小区", "楼栋_源": "五龙阳光小区5栋", "社区": "五龙社区"}, "geometry": {"type": "Point", "coordinates": [111.27403122000004, 30.681037855000056]}}, {"type": "Feature", "properties": {"指标": "存在围护安全隐患的住宅数量（栋）", "中类": "住房", "board": "安全韧性底线", "来源": "2026补充", "原图层": "存在围护安全隐患的住宅", "街办_源": "点军街办", "社区_源": "五龙社区", "小区_源": "五龙阳光小区", "楼栋_源": "五龙阳光小区6号栋", "社区": "五龙社区"}, "geometry": {"type": "Point", "coordinates": [111.27352736400007, 30.681371729000034]}}, {"type": "Feature", "properties": {"指标": "存在围护安全隐患的住宅数量（栋）", "中类": "住房", "board": "安全韧性底线", "来源": "2026补充", "原图层": "存在围护安全隐患的住宅", "街办_源": "点军街办", "社区_源": "五龙社区", "小区_源": "五龙阳光小区", "楼栋_源": "五龙阳光小区3栋", "社区": "五龙社区"}, "geometry": {"type": "Point", "coordinates": [111.27531133700006, 30.680552137000063]}}, {"type": "Feature", "properties": {"指标": "存在围护安全隐患的住宅数量（栋）", "中类": "住房", "board": "安全韧性底线", "来源": "2026补充", "原图层": "存在围护安全隐患的住宅", "街办_源": "点军街办", "社区_源": "五龙社区", "小区_源": "五龙阳光小区", "楼栋_源": "五龙阳光小区8栋", "社区": "五龙社区"}, "geometry": {"type": "Point", "coordinates": [111.27295381500005, 30.680874026000026]}}, {"type": "Feature", "properties": {"指标": "存在围护安全隐患的住宅数量（栋）", "中类": "住房", "board": "安全韧性底线", "来源": "2026补充", "原图层": "存在围护安全隐患的住宅", "街办_源": "点军街办", "社区_源": "五龙社区", "小区_源": "阳光花苑小区", "楼栋_源": "阳光花苑9栋", "社区": "五龙社区"}, "geometry": {"type": "Point", "coordinates": [111.26330352400004, 30.677069458000062]}}, {"type": "Feature", "properties": {"指标": "存在围护安全隐患的住宅数量（栋）", "中类": "住房", "board": "安全韧性底线", "来源": "2026补充", "原图层": "存在围护安全隐患的住宅", "街办_源": "点军街办", "社区_源": "五龙社区", "小区_源": "阳光花苑小区", "楼栋_源": "阳光花苑3栋", "社区": "五龙社区"}, "geometry": {"type": "Point", "coordinates": [111.26545816800007, 30.675695615000052]}}, {"type": "Feature", "properties": {"指标": "存在围护安全隐患的住宅数量（栋）", "中类": "住房", "board": "安全韧性底线", "来源": "2026补充", "原图层": "存在围护安全隐患的住宅", "街办_源": "点军街办", "社区_源": "五龙社区", "小区_源": "阳光花苑小区", "楼栋_源": "阳光花苑1栋", "社区": "五龙社区"}, "geometry": {"type": "Point", "coordinates": [111.26547442100008, 30.674559900000077]}}, {"type": "Feature", "properties": {"指标": "存在围护安全隐患的住宅数量（栋）", "中类": "住房", "board": "安全韧性底线", "来源": "2026补充", "原图层": "存在围护安全隐患的住宅", "街办_源": "点军街办", "社区_源": "五龙社区", "小区_源": "阳光花苑小区", "楼栋_源": "阳光花苑10栋", "社区": "五龙社区"}, "geometry": {"type": "Point", "coordinates": [111.26210354600005, 30.67702765300004]}}, {"type": "Feature", "properties": {"指标": "存在围护安全隐患的住宅数量（栋）", "中类": "住房", "board": "安全韧性底线", "来源": "2026补充", "原图层": "存在围护安全隐患的住宅", "街办_源": "点军街办", "社区_源": "五龙社区", "小区_源": "阳光花苑小区", "楼栋_源": "阳光花苑15栋", "社区": "五龙社区"}, "geometry": {"type": "Point", "coordinates": [111.26339211000004, 30.678574826000045]}}, {"type": "Feature", "properties": {"指标": "存在围护安全隐患的住宅数量（栋）", "中类": "住房", "board": "安全韧性底线", "来源": "2026补充", "原图层": "存在围护安全隐患的住宅", "街办_源": "点军街办", "社区_源": "五龙社区", "小区_源": "阳光花苑小区", "楼栋_源": "阳光花苑4栋", "社区": "五龙社区"}, "geometry": {"type": "Point", "coordinates": [111.26543918100003, 30.676220300000068]}}, {"type": "Feature", "properties": {"指标": "存在围护安全隐患的住宅数量（栋）", "中类": "住房", "board": "安全韧性底线", "来源": "2026补充", "原图层": "存在围护安全隐患的住宅", "街办_源": "点军街办", "社区_源": "五龙社区", "小区_源": "阳光花苑小区", "楼栋_源": "阳光花苑5栋", "社区": "五龙社区"}, "geometry": {"type": "Point", "coordinates": [111.26560930400007, 30.67669582900004]}}, {"type": "Feature", "properties": {"指标": "存在围护安全隐患的住宅数量（栋）", "中类": "住房", "board": "安全韧性底线", "来源": "2026补充", "原图层": "存在围护安全隐患的住宅", "街办_源": "点军街办", "社区_源": "五龙社区", "小区_源": "阳光花苑小区", "楼栋_源": "阳光花苑11栋", "社区": "五龙社区"}, "geometry": {"type": "Point", "coordinates": [111.26183317200008, 30.677602464000074]}}, {"type": "Feature", "properties": {"指标": "存在围护安全隐患的住宅数量（栋）", "中类": "住房", "board": "安全韧性底线", "来源": "2026补充", "原图层": "存在围护安全隐患的住宅", "街办_源": "点军街办", "社区_源": "五龙社区", "小区_源": "阳光花苑小区", "楼栋_源": "阳光花苑6栋", "社区": "五龙社区"}, "geometry": {"type": "Point", "coordinates": [111.26476476300007, 30.674827665000066]}}, {"type": "Feature", "properties": {"指标": "存在围护安全隐患的住宅数量（栋）", "中类": "住房", "board": "安全韧性底线", "来源": "2026补充", "原图层": "存在围护安全隐患的住宅", "街办_源": "点军街办", "社区_源": "五龙社区", "小区_源": "阳光花苑小区", "楼栋_源": "阳光花苑8栋", "社区": "五龙社区"}, "geometry": {"type": "Point", "coordinates": [111.26220307300008, 30.67639003200003]}}, {"type": "Feature", "properties": {"指标": "存在围护安全隐患的住宅数量（栋）", "中类": "住房", "board": "安全韧性底线", "来源": "2026补充", "原图层": "存在围护安全隐患的住宅", "街办_源": "点军街办", "社区_源": "五龙社区", "小区_源": "阳光花苑小区", "楼栋_源": "阳光花苑13栋", "社区": "五龙社区"}, "geometry": {"type": "Point", "coordinates": [111.26225665700008, 30.678292232000047]}}, {"type": "Feature", "properties": {"指标": "存在围护安全隐患的住宅数量（栋）", "中类": "住房", "board": "安全韧性底线", "来源": "2026补充", "原图层": "存在围护安全隐患的住宅", "街办_源": "点军街办", "社区_源": "五龙社区", "小区_源": "阳光花苑小区", "楼栋_源": "阳光花苑2栋", "社区": "五龙社区"}, "geometry": {"type": "Point", "coordinates": [111.26518095800009, 30.67519607500003]}}, {"type": "Feature", "properties": {"指标": "存在围护安全隐患的住宅数量（栋）", "中类": "住房", "board": "安全韧性底线", "来源": "2026补充", "原图层": "存在围护安全隐患的住宅", "街办_源": "点军街办", "社区_源": "五龙社区", "小区_源": "阳光花苑小区", "楼栋_源": "阳光花苑7栋", "社区": "五龙社区"}, "geometry": {"type": "Point", "coordinates": [111.26331052800003, 30.675997266000024]}}, {"type": "Feature", "properties": {"指标": "存在围护安全隐患的住宅数量（栋）", "中类": "住房", "board": "安全韧性底线", "来源": "2026补充", "原图层": "存在围护安全隐患的住宅", "街办_源": "点军街办", "社区_源": "五龙社区", "小区_源": "阳光花苑小区", "楼栋_源": "阳光花苑14栋", "社区": "五龙社区"}, "geometry": {"type": "Point", "coordinates": [111.26272940200005, 30.678538029000038]}}, {"type": "Feature", "properties": {"指标": "存在围护安全隐患的住宅数量（栋）", "中类": "住房", "board": "安全韧性底线", "来源": "2026补充", "原图层": "存在围护安全隐患的住宅", "街办_源": "点军街办", "社区_源": "五龙社区", "小区_源": "阳光花苑小区", "楼栋_源": "阳光花苑12栋", "社区": "五龙社区"}, "geometry": {"type": "Point", "coordinates": [111.26174396300007, 30.678178325000033]}}, {"type": "Feature", "properties": {"指标": "存在围护安全隐患的住宅数量（栋）", "中类": "住房", "board": "安全韧性底线", "来源": "2026补充", "原图层": "存在围护安全隐患的住宅", "街办_源": "点军街办", "社区_源": "梅子溪社区", "小区_源": "江南时代", "楼栋_源": "江南时代1栋", "社区": "梅子溪社区"}, "geometry": {"type": "Point", "coordinates": [111.26381413000007, 30.673664502000065]}}, {"type": "Feature", "properties": {"指标": "存在围护安全隐患的住宅数量（栋）", "中类": "住房", "board": "安全韧性底线", "来源": "2026补充", "原图层": "存在围护安全隐患的住宅", "街办_源": "点军街办", "社区_源": "梅子溪社区", "小区_源": "江南时代", "楼栋_源": "江南时代6栋", "社区": "梅子溪社区"}, "geometry": {"type": "Point", "coordinates": [111.26450210900003, 30.67273253500008]}}, {"type": "Feature", "properties": {"指标": "存在围护安全隐患的住宅数量（栋）", "中类": "住房", "board": "安全韧性底线", "来源": "2026补充", "原图层": "存在围护安全隐患的住宅", "街办_源": "点军街办", "社区_源": "梅子溪社区", "小区_源": "江南时代", "楼栋_源": "江南时代4栋", "社区": "梅子溪社区"}, "geometry": {"type": "Point", "coordinates": [111.26411082100009, 30.673157839000055]}}, {"type": "Feature", "properties": {"指标": "存在围护安全隐患的住宅数量（栋）", "中类": "住房", "board": "安全韧性底线", "来源": "2026补充", "原图层": "存在围护安全隐患的住宅", "街办_源": "点军街办", "社区_源": "五龙社区", "小区_源": "杨家湾小区", "楼栋_源": "杨家湾1栋", "社区": "五龙社区"}, "geometry": {"type": "Point", "coordinates": [111.26739523600008, 30.67399939200004]}}, {"type": "Feature", "properties": {"指标": "存在围护安全隐患的住宅数量（栋）", "中类": "住房", "board": "安全韧性底线", "来源": "2026补充", "原图层": "存在围护安全隐患的住宅", "街办_源": "点军街办", "社区_源": "五龙社区", "小区_源": "杨家湾小区", "楼栋_源": "杨家湾小区5栋", "社区": "五龙社区"}, "geometry": {"type": "Point", "coordinates": [111.26795182700005, 30.675378324000064]}}, {"type": "Feature", "properties": {"指标": "存在围护安全隐患的住宅数量（栋）", "中类": "住房", "board": "安全韧性底线", "来源": "2026补充", "原图层": "存在围护安全隐患的住宅", "街办_源": "点军街办", "社区_源": "五龙社区", "小区_源": "杨家湾小区", "楼栋_源": "杨家湾小区7栋", "社区": "五龙社区"}, "geometry": {"type": "Point", "coordinates": [111.26785459100006, 30.67595515100004]}}, {"type": "Feature", "properties": {"指标": "存在围护安全隐患的住宅数量（栋）", "中类": "住房", "board": "安全韧性底线", "来源": "2026补充", "原图层": "存在围护安全隐患的住宅", "街办_源": "点军街办", "社区_源": "五龙社区", "小区_源": "杨家湾小区", "楼栋_源": "杨家湾小区6栋", "社区": "五龙社区"}, "geometry": {"type": "Point", "coordinates": [111.26753296700008, 30.675434077000034]}}, {"type": "Feature", "properties": {"指标": "存在围护安全隐患的住宅数量（栋）", "中类": "住房", "board": "安全韧性底线", "来源": "2026补充", "原图层": "存在围护安全隐患的住宅", "街办_源": "点军街办", "社区_源": "五龙社区", "小区_源": "杨家湾小区", "楼栋_源": "杨家湾小区2号楼", "社区": "五龙社区"}, "geometry": {"type": "Point", "coordinates": [111.26748310200009, 30.674374766000028]}}, {"type": "Feature", "properties": {"指标": "存在围护安全隐患的住宅数量（栋）", "中类": "住房", "board": "安全韧性底线", "来源": "2026补充", "原图层": "存在围护安全隐患的住宅", "街办_源": "点军街办", "社区_源": "五龙社区", "小区_源": "杨家湾小区", "楼栋_源": "杨家湾小区4栋", "社区": "五龙社区"}, "geometry": {"type": "Point", "coordinates": [111.26766261400007, 30.67495374300006]}}, {"type": "Feature", "properties": {"指标": "存在围护安全隐患的住宅数量（栋）", "中类": "住房", "board": "安全韧性底线", "来源": "2026补充", "原图层": "存在围护安全隐患的住宅", "街办_源": "点军街办", "社区_源": "五龙社区", "小区_源": "杨家湾小区", "楼栋_源": "杨家湾小区3栋", "社区": "五龙社区"}, "geometry": {"type": "Point", "coordinates": [111.26759280400006, 30.674659966000036]}}, {"type": "Feature", "properties": {"指标": "存在围护安全隐患的住宅数量（栋）", "中类": "住房", "board": "安全韧性底线", "来源": "2026补充", "原图层": "存在围护安全隐患的住宅", "街办_源": "点军街办", "社区_源": "五龙社区", "小区_源": "江南星城", "楼栋_源": "江南星城15栋", "社区": "五龙社区"}, "geometry": {"type": "Point", "coordinates": [111.26838516700008, 30.67904572300006]}}, {"type": "Feature", "properties": {"指标": "存在围护安全隐患的住宅数量（栋）", "中类": "住房", "board": "安全韧性底线", "来源": "2026补充", "原图层": "存在围护安全隐患的住宅", "街办_源": "点军街办", "社区_源": "五龙社区", "小区_源": "江南星城", "楼栋_源": "江南星城20栋", "社区": "五龙社区"}, "geometry": {"type": "Point", "coordinates": [111.26684360600007, 30.67956606300004]}}, {"type": "Feature", "properties": {"指标": "存在围护安全隐患的住宅数量（栋）", "中类": "住房", "board": "安全韧性底线", "来源": "2026补充", "原图层": "存在围护安全隐患的住宅", "街办_源": "点军街办", "社区_源": "五龙社区", "小区_源": "江南星城", "楼栋_源": "江南星城1栋", "社区": "五龙社区"}, "geometry": {"type": "Point", "coordinates": [111.27228050900004, 30.676389329000074]}}, {"type": "Feature", "properties": {"指标": "存在围护安全隐患的住宅数量（栋）", "中类": "住房", "board": "安全韧性底线", "来源": "2026补充", "原图层": "存在围护安全隐患的住宅", "街办_源": "点军街办", "社区_源": "五龙社区", "小区_源": "江南星城", "楼栋_源": "江南星城6栋", "社区": "五龙社区"}, "geometry": {"type": "Point", "coordinates": [111.27004263800006, 30.67696447800006]}}, {"type": "Feature", "properties": {"指标": "存在围护安全隐患的住宅数量（栋）", "中类": "住房", "board": "安全韧性底线", "来源": "2026补充", "原图层": "存在围护安全隐患的住宅", "街办_源": "点军街办", "社区_源": "五龙社区", "小区_源": "江南星城", "楼栋_源": "江南星城8栋", "社区": "五龙社区"}, "geometry": {"type": "Point", "coordinates": [111.27000993300004, 30.67785518000005]}}, {"type": "Feature", "properties": {"指标": "存在围护安全隐患的住宅数量（栋）", "中类": "住房", "board": "安全韧性底线", "来源": "2026补充", "原图层": "存在围护安全隐患的住宅", "街办_源": "点军街办", "社区_源": "五龙社区", "小区_源": "江南星城", "楼栋_源": "江南星城5栋", "社区": "五龙社区"}, "geometry": {"type": "Point", "coordinates": [111.27041134200005, 30.676610811000046]}}, {"type": "Feature", "properties": {"指标": "存在围护安全隐患的住宅数量（栋）", "中类": "住房", "board": "安全韧性底线", "来源": "2026补充", "原图层": "存在围护安全隐患的住宅", "街办_源": "点军街办", "社区_源": "五龙社区", "小区_源": "江南星城", "楼栋_源": "江南星城3栋", "社区": "五龙社区"}, "geometry": {"type": "Point", "coordinates": [111.27153059500006, 30.67678915700003]}}, {"type": "Feature", "properties": {"指标": "存在围护安全隐患的住宅数量（栋）", "中类": "住房", "board": "安全韧性底线", "来源": "2026补充", "原图层": "存在围护安全隐患的住宅", "街办_源": "点军街办", "社区_源": "五龙社区", "小区_源": "花径美邻", "楼栋_源": "美径花邻1号楼", "社区": "五龙社区"}, "geometry": {"type": "Point", "coordinates": [111.26760034300008, 30.68113037100005]}}, {"type": "Feature", "properties": {"指标": "存在围护安全隐患的住宅数量（栋）", "中类": "住房", "board": "安全韧性底线", "来源": "2026补充", "原图层": "存在围护安全隐患的住宅", "街办_源": "点军街办", "社区_源": "五龙社区", "小区_源": "花径美邻", "楼栋_源": "花径美邻6栋", "社区": "五龙社区"}, "geometry": {"type": "Point", "coordinates": [111.26880693800007, 30.68003132700005]}}, {"type": "Feature", "properties": {"指标": "存在围护安全隐患的住宅数量（栋）", "中类": "住房", "board": "安全韧性底线", "来源": "2026补充", "原图层": "存在围护安全隐患的住宅", "街办_源": "点军街办", "社区_源": "五龙社区", "小区_源": "花径美邻", "楼栋_源": "花径美邻8号楼", "社区": "五龙社区"}, "geometry": {"type": "Point", "coordinates": [111.26913384800008, 30.679673496000078]}}, {"type": "Feature", "properties": {"指标": "存在围护安全隐患的住宅数量（栋）", "中类": "住房", "board": "安全韧性底线", "来源": "2026补充", "原图层": "存在围护安全隐患的住宅", "街办_源": "点军街办", "社区_源": "五龙社区", "小区_源": "花径美邻", "楼栋_源": "花径美邻3号楼", "社区": "五龙社区"}, "geometry": {"type": "Point", "coordinates": [111.26821850000005, 30.680378933000043]}}, {"type": "Feature", "properties": {"指标": "存在围护安全隐患的住宅数量（栋）", "中类": "住房", "board": "安全韧性底线", "来源": "2026补充", "原图层": "存在围护安全隐患的住宅", "街办_源": "点军街办", "社区_源": "五龙社区", "小区_源": "花径美邻", "楼栋_源": "花径美邻7号楼", "社区": "五龙社区"}, "geometry": {"type": "Point", "coordinates": [111.26869400500004, 30.679515027000036]}}, {"type": "Feature", "properties": {"指标": "存在围护安全隐患的住宅数量（栋）", "中类": "住房", "board": "安全韧性底线", "来源": "2026补充", "原图层": "存在围护安全隐患的住宅", "街办_源": "点军街办", "社区_源": "五龙社区", "小区_源": "花径美邻", "楼栋_源": "花径美邻6号楼", "社区": "五龙社区"}, "geometry": {"type": "Point", "coordinates": [111.26837303900004, 30.679934201000037]}}, {"type": "Feature", "properties": {"指标": "存在围护安全隐患的住宅数量（栋）", "中类": "住房", "board": "安全韧性底线", "来源": "2026补充", "原图层": "存在围护安全隐患的住宅", "街办_源": "点军街办", "社区_源": "五龙社区", "小区_源": "花径美邻", "楼栋_源": "花径美邻9号楼", "社区": "五龙社区"}, "geometry": {"type": "Point", "coordinates": [111.26939537600003, 30.679162306000023]}}, {"type": "Feature", "properties": {"指标": "存在围护安全隐患的住宅数量（栋）", "中类": "住房", "board": "安全韧性底线", "来源": "2026补充", "原图层": "存在围护安全隐患的住宅", "街办_源": "点军街办", "社区_源": "五龙社区", "小区_源": "花径美邻", "楼栋_源": "美径花邻2号楼", "社区": "五龙社区"}, "geometry": {"type": "Point", "coordinates": [111.26743399200006, 30.680674348000025]}}, {"type": "Feature", "properties": {"指标": "存在围护安全隐患的住宅数量（栋）", "中类": "住房", "board": "安全韧性底线", "来源": "2026补充", "原图层": "存在围护安全隐患的住宅", "街办_源": "点军街办", "社区_源": "梅子溪社区", "小区_源": "宜昌碧桂园·豪庭", "楼栋_源": "碧桂园豪庭10栋", "社区": "梅子溪社区"}, "geometry": {"type": "Point", "coordinates": [111.27151855000005, 30.67280902300007]}}, {"type": "Feature", "properties": {"指标": "存在围护安全隐患的住宅数量（栋）", "中类": "住房", "board": "安全韧性底线", "来源": "2026补充", "原图层": "存在围护安全隐患的住宅", "街办_源": "虎牙街办", "社区_源": "虎牙社区", "小区_源": "猇亭大道18号院", "楼栋_源": "锦绣江东经济适用房", "社区": "虎牙社区"}, "geometry": {"type": "Point", "coordinates": [111.39874496800007, 30.568417891000024]}}, {"type": "Feature", "properties": {"指标": "存在围护安全隐患的住宅数量（栋）", "中类": "住房", "board": "安全韧性底线", "来源": "2026补充", "原图层": "存在围护安全隐患的住宅", "街办_源": "虎牙街办", "社区_源": "鸡山社区", "小区_源": "鸡山三村", "楼栋_源": "鸡山新村小区30栋", "社区": "鸡山社区"}, "geometry": {"type": "Point", "coordinates": [111.44755472400004, 30.55521795100003]}}, {"type": "Feature", "properties": {"指标": "存在围护安全隐患的住宅数量（栋）", "中类": "住房", "board": "安全韧性底线", "来源": "2026补充", "原图层": "存在围护安全隐患的住宅", "街办_源": "虎牙街办", "社区_源": "六泉湖社区", "小区_源": "六泉湖社区", "楼栋_源": "六泉湖社区12号楼", "社区": "六泉湖社区"}, "geometry": {"type": "Point", "coordinates": [111.45020564000004, 30.55822664300007]}}, {"type": "Feature", "properties": {"指标": "存在围护安全隐患的住宅数量（栋）", "中类": "住房", "board": "安全韧性底线", "来源": "2026补充", "原图层": "存在围护安全隐患的住宅", "街办_源": "虎牙街办", "社区_源": "六泉湖社区", "小区_源": "六泉湖社区", "楼栋_源": "六泉湖社区26#楼", "社区": "六泉湖社区"}, "geometry": {"type": "Point", "coordinates": [111.45145885900007, 30.558807441000056]}}, {"type": "Feature", "properties": {"指标": "存在围护安全隐患的住宅数量（栋）", "中类": "住房", "board": "安全韧性底线", "来源": "2026补充", "原图层": "存在围护安全隐患的住宅", "街办_源": "虎牙街办", "社区_源": "六泉湖社区", "小区_源": "六泉湖社区", "楼栋_源": "六泉湖社区14号楼", "社区": "六泉湖社区"}, "geometry": {"type": "Point", "coordinates": [111.45068012300004, 30.55659604300007]}}, {"type": "Feature", "properties": {"指标": "存在围护安全隐患的住宅数量（栋）", "中类": "住房", "board": "安全韧性底线", "来源": "2026补充", "原图层": "存在围护安全隐患的住宅", "街办_源": "虎牙街办", "社区_源": "六泉湖社区", "小区_源": "六泉湖社区", "楼栋_源": "六泉湖社区24号楼", "社区": "六泉湖社区"}, "geometry": {"type": "Point", "coordinates": [111.45106691300003, 30.558144750000054]}}, {"type": "Feature", "properties": {"指标": "存在围护安全隐患的住宅数量（栋）", "中类": "住房", "board": "安全韧性底线", "来源": "2026补充", "原图层": "存在围护安全隐患的住宅", "街办_源": "虎牙街办", "社区_源": "六泉湖社区", "小区_源": "六泉湖社区", "楼栋_源": "六泉湖社区31#楼", "社区": "六泉湖社区"}, "geometry": {"type": "Point", "coordinates": [111.45195492500005, 30.558440227000062]}}, {"type": "Feature", "properties": {"指标": "存在围护安全隐患的住宅数量（栋）", "中类": "住房", "board": "安全韧性底线", "来源": "2026补充", "原图层": "存在围护安全隐患的住宅", "街办_源": "虎牙街办", "社区_源": "六泉湖社区", "小区_源": "六泉湖社区", "楼栋_源": "七里冲三期35栋", "社区": "六泉湖社区"}, "geometry": {"type": "Point", "coordinates": [111.45376861200003, 30.55905414700004]}}, {"type": "Feature", "properties": {"指标": "存在围护安全隐患的住宅数量（栋）", "中类": "住房", "board": "安全韧性底线", "来源": "2026补充", "原图层": "存在围护安全隐患的住宅", "街办_源": "虎牙街办", "社区_源": "六泉湖社区", "小区_源": "六泉湖社区", "楼栋_源": "六泉湖社区18号楼", "社区": "六泉湖社区"}, "geometry": {"type": "Point", "coordinates": [111.45061050000004, 30.557828700000073]}}, {"type": "Feature", "properties": {"指标": "存在围护安全隐患的住宅数量（栋）", "中类": "住房", "board": "安全韧性底线", "来源": "2026补充", "原图层": "存在围护安全隐患的住宅", "街办_源": "虎牙街办", "社区_源": "六泉湖社区", "小区_源": "六泉湖社区", "楼栋_源": "六泉湖社区28号楼", "社区": "六泉湖社区"}, "geometry": {"type": "Point", "coordinates": [111.45191663200006, 30.558030145000032]}}, {"type": "Feature", "properties": {"指标": "存在围护安全隐患的住宅数量（栋）", "中类": "住房", "board": "安全韧性底线", "来源": "2026补充", "原图层": "存在围护安全隐患的住宅", "街办_源": "虎牙街办", "社区_源": "六泉湖社区", "小区_源": "六泉湖社区", "楼栋_源": "32号楼3单元", "社区": "六泉湖社区"}, "geometry": {"type": "Point", "coordinates": [111.45349011900004, 30.55885510300004]}}, {"type": "Feature", "properties": {"指标": "存在围护安全隐患的住宅数量（栋）", "中类": "住房", "board": "安全韧性底线", "来源": "2026补充", "原图层": "存在围护安全隐患的住宅", "街办_源": "虎牙街办", "社区_源": "六泉湖社区", "小区_源": "六泉湖社区", "楼栋_源": "32号楼2单元", "社区": "六泉湖社区"}, "geometry": {"type": "Point", "coordinates": [111.45326453900009, 30.55866804900006]}}, {"type": "Feature", "properties": {"指标": "存在围护安全隐患的住宅数量（栋）", "中类": "住房", "board": "安全韧性底线", "来源": "2026补充", "原图层": "存在围护安全隐患的住宅", "街办_源": "虎牙街办", "社区_源": "六泉湖社区", "小区_源": "六泉湖社区", "楼栋_源": "25号楼1单元", "社区": "六泉湖社区"}, "geometry": {"type": "Point", "coordinates": [111.45082783600009, 30.558548622000046]}}, {"type": "Feature", "properties": {"指标": "存在围护安全隐患的住宅数量（栋）", "中类": "住房", "board": "安全韧性底线", "来源": "2026补充", "原图层": "存在围护安全隐患的住宅", "街办_源": "虎牙街办", "社区_源": "六泉湖社区", "小区_源": "六泉湖社区", "楼栋_源": "25号楼2单元", "社区": "六泉湖社区"}, "geometry": {"type": "Point", "coordinates": [111.45102924200006, 30.558654524000076]}}, {"type": "Feature", "properties": {"指标": "存在围护安全隐患的住宅数量（栋）", "中类": "住房", "board": "安全韧性底线", "来源": "2026补充", "原图层": "存在围护安全隐患的住宅", "街办_源": "虎牙街办", "社区_源": "六泉湖社区", "小区_源": "六泉湖社区", "楼栋_源": "六泉湖社区11号楼2单元", "社区": "六泉湖社区"}, "geometry": {"type": "Point", "coordinates": [111.44954097500005, 30.557824192000055]}}, {"type": "Feature", "properties": {"指标": "存在围护安全隐患的住宅数量（栋）", "中类": "住房", "board": "安全韧性底线", "来源": "2026补充", "原图层": "存在围护安全隐患的住宅", "街办_源": "虎牙街办", "社区_源": "六泉湖社区", "小区_源": "六泉湖社区", "楼栋_源": "六泉湖社区11号楼1单元", "社区": "六泉湖社区"}, "geometry": {"type": "Point", "coordinates": [111.44927362100009, 30.55770294100006]}}, {"type": "Feature", "properties": {"指标": "存在围护安全隐患的住宅数量（栋）", "中类": "住房", "board": "安全韧性底线", "来源": "2026补充", "原图层": "存在围护安全隐患的住宅", "街办_源": "虎牙街办", "社区_源": "六泉湖社区", "小区_源": "六泉湖社区", "楼栋_源": "16栋", "社区": "六泉湖社区"}, "geometry": {"type": "Point", "coordinates": [111.44983684600004, 30.557006131000037]}}, {"type": "Feature", "properties": {"指标": "存在围护安全隐患的住宅数量（栋）", "中类": "住房", "board": "安全韧性底线", "来源": "2026补充", "原图层": "存在围护安全隐患的住宅", "街办_源": "虎牙街办", "社区_源": "六泉湖社区", "小区_源": "六泉湖社区", "楼栋_源": "六泉湖社区29号楼", "社区": "六泉湖社区"}, "geometry": {"type": "Point", "coordinates": [111.45231766200004, 30.557895849000033]}}, {"type": "Feature", "properties": {"指标": "存在围护安全隐患的住宅数量（栋）", "中类": "住房", "board": "安全韧性底线", "来源": "2026补充", "原图层": "存在围护安全隐患的住宅", "街办_源": "虎牙街办", "社区_源": "六泉湖社区", "小区_源": "六泉湖社区", "楼栋_源": "六泉湖社区19号楼", "社区": "六泉湖社区"}, "geometry": {"type": "Point", "coordinates": [111.45052695200008, 30.557003733000045]}}, {"type": "Feature", "properties": {"指标": "存在围护安全隐患的住宅数量（栋）", "中类": "住房", "board": "安全韧性底线", "来源": "2026补充", "原图层": "存在围护安全隐患的住宅", "街办_源": "虎牙街办", "社区_源": "六泉湖社区", "小区_源": "六泉湖社区", "楼栋_源": "六泉湖社区34栋", "社区": "六泉湖社区"}, "geometry": {"type": "Point", "coordinates": [111.45346394000006, 30.559481779000066]}}, {"type": "Feature", "properties": {"指标": "存在围护安全隐患的住宅数量（栋）", "中类": "住房", "board": "安全韧性底线", "来源": "2026补充", "原图层": "存在围护安全隐患的住宅", "街办_源": "虎牙街办", "社区_源": "六泉湖社区", "小区_源": "六泉湖社区", "楼栋_源": "七里冲三期30栋", "社区": "六泉湖社区"}, "geometry": {"type": "Point", "coordinates": [111.45245412400004, 30.558543347000068]}}, {"type": "Feature", "properties": {"指标": "存在围护安全隐患的住宅数量（栋）", "中类": "住房", "board": "安全韧性底线", "来源": "2026补充", "原图层": "存在围护安全隐患的住宅", "街办_源": "古老背街办", "社区_源": "古老背社区", "小区_源": "二印小区", "楼栋_源": "二印小区2号的房屋", "社区": "古老背社区"}, "geometry": {"type": "Point", "coordinates": [111.41274420100007, 30.52907048800006]}}, {"type": "Feature", "properties": {"指标": "存在围护安全隐患的住宅数量（栋）", "中类": "住房", "board": "安全韧性底线", "来源": "2026补充", "原图层": "存在围护安全隐患的住宅", "街办_源": "小溪塔街办", "社区_源": "谭家榜社区", "小区_源": "谭家榜小区", "楼栋_源": "祥和公寓", "社区": "谭家榜社区"}, "geometry": {"type": "Point", "coordinates": [111.34642174100009, 30.79243837300004]}}, {"type": "Feature", "properties": {"指标": "存在围护安全隐患的住宅数量（栋）", "中类": "住房", "board": "安全韧性底线", "来源": "2026补充", "原图层": "存在围护安全隐患的住宅", "街办_源": "小溪塔街办", "社区_源": "谭家榜社区", "小区_源": "谭家榜杂居小区", "楼栋_源": "谭家榜杂居小区12", "社区": "谭家榜社区"}, "geometry": {"type": "Point", "coordinates": [111.34618553500007, 30.79319225900008]}}, {"type": "Feature", "properties": {"指标": "存在围护安全隐患的住宅数量（栋）", "中类": "住房", "board": "安全韧性底线", "来源": "2026补充", "原图层": "存在围护安全隐患的住宅", "街办_源": "小溪塔街办", "社区_源": "谭家榜社区", "小区_源": "谭家榜杂居小区", "楼栋_源": "谭家榜杂居小区26", "社区": "谭家榜社区"}, "geometry": {"type": "Point", "coordinates": [111.34588691700009, 30.793034300000045]}}, {"type": "Feature", "properties": {"指标": "存在围护安全隐患的住宅数量（栋）", "中类": "住房", "board": "安全韧性底线", "来源": "2026补充", "原图层": "存在围护安全隐患的住宅", "街办_源": "小溪塔街办", "社区_源": "谭家榜社区", "小区_源": "谭家榜杂居小区", "楼栋_源": "谭家榜杂居小区13", "社区": "谭家榜社区"}, "geometry": {"type": "Point", "coordinates": [111.34618684300005, 30.793257591000042]}}, {"type": "Feature", "properties": {"指标": "存在围护安全隐患的住宅数量（栋）", "中类": "住房", "board": "安全韧性底线", "来源": "2026补充", "原图层": "存在围护安全隐患的住宅", "街办_源": "小溪塔街办", "社区_源": "谭家榜社区", "小区_源": "谭家榜杂居小区", "楼栋_源": "谭家榜杂居小区10", "社区": "谭家榜社区"}, "geometry": {"type": "Point", "coordinates": [111.34618684300005, 30.793038984000077]}}, {"type": "Feature", "properties": {"指标": "存在围护安全隐患的住宅数量（栋）", "中类": "住房", "board": "安全韧性底线", "来源": "2026补充", "原图层": "存在围护安全隐患的住宅", "街办_源": "小溪塔街办", "社区_源": "长江市场社区", "小区_源": "无石山庄小区", "楼栋_源": "无石山庄107栋", "社区": "长江市场社区"}, "geometry": {"type": "Point", "coordinates": [111.29288010000005, 30.772572835000062]}}, {"type": "Feature", "properties": {"指标": "存在围护安全隐患的住宅数量（栋）", "中类": "住房", "board": "安全韧性底线", "来源": "2026补充", "原图层": "存在围护安全隐患的住宅", "街办_源": "小溪塔街办", "社区_源": "长江市场社区", "小区_源": "无石山庄小区", "楼栋_源": "无石山庄111栋", "社区": "长江市场社区"}, "geometry": {"type": "Point", "coordinates": [111.29205850400007, 30.772332391000077]}}, {"type": "Feature", "properties": {"指标": "存在围护安全隐患的住宅数量（栋）", "中类": "住房", "board": "安全韧性底线", "来源": "2026补充", "原图层": "存在围护安全隐患的住宅", "街办_源": "小溪塔街办", "社区_源": "长江市场社区", "小区_源": "无石山庄小区", "楼栋_源": "无石山庄102栋", "社区": "长江市场社区"}, "geometry": {"type": "Point", "coordinates": [111.29378238300006, 30.77249874900008]}}, {"type": "Feature", "properties": {"指标": "存在围护安全隐患的住宅数量（栋）", "中类": "住房", "board": "安全韧性底线", "来源": "2026补充", "原图层": "存在围护安全隐患的住宅", "街办_源": "小溪塔街办", "社区_源": "长江市场社区", "小区_源": "无石山庄小区", "楼栋_源": "无石山庄105栋", "社区": "长江市场社区"}, "geometry": {"type": "Point", "coordinates": [111.29329449400007, 30.77245960700003]}}, {"type": "Feature", "properties": {"指标": "存在围护安全隐患的住宅数量（栋）", "中类": "住房", "board": "安全韧性底线", "来源": "2026补充", "原图层": "存在围护安全隐患的住宅", "街办_源": "小溪塔街办", "社区_源": "长江市场社区", "小区_源": "无石山庄小区", "楼栋_源": "无石山庄109栋", "社区": "长江市场社区"}, "geometry": {"type": "Point", "coordinates": [111.29242893300005, 30.772501274000035]}}, {"type": "Feature", "properties": {"指标": "存在围护安全隐患的住宅数量（栋）", "中类": "住房", "board": "安全韧性底线", "来源": "2026补充", "原图层": "存在围护安全隐患的住宅", "街办_源": "小溪塔街办", "社区_源": "长江市场社区", "小区_源": "无石山庄小区", "楼栋_源": "无石山庄113栋", "社区": "长江市场社区"}, "geometry": {"type": "Point", "coordinates": [111.29176910800004, 30.772083339000062]}}, {"type": "Feature", "properties": {"指标": "存在围护安全隐患的住宅数量（栋）", "中类": "住房", "board": "安全韧性底线", "来源": "2026补充", "原图层": "存在围护安全隐患的住宅", "街办_源": "小溪塔街办", "社区_源": "长江市场社区", "小区_源": "无石山庄小区", "楼栋_源": "无石山庄100栋", "社区": "长江市场社区"}, "geometry": {"type": "Point", "coordinates": [111.29413452200004, 30.772623513000042]}}, {"type": "Feature", "properties": {"指标": "存在围护安全隐患的住宅数量（栋）", "中类": "住房", "board": "安全韧性底线", "来源": "2026补充", "原图层": "存在围护安全隐患的住宅", "街办_源": "小溪塔街办", "社区_源": "长江市场社区", "小区_源": "丰豪名都", "楼栋_源": "丰豪名都6栋", "社区": "长江市场社区"}, "geometry": {"type": "Point", "coordinates": [111.29498146300006, 30.77008782300004]}}, {"type": "Feature", "properties": {"指标": "存在围护安全隐患的住宅数量（栋）", "中类": "住房", "board": "安全韧性底线", "来源": "2026补充", "原图层": "存在围护安全隐患的住宅", "街办_源": "小溪塔街办", "社区_源": "长江市场社区", "小区_源": "丰豪名都", "楼栋_源": "丰豪名都5栋", "社区": "长江市场社区"}, "geometry": {"type": "Point", "coordinates": [111.29563807900007, 30.76974075000004]}}, {"type": "Feature", "properties": {"指标": "存在围护安全隐患的住宅数量（栋）", "中类": "住房", "board": "安全韧性底线", "来源": "2026补充", "原图层": "存在围护安全隐患的住宅", "街办_源": "小溪塔街办", "社区_源": "长江市场社区", "小区_源": "香山花园小区", "楼栋_源": "香山花园1号楼", "社区": "长江市场社区"}, "geometry": {"type": "Point", "coordinates": [111.29838804200006, 30.765340372000026]}}, {"type": "Feature", "properties": {"指标": "存在围护安全隐患的住宅数量（栋）", "中类": "住房", "board": "安全韧性底线", "来源": "2026补充", "原图层": "存在围护安全隐患的住宅", "街办_源": "小溪塔街办", "社区_源": "朝阳社区", "小区_源": "金凤朝阳小区", "楼栋_源": "1栋", "社区": "朝阳社区"}, "geometry": {"type": "Point", "coordinates": [111.33073564900008, 30.783874911000055]}}, {"type": "Feature", "properties": {"指标": "存在围护安全隐患的住宅数量（栋）", "中类": "住房", "board": "安全韧性底线", "来源": "2026补充", "原图层": "存在围护安全隐患的住宅", "街办_源": "小溪塔街办", "社区_源": "朝阳社区", "小区_源": "星城花园小区", "楼栋_源": "1幢", "社区": "朝阳社区"}, "geometry": {"type": "Point", "coordinates": [111.32749622100005, 30.779395429000033]}}, {"type": "Feature", "properties": {"指标": "存在围护安全隐患的住宅数量（栋）", "中类": "住房", "board": "安全韧性底线", "来源": "2026补充", "原图层": "存在围护安全隐患的住宅", "街办_源": "小溪塔街办", "社区_源": "朝阳社区", "小区_源": "宜昌楚天平湖小区", "楼栋_源": "1", "社区": "朝阳社区"}, "geometry": {"type": "Point", "coordinates": [111.32810711000008, 30.77821196000008]}}, {"type": "Feature", "properties": {"指标": "存在围护安全隐患的住宅数量（栋）", "中类": "住房", "board": "安全韧性底线", "来源": "2026补充", "原图层": "存在围护安全隐患的住宅", "街办_源": "小溪塔街办", "社区_源": "朝阳社区", "小区_源": "金凤朝阳西侧杂居小区", "楼栋_源": "1", "社区": "朝阳社区"}, "geometry": {"type": "Point", "coordinates": [111.32934331600006, 30.78337315300007]}}, {"type": "Feature", "properties": {"指标": "存在围护安全隐患的住宅数量（栋）", "中类": "住房", "board": "安全韧性底线", "来源": "2026补充", "原图层": "存在围护安全隐患的住宅", "街办_源": "小溪塔街办", "社区_源": "朝阳社区", "小区_源": "广厦街东侧杂居小区", "楼栋_源": "1", "社区": "朝阳社区"}, "geometry": {"type": "Point", "coordinates": [111.33053583800006, 30.779090860000053]}}, {"type": "Feature", "properties": {"指标": "存在围护安全隐患的住宅数量（栋）", "中类": "住房", "board": "安全韧性底线", "来源": "2026补充", "原图层": "存在围护安全隐患的住宅", "街办_源": "小溪塔街办", "社区_源": "朝阳社区", "小区_源": "广厦街东侧杂居小区", "楼栋_源": "2", "社区": "朝阳社区"}, "geometry": {"type": "Point", "coordinates": [111.33028796500008, 30.778803312000036]}}, {"type": "Feature", "properties": {"指标": "存在围护安全隐患的住宅数量（栋）", "中类": "住房", "board": "安全韧性底线", "来源": "2026补充", "原图层": "存在围护安全隐患的住宅", "街办_源": "小溪塔街办", "社区_源": "朝阳社区", "小区_源": "广厦路西侧杂居小区", "楼栋_源": "1", "社区": "朝阳社区"}, "geometry": {"type": "Point", "coordinates": [111.32669842200005, 30.778465182000048]}}, {"type": "Feature", "properties": {"指标": "存在围护安全隐患的住宅数量（栋）", "中类": "住房", "board": "安全韧性底线", "来源": "2026补充", "原图层": "存在围护安全隐患的住宅", "街办_源": "小溪塔街办", "社区_源": "港虹社区", "小区_源": "君临山水小区", "楼栋_源": "君临山水高7#楼", "社区": "港虹社区"}, "geometry": {"type": "Point", "coordinates": [111.30408074500008, 30.770317951000038]}}, {"type": "Feature", "properties": {"指标": "存在围护安全隐患的住宅数量（栋）", "中类": "住房", "board": "安全韧性底线", "来源": "2026补充", "原图层": "存在围护安全隐患的住宅", "街办_源": "小溪塔街办", "社区_源": "港虹社区", "小区_源": "君临山水小区", "楼栋_源": "君临山水高6栋1单元", "社区": "港虹社区"}, "geometry": {"type": "Point", "coordinates": [111.30375794400004, 30.770052771000053]}}, {"type": "Feature", "properties": {"指标": "存在围护安全隐患的住宅数量（栋）", "中类": "住房", "board": "安全韧性底线", "来源": "2026补充", "原图层": "存在围护安全隐患的住宅", "街办_源": "小溪塔街办", "社区_源": "峡江社区", "小区_源": "骏达梅珑镇小区", "楼栋_源": "骏达梅珑镇5栋", "社区": "峡江社区"}, "geometry": {"type": "Point", "coordinates": [111.29840143400008, 30.772560432000034]}}, {"type": "Feature", "properties": {"指标": "存在围护安全隐患的住宅数量（栋）", "中类": "住房", "board": "安全韧性底线", "来源": "2026补充", "原图层": "存在围护安全隐患的住宅", "街办_源": "小溪塔街办", "社区_源": "峡江社区", "小区_源": "湖锦花园小区", "楼栋_源": "108栋", "社区": "峡江社区"}, "geometry": {"type": "Point", "coordinates": [111.30123860200007, 30.770082785000056]}}, {"type": "Feature", "properties": {"指标": "存在围护安全隐患的住宅数量（栋）", "中类": "住房", "board": "安全韧性底线", "来源": "2026补充", "原图层": "存在围护安全隐患的住宅", "街办_源": "小溪塔街办", "社区_源": "峡江社区", "小区_源": "碧水蓝天小区", "楼栋_源": "峡洲路11号碧水蓝天1栋2-4单元", "社区": "峡江社区"}, "geometry": {"type": "Point", "coordinates": [111.30231284000007, 30.771614188000058]}}, {"type": "Feature", "properties": {"指标": "存在围护安全隐患的住宅数量（栋）", "中类": "住房", "board": "安全韧性底线", "来源": "2026补充", "原图层": "存在围护安全隐患的住宅", "街办_源": "小溪塔街办", "社区_源": "峡江社区", "小区_源": "碧水蓝天小区", "楼栋_源": "峡洲路11号碧水蓝天1栋1单元", "社区": "峡江社区"}, "geometry": {"type": "Point", "coordinates": [111.30234166100007, 30.77148152700005]}}, {"type": "Feature", "properties": {"指标": "存在围护安全隐患的住宅数量（栋）", "中类": "住房", "board": "安全韧性底线", "来源": "2026补充", "原图层": "存在围护安全隐患的住宅", "街办_源": "小溪塔街办", "社区_源": "峡江社区", "小区_源": "碧水蓝天小区", "楼栋_源": "峡洲路11号碧水蓝天2号楼", "社区": "峡江社区"}, "geometry": {"type": "Point", "coordinates": [111.30097539100007, 30.77161106500006]}}, {"type": "Feature", "properties": {"指标": "存在围护安全隐患的住宅数量（栋）", "中类": "住房", "board": "安全韧性底线", "来源": "2026补充", "原图层": "存在围护安全隐患的住宅", "街办_源": "小溪塔街办", "社区_源": "峡江社区", "小区_源": "紫荆花园小区", "楼栋_源": "峡洲路9号紫荆花园3栋", "社区": "峡江社区"}, "geometry": {"type": "Point", "coordinates": [111.30175308400004, 30.770777580000072]}}, {"type": "Feature", "properties": {"指标": "存在围护安全隐患的住宅数量（栋）", "中类": "住房", "board": "安全韧性底线", "来源": "2026补充", "原图层": "存在围护安全隐患的住宅", "街办_源": "小溪塔街办", "社区_源": "峡江社区", "小区_源": "紫荆花园小区", "楼栋_源": "峡洲路9号紫荆花园1号楼1栋", "社区": "峡江社区"}, "geometry": {"type": "Point", "coordinates": [111.30248325000008, 30.770451367000078]}}, {"type": "Feature", "properties": {"指标": "存在围护安全隐患的住宅数量（栋）", "中类": "住房", "board": "安全韧性底线", "来源": "2026补充", "原图层": "存在围护安全隐患的住宅", "街办_源": "小溪塔街办", "社区_源": "峡江社区", "小区_源": "紫荆花园小区", "楼栋_源": "峡洲路9号紫荆花园1号楼2栋", "社区": "峡江社区"}, "geometry": {"type": "Point", "coordinates": [111.30242665400004, 30.77076229200003]}}, {"type": "Feature", "properties": {"指标": "存在围护安全隐患的住宅数量（栋）", "中类": "住房", "board": "安全韧性底线", "来源": "2026补充", "原图层": "存在围护安全隐患的住宅", "街办_源": "小溪塔街办", "社区_源": "峡江社区", "小区_源": "幸福家园小区", "楼栋_源": "峡洲路7-3住宅", "社区": "峡江社区"}, "geometry": {"type": "Point", "coordinates": [111.30268179500007, 30.769819867000024]}}, {"type": "Feature", "properties": {"指标": "存在围护安全隐患的住宅数量（栋）", "中类": "住房", "board": "安全韧性底线", "来源": "2026补充", "原图层": "存在围护安全隐患的住宅", "街办_源": "小溪塔街办", "社区_源": "峡江社区", "小区_源": "幸福家园小区", "楼栋_源": "峡洲路7-1住宅", "社区": "峡江社区"}, "geometry": {"type": "Point", "coordinates": [111.30241362600009, 30.76994998500004]}}, {"type": "Feature", "properties": {"指标": "存在围护安全隐患的住宅数量（栋）", "中类": "住房", "board": "安全韧性底线", "来源": "2026补充", "原图层": "存在围护安全隐患的住宅", "街办_源": "小溪塔街办", "社区_源": "峡江社区", "小区_源": "幸福家园小区", "楼栋_源": "峡洲路7-2住宅", "社区": "峡江社区"}, "geometry": {"type": "Point", "coordinates": [111.30260607700006, 30.77019395700006]}}, {"type": "Feature", "properties": {"指标": "存在围护安全隐患的住宅数量（栋）", "中类": "住房", "board": "安全韧性底线", "来源": "2026补充", "原图层": "存在围护安全隐患的住宅", "街办_源": "小溪塔街办", "社区_源": "峡江社区", "小区_源": "泉源小区", "楼栋_源": "泉源小区20栋", "社区": "峡江社区"}, "geometry": {"type": "Point", "coordinates": [111.29769755200005, 30.771036236000043]}}, {"type": "Feature", "properties": {"指标": "存在围护安全隐患的住宅数量（栋）", "中类": "住房", "board": "安全韧性底线", "来源": "2026补充", "原图层": "存在围护安全隐患的住宅", "街办_源": "小溪塔街办", "社区_源": "峡江社区", "小区_源": "香山凤凰城小区", "楼栋_源": "香山凤凰城1栋", "社区": "峡江社区"}, "geometry": {"type": "Point", "coordinates": [111.30190737900006, 30.76794719700007]}}, {"type": "Feature", "properties": {"指标": "存在围护安全隐患的住宅数量（栋）", "中类": "住房", "board": "安全韧性底线", "来源": "2026补充", "原图层": "存在围护安全隐患的住宅", "街办_源": "小溪塔街办", "社区_源": "峡江社区", "小区_源": "湖光路北侧杂居小区", "楼栋_源": "湖光金苑（老）1栋一单元", "社区": "峡江社区"}, "geometry": {"type": "Point", "coordinates": [111.29896531800006, 30.76773004200004]}}, {"type": "Feature", "properties": {"指标": "存在围护安全隐患的住宅数量（栋）", "中类": "住房", "board": "安全韧性底线", "来源": "2026补充", "原图层": "存在围护安全隐患的住宅", "街办_源": "小溪塔街办", "社区_源": "峡江社区", "小区_源": "湖光路北侧杂居小区", "楼栋_源": "张海峰的住宅", "社区": "峡江社区"}, "geometry": {"type": "Point", "coordinates": [111.29825473600005, 30.768154284000047]}}, {"type": "Feature", "properties": {"指标": "存在围护安全隐患的住宅数量（栋）", "中类": "住房", "board": "安全韧性底线", "来源": "2026补充", "原图层": "存在围护安全隐患的住宅", "街办_源": "东城试验区", "社区_源": "润城社区", "小区_源": "至上未来城", "楼栋_源": "至上未来城9号楼", "社区": "润城社区"}, "geometry": {"type": "Point", "coordinates": [111.33784593200005, 30.75288755100007]}}, {"type": "Feature", "properties": {"指标": "存在围护安全隐患的住宅数量（栋）", "中类": "住房", "board": "安全韧性底线", "来源": "2026补充", "原图层": "存在围护安全隐患的住宅", "街办_源": "东城试验区", "社区_源": "润城社区", "小区_源": "至上未来城", "楼栋_源": "至上未来城8号楼", "社区": "润城社区"}, "geometry": {"type": "Point", "coordinates": [111.33855477000009, 30.752804037000033]}}, {"type": "Feature", "properties": {"指标": "存在围护安全隐患的住宅数量（栋）", "中类": "住房", "board": "安全韧性底线", "来源": "2026补充", "原图层": "存在围护安全隐患的住宅", "街办_源": "东城试验区", "社区_源": "润城社区", "小区_源": "至上未来城", "楼栋_源": "至上未来城2栋", "社区": "润城社区"}, "geometry": {"type": "Point", "coordinates": [111.33721712400006, 30.751438325000038]}}, {"type": "Feature", "properties": {"指标": "存在围护安全隐患的住宅数量（栋）", "中类": "住房", "board": "安全韧性底线", "来源": "2026补充", "原图层": "存在围护安全隐患的住宅", "街办_源": "东城试验区", "社区_源": "润城社区", "小区_源": "山水国际", "楼栋_源": "山水国际11栋2单元", "社区": "润城社区"}, "geometry": {"type": "Point", "coordinates": [111.34237230500008, 30.760780784000076]}}, {"type": "Feature", "properties": {"指标": "存在围护安全隐患的住宅数量（栋）", "中类": "住房", "board": "安全韧性底线", "来源": "2026补充", "原图层": "存在围护安全隐患的住宅", "街办_源": "东城试验区", "社区_源": "润城社区", "小区_源": "山水国际", "楼栋_源": "山水国际11栋1单元", "社区": "润城社区"}, "geometry": {"type": "Point", "coordinates": [111.34208447700007, 30.76074121000005]}}, {"type": "Feature", "properties": {"指标": "存在围护安全隐患的住宅数量（栋）", "中类": "住房", "board": "安全韧性底线", "来源": "2026补充", "原图层": "存在围护安全隐患的住宅", "街办_源": "东城试验区", "社区_源": "润城社区", "小区_源": "山水国际", "楼栋_源": "山水国际11栋3单元", "社区": "润城社区"}, "geometry": {"type": "Point", "coordinates": [111.34267164600004, 30.760815410000077]}}, {"type": "Feature", "properties": {"指标": "存在围护安全隐患的住宅数量（栋）", "中类": "住房", "board": "安全韧性底线", "来源": "2026补充", "原图层": "存在围护安全隐患的住宅", "街办_源": "东城试验区", "社区_源": "润城社区", "小区_源": "山水国际", "楼栋_源": "山水国际8栋1单元", "社区": "润城社区"}, "geometry": {"type": "Point", "coordinates": [111.33925512900004, 30.759848332000047]}}, {"type": "Feature", "properties": {"指标": "存在围护安全隐患的住宅数量（栋）", "中类": "住房", "board": "安全韧性底线", "来源": "2026补充", "原图层": "存在围护安全隐患的住宅", "街办_源": "东城试验区", "社区_源": "润城社区", "小区_源": "山水国际", "楼栋_源": "山水国际8栋2单元", "社区": "润城社区"}, "geometry": {"type": "Point", "coordinates": [111.33965520900006, 30.75997694600005]}}, {"type": "Feature", "properties": {"指标": "存在围护安全隐患的住宅数量（栋）", "中类": "住房", "board": "安全韧性底线", "来源": "2026补充", "原图层": "存在围护安全隐患的住宅", "街办_源": "东城试验区", "社区_源": "润城社区", "小区_源": "山水国际", "楼栋_源": "山水国际2栋", "社区": "润城社区"}, "geometry": {"type": "Point", "coordinates": [111.34303430900007, 30.760310849000064]}}, {"type": "Feature", "properties": {"指标": "存在围护安全隐患的住宅数量（栋）", "中类": "住房", "board": "安全韧性底线", "来源": "2026补充", "原图层": "存在围护安全隐患的住宅", "街办_源": "东城试验区", "社区_源": "润城社区", "小区_源": "山水国际", "楼栋_源": "山水国际3栋", "社区": "润城社区"}, "geometry": {"type": "Point", "coordinates": [111.34289327300007, 30.759647990000076]}}, {"type": "Feature", "properties": {"指标": "存在围护安全隐患的住宅数量（栋）", "中类": "住房", "board": "安全韧性底线", "来源": "2026补充", "原图层": "存在围护安全隐患的住宅", "街办_源": "东城试验区", "社区_源": "润城社区", "小区_源": "山水国际", "楼栋_源": "山水国际1栋", "社区": "润城社区"}, "geometry": {"type": "Point", "coordinates": [111.34315807500008, 30.760820357000057]}}, {"type": "Feature", "properties": {"指标": "存在围护安全隐患的住宅数量（栋）", "中类": "住房", "board": "安全韧性底线", "来源": "2026补充", "原图层": "存在围护安全隐患的住宅", "街办_源": "东城试验区", "社区_源": "润城社区", "小区_源": "山水国际", "楼栋_源": "山水国际7栋1单元", "社区": "润城社区"}, "geometry": {"type": "Point", "coordinates": [111.34034024000005, 30.759732084000063]}}, {"type": "Feature", "properties": {"指标": "存在围护安全隐患的住宅数量（栋）", "中类": "住房", "board": "安全韧性底线", "来源": "2026补充", "原图层": "存在围护安全隐患的住宅", "街办_源": "东城试验区", "社区_源": "润城社区", "小区_源": "山水国际", "楼栋_源": "山水国际7栋2单元", "社区": "润城社区"}, "geometry": {"type": "Point", "coordinates": [111.34059928500005, 30.75951195400006]}}, {"type": "Feature", "properties": {"指标": "存在围护安全隐患的住宅数量（栋）", "中类": "住房", "board": "安全韧性底线", "来源": "2026补充", "原图层": "存在围护安全隐患的住宅", "街办_源": "东城试验区", "社区_源": "润城社区", "小区_源": "山水国际", "楼栋_源": "山水国际4栋", "社区": "润城社区"}, "geometry": {"type": "Point", "coordinates": [111.34272057600003, 30.759103848000052]}}, {"type": "Feature", "properties": {"指标": "存在围护安全隐患的住宅数量（栋）", "中类": "住房", "board": "安全韧性底线", "来源": "2026补充", "原图层": "存在围护安全隐患的住宅", "街办_源": "东城试验区", "社区_源": "润城社区", "小区_源": "山水国际", "楼栋_源": "山水国际6栋1单元", "社区": "润城社区"}, "geometry": {"type": "Point", "coordinates": [111.34115939800006, 30.76047666200003]}}, {"type": "Feature", "properties": {"指标": "存在围护安全隐患的住宅数量（栋）", "中类": "住房", "board": "安全韧性底线", "来源": "2026补充", "原图层": "存在围护安全隐患的住宅", "街办_源": "东城试验区", "社区_源": "润城社区", "小区_源": "山水国际", "楼栋_源": "山水国际6栋2单元", "社区": "润城社区"}, "geometry": {"type": "Point", "coordinates": [111.34163944900007, 30.76059728200005]}}, {"type": "Feature", "properties": {"指标": "存在围护安全隐患的住宅数量（栋）", "中类": "住房", "board": "安全韧性底线", "来源": "2026补充", "原图层": "存在围护安全隐患的住宅", "街办_源": "东城试验区", "社区_源": "润城社区", "小区_源": "山水国际", "楼栋_源": "山水国际12栋", "社区": "润城社区"}, "geometry": {"type": "Point", "coordinates": [111.34132748900004, 30.75898759900008]}}, {"type": "Feature", "properties": {"指标": "存在围护安全隐患的住宅数量（栋）", "中类": "住房", "board": "安全韧性底线", "来源": "2026补充", "原图层": "存在围护安全隐患的住宅", "街办_源": "东城试验区", "社区_源": "润城社区", "小区_源": "梅岭一号", "楼栋_源": "梅岭一号6栋", "社区": "润城社区"}, "geometry": {"type": "Point", "coordinates": [111.33901258300006, 30.757371404000025]}}, {"type": "Feature", "properties": {"指标": "存在围护安全隐患的住宅数量（栋）", "中类": "住房", "board": "安全韧性底线", "来源": "2026补充", "原图层": "存在围护安全隐患的住宅", "街办_源": "东城试验区", "社区_源": "润城社区", "小区_源": "梅岭一号", "楼栋_源": "梅岭一号5栋", "社区": "润城社区"}, "geometry": {"type": "Point", "coordinates": [111.33957141100007, 30.75712190200005]}}, {"type": "Feature", "properties": {"指标": "存在围护安全隐患的住宅数量（栋）", "中类": "住房", "board": "安全韧性底线", "来源": "2026补充", "原图层": "存在围护安全隐患的住宅", "街办_源": "东城试验区", "社区_源": "黄金卡社区", "小区_源": "汇锦苑小区", "楼栋_源": "5号楼", "社区": "黄金卡社区"}, "geometry": {"type": "Point", "coordinates": [111.33863383300007, 30.787583391000055]}}, {"type": "Feature", "properties": {"指标": "存在围护安全隐患的住宅数量（栋）", "中类": "住房", "board": "安全韧性底线", "来源": "2026补充", "原图层": "存在围护安全隐患的住宅", "街办_源": "东城试验区", "社区_源": "绿洲社区", "小区_源": "恒大绿洲", "楼栋_源": "恒大绿洲14号楼", "社区": "绿洲社区"}, "geometry": {"type": "Point", "coordinates": [111.34095666000007, 30.769959766000056]}}, {"type": "Feature", "properties": {"指标": "存在围护安全隐患的住宅数量（栋）", "中类": "住房", "board": "安全韧性底线", "来源": "2026补充", "原图层": "存在围护安全隐患的住宅", "街办_源": "东城试验区", "社区_源": "绿洲社区", "小区_源": "恒大绿洲", "楼栋_源": "恒大绿洲22号楼", "社区": "绿洲社区"}, "geometry": {"type": "Point", "coordinates": [111.34139393900006, 30.76885816500004]}}, {"type": "Feature", "properties": {"指标": "存在围护安全隐患的住宅数量（栋）", "中类": "住房", "board": "安全韧性底线", "来源": "2026补充", "原图层": "存在围护安全隐患的住宅", "街办_源": "东城试验区", "社区_源": "绿洲社区", "小区_源": "恒大绿洲", "楼栋_源": "恒大绿洲30号楼", "社区": "绿洲社区"}, "geometry": {"type": "Point", "coordinates": [111.34090629300005, 30.766464107000047]}}, {"type": "Feature", "properties": {"指标": "存在围护安全隐患的住宅数量（栋）", "中类": "住房", "board": "安全韧性底线", "来源": "2026补充", "原图层": "存在围护安全隐患的住宅", "街办_源": "东城试验区", "社区_源": "绿洲社区", "小区_源": "恒大绿洲", "楼栋_源": "恒大绿洲48、49号楼", "社区": "绿洲社区"}, "geometry": {"type": "Point", "coordinates": [111.33740376800006, 30.765251195000076]}}, {"type": "Feature", "properties": {"指标": "存在围护安全隐患的住宅数量（栋）", "中类": "住房", "board": "安全韧性底线", "来源": "2026补充", "原图层": "存在围护安全隐患的住宅", "街办_源": "东城试验区", "社区_源": "绿洲社区", "小区_源": "恒大绿洲", "楼栋_源": "恒大绿洲32号楼", "社区": "绿洲社区"}, "geometry": {"type": "Point", "coordinates": [111.34139594200008, 30.766772712000034]}}, {"type": "Feature", "properties": {"指标": "存在围护安全隐患的住宅数量（栋）", "中类": "住房", "board": "安全韧性底线", "来源": "2026补充", "原图层": "存在围护安全隐患的住宅", "街办_源": "东城试验区", "社区_源": "绿洲社区", "小区_源": "恒大绿洲", "楼栋_源": "恒大绿洲12、13号楼13 12 11栋", "社区": "绿洲社区"}, "geometry": {"type": "Point", "coordinates": [111.33988277900005, 30.76976956900006]}}, {"type": "Feature", "properties": {"指标": "存在围护安全隐患的住宅数量（栋）", "中类": "住房", "board": "安全韧性底线", "来源": "2026补充", "原图层": "存在围护安全隐患的住宅", "街办_源": "东城试验区", "社区_源": "绿洲社区", "小区_源": "恒大绿洲", "楼栋_源": "恒大绿洲12、13号楼12栋", "社区": "绿洲社区"}, "geometry": {"type": "Point", "coordinates": [111.33961448800005, 30.76967735900007]}}, {"type": "Feature", "properties": {"指标": "存在围护安全隐患的住宅数量（栋）", "中类": "住房", "board": "安全韧性底线", "来源": "2026补充", "原图层": "存在围护安全隐患的住宅", "街办_源": "东城试验区", "社区_源": "绿洲社区", "小区_源": "恒大绿洲", "楼栋_源": "恒大绿洲50、51号楼", "社区": "绿洲社区"}, "geometry": {"type": "Point", "coordinates": [111.33806197600006, 30.765782960000024]}}, {"type": "Feature", "properties": {"指标": "存在围护安全隐患的住宅数量（栋）", "中类": "住房", "board": "安全韧性底线", "来源": "2026补充", "原图层": "存在围护安全隐患的住宅", "街办_源": "东城试验区", "社区_源": "绿洲社区", "小区_源": "恒大绿洲", "楼栋_源": "恒大绿洲9、10、11号楼", "社区": "绿洲社区"}, "geometry": {"type": "Point", "coordinates": [111.33888931500007, 30.769444376000024]}}, {"type": "Feature", "properties": {"指标": "存在围护安全隐患的住宅数量（栋）", "中类": "住房", "board": "安全韧性底线", "来源": "2026补充", "原图层": "存在围护安全隐患的住宅", "街办_源": "东城试验区", "社区_源": "绿洲社区", "小区_源": "晨光花园", "楼栋_源": "晨光花园住宅楼", "社区": "绿洲社区"}, "geometry": {"type": "Point", "coordinates": [111.34145580200004, 30.773162540000044]}}, {"type": "Feature", "properties": {"指标": "存在围护安全隐患的住宅数量（栋）", "中类": "住房", "board": "安全韧性底线", "来源": "2026补充", "原图层": "存在围护安全隐患的住宅", "街办_源": "小溪塔街办", "社区_源": "望江社区", "小区_源": "望江花园", "楼栋_源": "望江花园1号楼", "社区": "望江社区"}, "geometry": {"type": "Point", "coordinates": [111.29337735700005, 30.763244272000065]}}, {"type": "Feature", "properties": {"指标": "存在围护安全隐患的住宅数量（栋）", "中类": "住房", "board": "安全韧性底线", "来源": "2026补充", "原图层": "存在围护安全隐患的住宅", "街办_源": "小溪塔街办", "社区_源": "丁家坝社区", "小区_源": "丁家坝花园", "楼栋_源": "1号楼", "社区": "丁家坝社区"}, "geometry": {"type": "Point", "coordinates": [111.31382468000004, 30.776354542000036]}}, {"type": "Feature", "properties": {"指标": "存在围护安全隐患的住宅数量（栋）", "中类": "住房", "board": "安全韧性底线", "来源": "2026补充", "原图层": "存在围护安全隐患的住宅", "街办_源": "小溪塔街办", "社区_源": "丁家坝社区", "小区_源": "丁家坝花园", "楼栋_源": "3号楼", "社区": "丁家坝社区"}, "geometry": {"type": "Point", "coordinates": [111.31292548900007, 30.776315425000064]}}, {"type": "Feature", "properties": {"指标": "存在围护安全隐患的住宅数量（栋）", "中类": "住房", "board": "安全韧性底线", "来源": "2026补充", "原图层": "存在围护安全隐患的住宅", "街办_源": "小溪塔街办", "社区_源": "丁家坝社区", "小区_源": "家旺朗月半岛", "楼栋_源": "1号楼", "社区": "丁家坝社区"}, "geometry": {"type": "Point", "coordinates": [111.30621391100004, 30.774486551000052]}}, {"type": "Feature", "properties": {"指标": "存在围护安全隐患的住宅数量（栋）", "中类": "住房", "board": "安全韧性底线", "来源": "2026补充", "原图层": "存在围护安全隐患的住宅", "街办_源": "小溪塔街办", "社区_源": "丁家坝社区", "小区_源": "家旺朗月半岛", "楼栋_源": "6号楼", "社区": "丁家坝社区"}, "geometry": {"type": "Point", "coordinates": [111.30562214800005, 30.775518460000058]}}, {"type": "Feature", "properties": {"指标": "存在围护安全隐患的住宅数量（栋）", "中类": "住房", "board": "安全韧性底线", "来源": "2026补充", "原图层": "存在围护安全隐患的住宅", "街办_源": "小溪塔街办", "社区_源": "营盘社区", "小区_源": "林业农业杂居小区", "楼栋_源": "夷陵区水利电力局李昌柱", "社区": "营盘社区"}, "geometry": {"type": "Point", "coordinates": [111.32373278300008, 30.772451644000057]}}, {"type": "Feature", "properties": {"指标": "存在围护安全隐患的住宅数量（栋）", "中类": "住房", "board": "安全韧性底线", "来源": "2026补充", "原图层": "存在围护安全隐患的住宅", "街办_源": "小溪塔街办", "社区_源": "营盘社区", "小区_源": "柏林馨苑", "楼栋_源": "17", "社区": "营盘社区"}, "geometry": {"type": "Point", "coordinates": [111.32555870800007, 30.772412356000075]}}, {"type": "Feature", "properties": {"指标": "存在围护安全隐患的住宅数量（栋）", "中类": "住房", "board": "安全韧性底线", "来源": "2026补充", "原图层": "存在围护安全隐患的住宅", "街办_源": "小溪塔街办", "社区_源": "营盘社区", "小区_源": "黄金杂居小区", "楼栋_源": "29", "社区": "营盘社区"}, "geometry": {"type": "Point", "coordinates": [111.33297013600009, 30.779570799000055]}}, {"type": "Feature", "properties": {"指标": "存在围护安全隐患的住宅数量（栋）", "中类": "住房", "board": "安全韧性底线", "来源": "2026补充", "原图层": "存在围护安全隐患的住宅", "街办_源": "点军街办", "社区_源": "梅子溪社区", "小区_源": "五龙源著", "楼栋_源": "五龙源著B区", "社区": "梅子溪社区"}, "geometry": {"type": "Point", "coordinates": [111.26697256300008, 30.66083948200003]}}]}