{"type": "FeatureCollection", "features": [{"type": "Feature", "properties": {"指标": "未达标配建养老服务设施的小区数量（个）", "中类": "公服设施", "board": "民生基础需求", "来源": "2026补充", "原图层": "未达标配建养老服务设施的社区数量", "社区": "五龙社区"}, "geometry": {"type": "Point", "coordinates": [111.26927797300004, 30.677887224000074]}}, {"type": "Feature", "properties": {"指标": "未达标配建养老服务设施的小区数量（个）", "中类": "公服设施", "board": "民生基础需求", "来源": "2026补充", "原图层": "未达标配建养老服务设施的社区数量", "社区": "下马槽社区"}, "geometry": {"type": "Point", "coordinates": [111.45223473400006, 30.495463593000068]}}, {"type": "Feature", "properties": {"指标": "未达标配建养老服务设施的小区数量（个）", "中类": "公服设施", "board": "民生基础需求", "来源": "2026补充", "原图层": "未达标配建养老服务设施的社区数量", "社区": "云池社区"}, "geometry": {"type": "Point", "coordinates": [111.45662845300006, 30.487571970000033]}}, {"type": "Feature", "properties": {"指标": "未达标配建养老服务设施的小区数量（个）", "中类": "公服设施", "board": "民生基础需求", "来源": "2026补充", "原图层": "未达标配建养老服务设施的社区数量", "社区": "云池社区"}, "geometry": {"type": "Point", "coordinates": [111.45285688900009, 30.48100978800005]}}, {"type": "Feature", "properties": {"指标": "未达标配建养老服务设施的小区数量（个）", "中类": "公服设施", "board": "民生基础需求", "来源": "2026补充", "原图层": "未达标配建养老服务设施的社区数量", "社区": "云池社区"}, "geometry": {"type": "Point", "coordinates": [111.45451647300007, 30.476589928000067]}}, {"type": "Feature", "properties": {"指标": "未达标配建养老服务设施的小区数量（个）", "中类": "公服设施", "board": "民生基础需求", "来源": "2026补充", "原图层": "未达标配建养老服务设施的社区数量", "社区": "云池社区"}, "geometry": {"type": "Point", "coordinates": [111.46252688500005, 30.48963553200008]}}, {"type": "Feature", "properties": {"指标": "未达标配建养老服务设施的小区数量（个）", "中类": "公服设施", "board": "民生基础需求", "来源": "2026补充", "原图层": "未达标配建养老服务设施的社区数量", "社区": "云池社区"}, "geometry": {"type": "Point", "coordinates": [111.46045338700009, 30.48593414000004]}}, {"type": "Feature", "properties": {"指标": "未达标配建养老服务设施的小区数量（个）", "中类": "公服设施", "board": "民生基础需求", "来源": "2026补充", "原图层": "未达标配建养老服务设施的社区数量", "社区": "云池社区"}, "geometry": {"type": "Point", "coordinates": [111.45275090800004, 30.48062062300005]}}, {"type": "Feature", "properties": {"指标": "未达标配建养老服务设施的小区数量（个）", "中类": "公服设施", "board": "民生基础需求", "来源": "2026补充", "原图层": "未达标配建养老服务设施的社区数量", "社区": "云池社区"}, "geometry": {"type": "Point", "coordinates": [111.45561408300006, 30.482549522000056]}}, {"type": "Feature", "properties": {"指标": "未达标配建养老服务设施的小区数量（个）", "中类": "公服设施", "board": "民生基础需求", "来源": "2026补充", "原图层": "未达标配建养老服务设施的社区数量", "社区": "云池社区"}, "geometry": {"type": "Point", "coordinates": [111.45275920400007, 30.484454764000077]}}, {"type": "Feature", "properties": {"指标": "未达标配建婴幼儿照护服务设施的小区数量（个）", "中类": "公服设施", "board": "民生基础需求", "来源": "2026补充", "原图层": "未达标配建婴幼儿照护服务设施的社区数量", "社区": "下马槽社区"}, "geometry": {"type": "Point", "coordinates": [111.45261818300008, 30.495606417000033]}}, {"type": "Feature", "properties": {"指标": "未达标配建婴幼儿照护服务设施的小区数量（个）", "中类": "公服设施", "board": "民生基础需求", "来源": "2026补充", "原图层": "未达标配建婴幼儿照护服务设施的社区数量", "社区": "云池社区"}, "geometry": {"type": "Point", "coordinates": [111.45565683900008, 30.48242055700007]}}, {"type": "Feature", "properties": {"指标": "未达标配建婴幼儿照护服务设施的小区数量（个）", "中类": "公服设施", "board": "民生基础需求", "来源": "2026补充", "原图层": "未达标配建婴幼儿照护服务设施的社区数量", "社区": "云池社区"}, "geometry": {"type": "Point", "coordinates": [111.45598832900004, 30.48479843100006]}}, {"type": "Feature", "properties": {"指标": "未达标配建婴幼儿照护服务设施的小区数量（个）", "中类": "公服设施", "board": "民生基础需求", "来源": "2026补充", "原图层": "未达标配建婴幼儿照护服务设施的社区数量", "社区": "云池社区"}, "geometry": {"type": "Point", "coordinates": [111.45650268100007, 30.48758745300006]}}, {"type": "Feature", "properties": {"指标": "未达标配建婴幼儿照护服务设施的小区数量（个）", "中类": "公服设施", "board": "民生基础需求", "来源": "2026补充", "原图层": "未达标配建婴幼儿照护服务设施的社区数量", "社区": "云池社区"}, "geometry": {"type": "Point", "coordinates": [111.46261988100008, 30.489589740000042]}}, {"type": "Feature", "properties": {"指标": "未达标配建婴幼儿照护服务设施的小区数量（个）", "中类": "公服设施", "board": "民生基础需求", "来源": "2026补充", "原图层": "未达标配建婴幼儿照护服务设施的社区数量", "社区": "云池社区"}, "geometry": {"type": "Point", "coordinates": [111.45452692400005, 30.476499862000026]}}, {"type": "Feature", "properties": {"指标": "未达标配建婴幼儿照护服务设施的小区数量（个）", "中类": "公服设施", "board": "民生基础需求", "来源": "2026补充", "原图层": "未达标配建婴幼儿照护服务设施的社区数量", "社区": "云池社区"}, "geometry": {"type": "Point", "coordinates": [111.46030167900005, 30.48594382400006]}}, {"type": "Feature", "properties": {"指标": "未达标配建婴幼儿照护服务设施的小区数量（个）", "中类": "公服设施", "board": "民生基础需求", "来源": "2026补充", "原图层": "未达标配建婴幼儿照护服务设施的社区数量", "社区": "云池社区"}, "geometry": {"type": "Point", "coordinates": [111.45271019200004, 30.484152065000046]}}, {"type": "Feature", "properties": {"指标": "未达标配建婴幼儿照护服务设施的小区数量（个）", "中类": "公服设施", "board": "民生基础需求", "来源": "2026补充", "原图层": "未达标配建婴幼儿照护服务设施的社区数量", "社区": "云池社区"}, "geometry": {"type": "Point", "coordinates": [111.45290296800005, 30.48099390400006]}}, {"type": "Feature", "properties": {"指标": "未达标配建公共活动场地的小区数量（个）", "中类": "公服设施", "board": "民生基础需求", "来源": "2026补充", "原图层": "未达标配建公共活动场地的社区数量", "社区": "蔡家畈社区"}, "geometry": {"type": "Point", "coordinates": [111.42897072800008, 30.537732645000062]}}, {"type": "Feature", "properties": {"指标": "未达标配建公共活动场地的小区数量（个）", "中类": "公服设施", "board": "民生基础需求", "来源": "2026补充", "原图层": "未达标配建公共活动场地的社区数量", "社区": "蔡家畈社区"}, "geometry": {"type": "Point", "coordinates": [111.42918586800005, 30.539573681000036]}}, {"type": "Feature", "properties": {"指标": "未达标配建公共活动场地的小区数量（个）", "中类": "公服设施", "board": "民生基础需求", "来源": "2026补充", "原图层": "未达标配建公共活动场地的社区数量"}, "geometry": {"type": "Point", "coordinates": [111.32138040800004, 30.770382676000054]}}, {"type": "Feature", "properties": {"指标": "未达标配建公共活动场地的小区数量（个）", "中类": "公服设施", "board": "民生基础需求", "来源": "2026补充", "原图层": "未达标配建公共活动场地的社区数量", "社区": "古老背社区"}, "geometry": {"type": "Point", "coordinates": [111.41255554800006, 30.529236136000065]}}, {"type": "Feature", "properties": {"指标": "未达标配建公共活动场地的小区数量（个）", "中类": "公服设施", "board": "民生基础需求", "来源": "2026补充", "原图层": "未达标配建公共活动场地的社区数量", "社区": "红光社区"}, "geometry": {"type": "Point", "coordinates": [111.28224767500006, 30.67759122500007]}}, {"type": "Feature", "properties": {"指标": "未达标配建公共活动场地的小区数量（个）", "中类": "公服设施", "board": "民生基础需求", "来源": "2026补充", "原图层": "未达标配建公共活动场地的社区数量", "社区": "红光社区"}, "geometry": {"type": "Point", "coordinates": [111.28360653100009, 30.677417220000052]}}, {"type": "Feature", "properties": {"指标": "未达标配建公共活动场地的小区数量（个）", "中类": "公服设施", "board": "民生基础需求", "来源": "2026补充", "原图层": "未达标配建公共活动场地的社区数量", "社区": "虎牙社区"}, "geometry": {"type": "Point", "coordinates": [111.39833034800006, 30.567691255000057]}}, {"type": "Feature", "properties": {"指标": "未达标配建公共活动场地的小区数量（个）", "中类": "公服设施", "board": "民生基础需求", "来源": "2026补充", "原图层": "未达标配建公共活动场地的社区数量", "社区": "梅子溪社区"}, "geometry": {"type": "Point", "coordinates": [111.26813890100004, 30.67317196500005]}}, {"type": "Feature", "properties": {"指标": "未达标配建公共活动场地的小区数量（个）", "中类": "公服设施", "board": "民生基础需求", "来源": "2026补充", "原图层": "未达标配建公共活动场地的社区数量", "社区": "梅子溪社区"}, "geometry": {"type": "Point", "coordinates": [111.27165318400006, 30.673030506000032]}}, {"type": "Feature", "properties": {"指标": "未达标配建公共活动场地的小区数量（个）", "中类": "公服设施", "board": "民生基础需求", "来源": "2026补充", "原图层": "未达标配建公共活动场地的社区数量", "社区": "磨盘社区"}, "geometry": {"type": "Point", "coordinates": [111.41392952900009, 30.589726281000026]}}, {"type": "Feature", "properties": {"指标": "未达标配建公共活动场地的小区数量（个）", "中类": "公服设施", "board": "民生基础需求", "来源": "2026补充", "原图层": "未达标配建公共活动场地的社区数量", "社区": "平云社区"}, "geometry": {"type": "Point", "coordinates": [111.33562424300004, 30.78001211800006]}}, {"type": "Feature", "properties": {"指标": "未达标配建公共活动场地的小区数量（个）", "中类": "公服设施", "board": "民生基础需求", "来源": "2026补充", "原图层": "未达标配建公共活动场地的社区数量", "社区": "润城社区"}, "geometry": {"type": "Point", "coordinates": [111.34039945800004, 30.75768515900006]}}, {"type": "Feature", "properties": {"指标": "未达标配建公共活动场地的小区数量（个）", "中类": "公服设施", "board": "民生基础需求", "来源": "2026补充", "原图层": "未达标配建公共活动场地的社区数量", "社区": "润城社区"}, "geometry": {"type": "Point", "coordinates": [111.34191802400005, 30.759740204000025]}}, {"type": "Feature", "properties": {"指标": "未达标配建公共活动场地的小区数量（个）", "中类": "公服设施", "board": "民生基础需求", "来源": "2026补充", "原图层": "未达标配建公共活动场地的社区数量", "社区": "谭家河社区"}, "geometry": {"type": "Point", "coordinates": [111.28861970100007, 30.654317182000057]}}, {"type": "Feature", "properties": {"指标": "未达标配建公共活动场地的小区数量（个）", "中类": "公服设施", "board": "民生基础需求", "来源": "2026补充", "原图层": "未达标配建公共活动场地的社区数量", "社区": "五龙社区"}, "geometry": {"type": "Point", "coordinates": [111.26988157800008, 30.677544966000028]}}, {"type": "Feature", "properties": {"指标": "未达标配建公共活动场地的小区数量（个）", "中类": "公服设施", "board": "民生基础需求", "来源": "2026补充", "原图层": "未达标配建公共活动场地的社区数量", "社区": "五龙社区"}, "geometry": {"type": "Point", "coordinates": [111.27519986300007, 30.680037121000055]}}, {"type": "Feature", "properties": {"指标": "未达标配建公共活动场地的小区数量（个）", "中类": "公服设施", "board": "民生基础需求", "来源": "2026补充", "原图层": "未达标配建公共活动场地的社区数量", "社区": "五龙社区"}, "geometry": {"type": "Point", "coordinates": [111.25621896300004, 30.67650063600007]}}, {"type": "Feature", "properties": {"指标": "未达标配建公共活动场地的小区数量（个）", "中类": "公服设施", "board": "民生基础需求", "来源": "2026补充", "原图层": "未达标配建公共活动场地的社区数量", "社区": "五龙社区"}, "geometry": {"type": "Point", "coordinates": [111.26270014600004, 30.675740517000065]}}, {"type": "Feature", "properties": {"指标": "未达标配建公共活动场地的小区数量（个）", "中类": "公服设施", "board": "民生基础需求", "来源": "2026补充", "原图层": "未达标配建公共活动场地的社区数量", "社区": "五龙社区"}, "geometry": {"type": "Point", "coordinates": [111.26772287300008, 30.675210406000076]}}, {"type": "Feature", "properties": {"指标": "未达标配建公共活动场地的小区数量（个）", "中类": "公服设施", "board": "民生基础需求", "来源": "2026补充", "原图层": "未达标配建公共活动场地的社区数量", "社区": "峡江社区"}, "geometry": {"type": "Point", "coordinates": [111.29967655200005, 30.77277308500004]}}, {"type": "Feature", "properties": {"指标": "未达标配建公共活动场地的小区数量（个）", "中类": "公服设施", "board": "民生基础需求", "来源": "2026补充", "原图层": "未达标配建公共活动场地的社区数量", "社区": "峡江社区"}, "geometry": {"type": "Point", "coordinates": [111.30183542700007, 30.770895130000042]}}, {"type": "Feature", "properties": {"指标": "未达标配建公共活动场地的小区数量（个）", "中类": "公服设施", "board": "民生基础需求", "来源": "2026补充", "原图层": "未达标配建公共活动场地的社区数量", "社区": "峡江社区"}, "geometry": {"type": "Point", "coordinates": [111.30200161300007, 30.771882769000058]}}, {"type": "Feature", "properties": {"指标": "未达标配建公共活动场地的小区数量（个）", "中类": "公服设施", "board": "民生基础需求", "来源": "2026补充", "原图层": "未达标配建公共活动场地的社区数量", "社区": "峡江社区"}, "geometry": {"type": "Point", "coordinates": [111.30245301100007, 30.770646890000023]}}, {"type": "Feature", "properties": {"指标": "未达标配建公共活动场地的小区数量（个）", "中类": "公服设施", "board": "民生基础需求", "来源": "2026补充", "原图层": "未达标配建公共活动场地的社区数量", "社区": "峡江社区"}, "geometry": {"type": "Point", "coordinates": [111.29599786600005, 30.77474851000005]}}, {"type": "Feature", "properties": {"指标": "未达标配建公共活动场地的小区数量（个）", "中类": "公服设施", "board": "民生基础需求", "来源": "2026补充", "原图层": "未达标配建公共活动场地的社区数量", "社区": "峡江社区"}, "geometry": {"type": "Point", "coordinates": [111.30208364000003, 30.771466305000047]}}, {"type": "Feature", "properties": {"指标": "未达标配建公共活动场地的小区数量（个）", "中类": "公服设施", "board": "民生基础需求", "来源": "2026补充", "原图层": "未达标配建公共活动场地的社区数量", "社区": "峡江社区"}, "geometry": {"type": "Point", "coordinates": [111.30233966300005, 30.771568820000027]}}, {"type": "Feature", "properties": {"指标": "未达标配建公共活动场地的小区数量（个）", "中类": "公服设施", "board": "民生基础需求", "来源": "2026补充", "原图层": "未达标配建公共活动场地的社区数量", "社区": "峡江社区"}, "geometry": {"type": "Point", "coordinates": [111.29741810300004, 30.769844523000074]}}, {"type": "Feature", "properties": {"指标": "未达标配建公共活动场地的小区数量（个）", "中类": "公服设施", "board": "民生基础需求", "来源": "2026补充", "原图层": "未达标配建公共活动场地的社区数量", "社区": "峡江社区"}, "geometry": {"type": "Point", "coordinates": [111.30125591500007, 30.77140864100005]}}, {"type": "Feature", "properties": {"指标": "未达标配建公共活动场地的小区数量（个）", "中类": "公服设施", "board": "民生基础需求", "来源": "2026补充", "原图层": "未达标配建公共活动场地的社区数量", "社区": "峡江社区"}, "geometry": {"type": "Point", "coordinates": [111.30115875600006, 30.76846663200007]}}, {"type": "Feature", "properties": {"指标": "未达标配建公共活动场地的小区数量（个）", "中类": "公服设施", "board": "民生基础需求", "来源": "2026补充", "原图层": "未达标配建公共活动场地的社区数量", "社区": "营盘社区"}, "geometry": {"type": "Point", "coordinates": [111.33193225400004, 30.77564134200003]}}, {"type": "Feature", "properties": {"指标": "未达标配建公共活动场地的小区数量（个）", "中类": "公服设施", "board": "民生基础需求", "来源": "2026补充", "原图层": "未达标配建公共活动场地的社区数量", "社区": "长江市场社区"}, "geometry": {"type": "Point", "coordinates": [111.29657351300006, 30.766177300000038]}}, {"type": "Feature", "properties": {"指标": "未达标配建公共活动场地的小区数量（个）", "中类": "公服设施", "board": "民生基础需求", "来源": "2026补充", "原图层": "未达标配建公共活动场地的社区数量", "社区": "长江市场社区"}, "geometry": {"type": "Point", "coordinates": [111.29876424800005, 30.76586713000006]}}, {"type": "Feature", "properties": {"指标": "未达标配建公共活动场地的小区数量（个）", "中类": "公服设施", "board": "民生基础需求", "来源": "2026补充", "原图层": "未达标配建公共活动场地的社区数量", "社区": "至喜社区"}, "geometry": {"type": "Point", "coordinates": [111.25947701800004, 30.738448023000046]}}, {"type": "Feature", "properties": {"指标": "未达标配建公共活动场地的小区数量（个）", "中类": "公服设施", "board": "民生基础需求", "来源": "2026补充", "原图层": "未达标配建公共活动场地的社区数量", "社区": "至喜社区"}, "geometry": {"type": "Point", "coordinates": [111.25848389800007, 30.740594878000024]}}, {"type": "Feature", "properties": {"指标": "未达标配建公共活动场地的小区数量（个）", "中类": "公服设施", "board": "民生基础需求", "来源": "2026补充", "原图层": "未达标配建公共活动场地的社区数量", "社区": "至喜社区"}, "geometry": {"type": "Point", "coordinates": [111.25546876000004, 30.737616569000068]}}]}