{"type": "FeatureCollection", "features": [{"type": "Feature", "properties": {"指标": "需要进行适老化改造的住宅数量（栋）", "中类": "住房", "board": "民生基础需求", "来源": "2026补充", "原图层": "需要进行适老化改造住宅", "街办_源": "点军街办", "社区_源": "红光社区", "小区_源": "红光小区", "楼栋_源": "红光小区居民楼四号楼", "社区": "红光社区"}, "geometry": {"type": "Point", "coordinates": [111.28286329000008, 30.67739042100004]}}, {"type": "Feature", "properties": {"指标": "需要进行适老化改造的住宅数量（栋）", "中类": "住房", "board": "民生基础需求", "来源": "2026补充", "原图层": "需要进行适老化改造住宅", "街办_源": "点军街办", "社区_源": "红光社区", "小区_源": "红光小区", "楼栋_源": "红光小区2栋", "社区": "红光社区"}, "geometry": {"type": "Point", "coordinates": [111.28320312600005, 30.676813765000077]}}, {"type": "Feature", "properties": {"指标": "需要进行适老化改造的住宅数量（栋）", "中类": "住房", "board": "民生基础需求", "来源": "2026补充", "原图层": "需要进行适老化改造住宅", "街办_源": "点军街办", "社区_源": "红光社区", "小区_源": "红光小区", "楼栋_源": "红光小区一号居民楼", "社区": "红光社区"}, "geometry": {"type": "Point", "coordinates": [111.28357663900005, 30.676771634000033]}}, {"type": "Feature", "properties": {"指标": "需要进行适老化改造的住宅数量（栋）", "中类": "住房", "board": "民生基础需求", "来源": "2026补充", "原图层": "需要进行适老化改造住宅", "街办_源": "点军街办", "社区_源": "红光社区", "小区_源": "红光小区", "楼栋_源": "红光小区7栋", "社区": "红光社区"}, "geometry": {"type": "Point", "coordinates": [111.28362868600004, 30.677435185000036]}}, {"type": "Feature", "properties": {"指标": "需要进行适老化改造的住宅数量（栋）", "中类": "住房", "board": "民生基础需求", "来源": "2026补充", "原图层": "需要进行适老化改造住宅", "街办_源": "点军街办", "社区_源": "红光社区", "小区_源": "红光小区", "楼栋_源": "红光小区居民楼六号楼", "社区": "红光社区"}, "geometry": {"type": "Point", "coordinates": [111.28223872600006, 30.677598438000075]}}, {"type": "Feature", "properties": {"指标": "需要进行适老化改造的住宅数量（栋）", "中类": "住房", "board": "民生基础需求", "来源": "2026补充", "原图层": "需要进行适老化改造住宅", "街办_源": "点军街办", "社区_源": "红光社区", "小区_源": "红光小区", "楼栋_源": "红光小区居民楼三号楼", "社区": "红光社区"}, "geometry": {"type": "Point", "coordinates": [111.28305004600008, 30.67711657600006]}}, {"type": "Feature", "properties": {"指标": "需要进行适老化改造的住宅数量（栋）", "中类": "住房", "board": "民生基础需求", "来源": "2026补充", "原图层": "需要进行适老化改造住宅", "街办_源": "点军街办", "社区_源": "红光社区", "小区_源": "红光小区", "楼栋_源": "红光小区5栋", "社区": "红光社区"}, "geometry": {"type": "Point", "coordinates": [111.28251733100007, 30.67742465200007]}}, {"type": "Feature", "properties": {"指标": "需要进行适老化改造的住宅数量（栋）", "中类": "住房", "board": "民生基础需求", "来源": "2026补充", "原图层": "需要进行适老化改造住宅", "街办_源": "点军街办", "社区_源": "五龙社区", "小区_源": "杨家湾小区", "楼栋_源": "杨家湾小区5栋", "社区": "五龙社区"}, "geometry": {"type": "Point", "coordinates": [111.26794132400005, 30.67538859000007]}}, {"type": "Feature", "properties": {"指标": "需要进行适老化改造的住宅数量（栋）", "中类": "住房", "board": "民生基础需求", "来源": "2026补充", "原图层": "需要进行适老化改造住宅", "街办_源": "点军街办", "社区_源": "五龙社区", "小区_源": "杨家湾小区", "楼栋_源": "杨家湾小区7栋", "社区": "五龙社区"}, "geometry": {"type": "Point", "coordinates": [111.26785981500007, 30.675952755000026]}}, {"type": "Feature", "properties": {"指标": "需要进行适老化改造的住宅数量（栋）", "中类": "住房", "board": "民生基础需求", "来源": "2026补充", "原图层": "需要进行适老化改造住宅", "街办_源": "点军街办", "社区_源": "五龙社区", "小区_源": "杨家湾小区", "楼栋_源": "杨家湾小区6栋", "社区": "五龙社区"}, "geometry": {"type": "Point", "coordinates": [111.26753766100006, 30.675448679000056]}}, {"type": "Feature", "properties": {"指标": "需要进行适老化改造的住宅数量（栋）", "中类": "住房", "board": "民生基础需求", "来源": "2026补充", "原图层": "需要进行适老化改造住宅", "街办_源": "点军街办", "社区_源": "五龙社区", "小区_源": "杨家湾小区", "楼栋_源": "杨家湾小区2号楼", "社区": "五龙社区"}, "geometry": {"type": "Point", "coordinates": [111.26749496600007, 30.674370414000066]}}, {"type": "Feature", "properties": {"指标": "需要进行适老化改造的住宅数量（栋）", "中类": "住房", "board": "民生基础需求", "来源": "2026补充", "原图层": "需要进行适老化改造住宅", "街办_源": "点军街办", "社区_源": "五龙社区", "小区_源": "杨家湾小区", "楼栋_源": "杨家湾小区4栋", "社区": "五龙社区"}, "geometry": {"type": "Point", "coordinates": [111.26769291600004, 30.67494793800006]}}, {"type": "Feature", "properties": {"指标": "需要进行适老化改造的住宅数量（栋）", "中类": "住房", "board": "民生基础需求", "来源": "2026补充", "原图层": "需要进行适老化改造住宅", "街办_源": "点军街办", "社区_源": "五龙社区", "小区_源": "杨家湾小区", "楼栋_源": "杨家湾小区3栋", "社区": "五龙社区"}, "geometry": {"type": "Point", "coordinates": [111.26758035600005, 30.67466752200005]}}, {"type": "Feature", "properties": {"指标": "需要进行适老化改造的住宅数量（栋）", "中类": "住房", "board": "民生基础需求", "来源": "2026补充", "原图层": "需要进行适老化改造住宅", "街办_源": "点军街办", "社区_源": "五龙社区", "小区_源": "西边冲小区", "楼栋_源": "西边冲小区9栋", "社区": "五龙社区"}, "geometry": {"type": "Point", "coordinates": [111.27343893200003, 30.67773576700006]}}, {"type": "Feature", "properties": {"指标": "需要进行适老化改造的住宅数量（栋）", "中类": "住房", "board": "民生基础需求", "来源": "2026补充", "原图层": "需要进行适老化改造住宅", "街办_源": "虎牙街办", "社区_源": "虎牙社区", "小区_源": "猇亭大道18号院", "楼栋_源": "锦绣江东经济适用房5号楼", "社区": "虎牙社区"}, "geometry": {"type": "Point", "coordinates": [111.39856534000006, 30.568377592000047]}}, {"type": "Feature", "properties": {"指标": "需要进行适老化改造的住宅数量（栋）", "中类": "住房", "board": "民生基础需求", "来源": "2026补充", "原图层": "需要进行适老化改造住宅", "街办_源": "虎牙街办", "社区_源": "虎牙社区", "小区_源": "猇亭大道18号院", "楼栋_源": "锦绣江东经济适用房6号楼", "社区": "虎牙社区"}, "geometry": {"type": "Point", "coordinates": [111.39890271300004, 30.568472142000076]}}, {"type": "Feature", "properties": {"指标": "需要进行适老化改造的住宅数量（栋）", "中类": "住房", "board": "民生基础需求", "来源": "2026补充", "原图层": "需要进行适老化改造住宅", "街办_源": "小溪塔街办", "社区_源": "朝阳社区", "小区_源": "广厦路西侧杂居小区", "楼栋_源": "1", "社区": "朝阳社区"}, "geometry": {"type": "Point", "coordinates": [111.32671064700008, 30.778453685000045]}}, {"type": "Feature", "properties": {"指标": "需要进行适老化改造的住宅数量（栋）", "中类": "住房", "board": "民生基础需求", "来源": "2026补充", "原图层": "需要进行适老化改造住宅", "街办_源": "小溪塔街办", "社区_源": "峡江社区", "小区_源": "湖锦花园小区", "楼栋_源": "108栋", "社区": "峡江社区"}, "geometry": {"type": "Point", "coordinates": [111.30123301300006, 30.770085618000053]}}, {"type": "Feature", "properties": {"指标": "需要进行适老化改造的住宅数量（栋）", "中类": "住房", "board": "民生基础需求", "来源": "2026补充", "原图层": "需要进行适老化改造住宅", "街办_源": "小溪塔街办", "社区_源": "峡江社区", "小区_源": "碧水蓝天小区", "楼栋_源": "峡洲路11号碧水蓝天1栋", "社区": "峡江社区"}, "geometry": {"type": "Point", "coordinates": [111.30233400500003, 30.77154266200006]}}, {"type": "Feature", "properties": {"指标": "需要进行适老化改造的住宅数量（栋）", "中类": "住房", "board": "民生基础需求", "来源": "2026补充", "原图层": "需要进行适老化改造住宅", "街办_源": "小溪塔街办", "社区_源": "峡江社区", "小区_源": "紫荆花园小区", "楼栋_源": "峡洲路9号紫荆花园1号楼", "社区": "峡江社区"}, "geometry": {"type": "Point", "coordinates": [111.30246052600006, 30.77062101300004]}}, {"type": "Feature", "properties": {"指标": "需要进行适老化改造的住宅数量（栋）", "中类": "住房", "board": "民生基础需求", "来源": "2026补充", "原图层": "需要进行适老化改造住宅", "街办_源": "小溪塔街办", "社区_源": "峡江社区", "小区_源": "幸福家园小区", "楼栋_源": "峡洲路7-3住宅", "社区": "峡江社区"}, "geometry": {"type": "Point", "coordinates": [111.30267901900004, 30.769821060000027]}}, {"type": "Feature", "properties": {"指标": "需要进行适老化改造的住宅数量（栋）", "中类": "住房", "board": "民生基础需求", "来源": "2026补充", "原图层": "需要进行适老化改造住宅", "街办_源": "小溪塔街办", "社区_源": "峡江社区", "小区_源": "幸福家园小区", "楼栋_源": "峡洲路7-1住宅", "社区": "峡江社区"}, "geometry": {"type": "Point", "coordinates": [111.30241652900008, 30.769916480000063]}}, {"type": "Feature", "properties": {"指标": "需要进行适老化改造的住宅数量（栋）", "中类": "住房", "board": "民生基础需求", "来源": "2026补充", "原图层": "需要进行适老化改造住宅", "街办_源": "小溪塔街办", "社区_源": "峡江社区", "小区_源": "幸福家园小区", "楼栋_源": "峡洲路7-2住宅", "社区": "峡江社区"}, "geometry": {"type": "Point", "coordinates": [111.30260229100008, 30.770201005000047]}}, {"type": "Feature", "properties": {"指标": "需要进行适老化改造的住宅数量（栋）", "中类": "住房", "board": "民生基础需求", "来源": "2026补充", "原图层": "需要进行适老化改造住宅", "街办_源": "小溪塔街办", "社区_源": "峡江社区", "小区_源": "香山凤凰城小区", "楼栋_源": "香山凤凰城1栋", "社区": "峡江社区"}, "geometry": {"type": "Point", "coordinates": [111.30191915700004, 30.767946344000052]}}, {"type": "Feature", "properties": {"指标": "需要进行适老化改造的住宅数量（栋）", "中类": "住房", "board": "民生基础需求", "来源": "2026补充", "原图层": "需要进行适老化改造住宅", "街办_源": "小溪塔街办", "社区_源": "东湖社区", "小区_源": "客运宿舍小区", "楼栋_源": "客运站宿舍"}, "geometry": {"type": "Point", "coordinates": [111.32052073000006, 30.769676504000074]}}, {"type": "Feature", "properties": {"指标": "需要进行适老化改造的住宅数量（栋）", "中类": "住房", "board": "民生基础需求", "来源": "2026补充", "原图层": "需要进行适老化改造住宅", "街办_源": "小溪塔街办", "社区_源": "营盘社区", "小区_源": "民政小区", "楼栋_源": "2", "社区": "营盘社区"}, "geometry": {"type": "Point", "coordinates": [111.32826922100008, 30.775917803000027]}}, {"type": "Feature", "properties": {"指标": "需要进行适老化改造的住宅数量（栋）", "中类": "住房", "board": "民生基础需求", "来源": "2026补充", "原图层": "需要进行适老化改造住宅", "街办_源": "小溪塔街办", "社区_源": "营盘社区", "小区_源": "申昌小区", "楼栋_源": "1", "社区": "营盘社区"}, "geometry": {"type": "Point", "coordinates": [111.32800478500008, 30.775251258000026]}}]}