{"type": "FeatureCollection", "features": [{"type": "Feature", "properties": {"指标": "存在楼道安全隐患的住宅数量（栋）", "中类": "安全消防", "board": "安全韧性底线", "来源": "2026补充", "原图层": "存在楼道安全隐患的住宅", "街办_源": "点军街办", "社区_源": "五龙社区", "小区_源": "建投樾山", "楼栋_源": "6栋", "社区": "五龙社区"}, "geometry": {"type": "Point", "coordinates": [111.25528722100006, 30.67569438000004]}}, {"type": "Feature", "properties": {"指标": "存在楼道安全隐患的住宅数量（栋）", "中类": "安全消防", "board": "安全韧性底线", "来源": "2026补充", "原图层": "存在楼道安全隐患的住宅", "街办_源": "点军街办", "社区_源": "五龙社区", "小区_源": "建投樾山", "楼栋_源": "9栋", "社区": "五龙社区"}, "geometry": {"type": "Point", "coordinates": [111.25561015800008, 30.67633975700005]}}, {"type": "Feature", "properties": {"指标": "存在楼道安全隐患的住宅数量（栋）", "中类": "安全消防", "board": "安全韧性底线", "来源": "2026补充", "原图层": "存在楼道安全隐患的住宅", "街办_源": "点军街办", "社区_源": "五龙社区", "小区_源": "建投樾山", "楼栋_源": "3栋", "社区": "五龙社区"}, "geometry": {"type": "Point", "coordinates": [111.25708977100004, 30.67541170100003]}}, {"type": "Feature", "properties": {"指标": "存在楼道安全隐患的住宅数量（栋）", "中类": "安全消防", "board": "安全韧性底线", "来源": "2026补充", "原图层": "存在楼道安全隐患的住宅", "街办_源": "点军街办", "社区_源": "五龙社区", "小区_源": "建投樾山", "楼栋_源": "4栋", "社区": "五龙社区"}, "geometry": {"type": "Point", "coordinates": [111.25726437700007, 30.675888721000035]}}, {"type": "Feature", "properties": {"指标": "存在楼道安全隐患的住宅数量（栋）", "中类": "安全消防", "board": "安全韧性底线", "来源": "2026补充", "原图层": "存在楼道安全隐患的住宅", "街办_源": "点军街办", "社区_源": "五龙社区", "小区_源": "建投樾山", "楼栋_源": "5栋", "社区": "五龙社区"}, "geometry": {"type": "Point", "coordinates": [111.25628863800006, 30.67585338600003]}}, {"type": "Feature", "properties": {"指标": "存在楼道安全隐患的住宅数量（栋）", "中类": "安全消防", "board": "安全韧性底线", "来源": "2026补充", "原图层": "存在楼道安全隐患的住宅", "街办_源": "点军街办", "社区_源": "五龙社区", "小区_源": "建投樾山", "楼栋_源": "7栋", "社区": "五龙社区"}, "geometry": {"type": "Point", "coordinates": [111.25785495500008, 30.67640990800004]}}, {"type": "Feature", "properties": {"指标": "存在楼道安全隐患的住宅数量（栋）", "中类": "安全消防", "board": "安全韧性底线", "来源": "2026补充", "原图层": "存在楼道安全隐患的住宅", "街办_源": "点军街办", "社区_源": "五龙社区", "小区_源": "建投樾山", "楼栋_源": "8栋", "社区": "五龙社区"}, "geometry": {"type": "Point", "coordinates": [111.25676623600003, 30.676440826000032]}}, {"type": "Feature", "properties": {"指标": "存在楼道安全隐患的住宅数量（栋）", "中类": "安全消防", "board": "安全韧性底线", "来源": "2026补充", "原图层": "存在楼道安全隐患的住宅", "街办_源": "点军街办", "社区_源": "五龙社区", "小区_源": "阳光花苑小区", "楼栋_源": "阳光花苑9栋", "社区": "五龙社区"}, "geometry": {"type": "Point", "coordinates": [111.26330960000007, 30.677056394000033]}}, {"type": "Feature", "properties": {"指标": "存在楼道安全隐患的住宅数量（栋）", "中类": "安全消防", "board": "安全韧性底线", "来源": "2026补充", "原图层": "存在楼道安全隐患的住宅", "街办_源": "点军街办", "社区_源": "五龙社区", "小区_源": "阳光花苑小区", "楼栋_源": "阳光花苑3栋", "社区": "五龙社区"}, "geometry": {"type": "Point", "coordinates": [111.26545935500008, 30.67570071800003]}}, {"type": "Feature", "properties": {"指标": "存在楼道安全隐患的住宅数量（栋）", "中类": "安全消防", "board": "安全韧性底线", "来源": "2026补充", "原图层": "存在楼道安全隐患的住宅", "街办_源": "点军街办", "社区_源": "五龙社区", "小区_源": "阳光花苑小区", "楼栋_源": "阳光花苑1栋", "社区": "五龙社区"}, "geometry": {"type": "Point", "coordinates": [111.26546766100006, 30.674560665000058]}}, {"type": "Feature", "properties": {"指标": "存在楼道安全隐患的住宅数量（栋）", "中类": "安全消防", "board": "安全韧性底线", "来源": "2026补充", "原图层": "存在楼道安全隐患的住宅", "街办_源": "点军街办", "社区_源": "五龙社区", "小区_源": "阳光花苑小区", "楼栋_源": "阳光花苑10栋", "社区": "五龙社区"}, "geometry": {"type": "Point", "coordinates": [111.26211171100005, 30.677022428000043]}}, {"type": "Feature", "properties": {"指标": "存在楼道安全隐患的住宅数量（栋）", "中类": "安全消防", "board": "安全韧性底线", "来源": "2026补充", "原图层": "存在楼道安全隐患的住宅", "街办_源": "点军街办", "社区_源": "五龙社区", "小区_源": "阳光花苑小区", "楼栋_源": "阳光花苑15栋", "社区": "五龙社区"}, "geometry": {"type": "Point", "coordinates": [111.26339333300007, 30.67858600200003]}}, {"type": "Feature", "properties": {"指标": "存在楼道安全隐患的住宅数量（栋）", "中类": "安全消防", "board": "安全韧性底线", "来源": "2026补充", "原图层": "存在楼道安全隐患的住宅", "街办_源": "点军街办", "社区_源": "五龙社区", "小区_源": "阳光花苑小区", "楼栋_源": "阳光花苑4栋", "社区": "五龙社区"}, "geometry": {"type": "Point", "coordinates": [111.26543918100003, 30.676205929000048]}}, {"type": "Feature", "properties": {"指标": "存在楼道安全隐患的住宅数量（栋）", "中类": "安全消防", "board": "安全韧性底线", "来源": "2026补充", "原图层": "存在楼道安全隐患的住宅", "街办_源": "点军街办", "社区_源": "五龙社区", "小区_源": "阳光花苑小区", "楼栋_源": "阳光花苑5栋", "社区": "五龙社区"}, "geometry": {"type": "Point", "coordinates": [111.26562905100008, 30.67672032400003]}}, {"type": "Feature", "properties": {"指标": "存在楼道安全隐患的住宅数量（栋）", "中类": "安全消防", "board": "安全韧性底线", "来源": "2026补充", "原图层": "存在楼道安全隐患的住宅", "街办_源": "点军街办", "社区_源": "五龙社区", "小区_源": "阳光花苑小区", "楼栋_源": "阳光花苑11栋", "社区": "五龙社区"}, "geometry": {"type": "Point", "coordinates": [111.26184589300004, 30.677602137000065]}}, {"type": "Feature", "properties": {"指标": "存在楼道安全隐患的住宅数量（栋）", "中类": "安全消防", "board": "安全韧性底线", "来源": "2026补充", "原图层": "存在楼道安全隐患的住宅", "街办_源": "点军街办", "社区_源": "五龙社区", "小区_源": "阳光花苑小区", "楼栋_源": "阳光花苑6栋", "社区": "五龙社区"}, "geometry": {"type": "Point", "coordinates": [111.26479926000007, 30.674820418000024]}}, {"type": "Feature", "properties": {"指标": "存在楼道安全隐患的住宅数量（栋）", "中类": "安全消防", "board": "安全韧性底线", "来源": "2026补充", "原图层": "存在楼道安全隐患的住宅", "街办_源": "点军街办", "社区_源": "五龙社区", "小区_源": "阳光花苑小区", "楼栋_源": "阳光花苑8栋", "社区": "五龙社区"}, "geometry": {"type": "Point", "coordinates": [111.26219164600008, 30.67637968100007]}}, {"type": "Feature", "properties": {"指标": "存在楼道安全隐患的住宅数量（栋）", "中类": "安全消防", "board": "安全韧性底线", "来源": "2026补充", "原图层": "存在楼道安全隐患的住宅", "街办_源": "点军街办", "社区_源": "五龙社区", "小区_源": "阳光花苑小区", "楼栋_源": "阳光花苑13栋", "社区": "五龙社区"}, "geometry": {"type": "Point", "coordinates": [111.26226455600005, 30.678300070000034]}}, {"type": "Feature", "properties": {"指标": "存在楼道安全隐患的住宅数量（栋）", "中类": "安全消防", "board": "安全韧性底线", "来源": "2026补充", "原图层": "存在楼道安全隐患的住宅", "街办_源": "点军街办", "社区_源": "五龙社区", "小区_源": "阳光花苑小区", "楼栋_源": "阳光花苑2栋", "社区": "五龙社区"}, "geometry": {"type": "Point", "coordinates": [111.26518493300006, 30.675203158000045]}}, {"type": "Feature", "properties": {"指标": "存在楼道安全隐患的住宅数量（栋）", "中类": "安全消防", "board": "安全韧性底线", "来源": "2026补充", "原图层": "存在楼道安全隐患的住宅", "街办_源": "点军街办", "社区_源": "五龙社区", "小区_源": "阳光花苑小区", "楼栋_源": "阳光花苑7栋", "社区": "五龙社区"}, "geometry": {"type": "Point", "coordinates": [111.26331263800006, 30.675990373000047]}}, {"type": "Feature", "properties": {"指标": "存在楼道安全隐患的住宅数量（栋）", "中类": "安全消防", "board": "安全韧性底线", "来源": "2026补充", "原图层": "存在楼道安全隐患的住宅", "街办_源": "点军街办", "社区_源": "五龙社区", "小区_源": "阳光花苑小区", "楼栋_源": "阳光花苑14栋", "社区": "五龙社区"}, "geometry": {"type": "Point", "coordinates": [111.26272255800006, 30.678539310000076]}}, {"type": "Feature", "properties": {"指标": "存在楼道安全隐患的住宅数量（栋）", "中类": "安全消防", "board": "安全韧性底线", "来源": "2026补充", "原图层": "存在楼道安全隐患的住宅", "街办_源": "点军街办", "社区_源": "五龙社区", "小区_源": "阳光花苑小区", "楼栋_源": "阳光花苑12栋", "社区": "五龙社区"}, "geometry": {"type": "Point", "coordinates": [111.26175095800005, 30.678169341000057]}}, {"type": "Feature", "properties": {"指标": "存在楼道安全隐患的住宅数量（栋）", "中类": "安全消防", "board": "安全韧性底线", "来源": "2026补充", "原图层": "存在楼道安全隐患的住宅", "街办_源": "点军街办", "社区_源": "梅子溪社区", "小区_源": "江南时代", "楼栋_源": "江南时代1栋", "社区": "梅子溪社区"}, "geometry": {"type": "Point", "coordinates": [111.26380553000007, 30.673664502000065]}}, {"type": "Feature", "properties": {"指标": "存在楼道安全隐患的住宅数量（栋）", "中类": "安全消防", "board": "安全韧性底线", "来源": "2026补充", "原图层": "存在楼道安全隐患的住宅", "街办_源": "点军街办", "社区_源": "五龙社区", "小区_源": "杨家湾小区", "楼栋_源": "杨家湾1栋", "社区": "五龙社区"}, "geometry": {"type": "Point", "coordinates": [111.26740132300006, 30.674009862000048]}}, {"type": "Feature", "properties": {"指标": "存在楼道安全隐患的住宅数量（栋）", "中类": "安全消防", "board": "安全韧性底线", "来源": "2026补充", "原图层": "存在楼道安全隐患的住宅", "街办_源": "点军街办", "社区_源": "五龙社区", "小区_源": "江南星城", "楼栋_源": "江南星城7栋", "社区": "五龙社区"}, "geometry": {"type": "Point", "coordinates": [111.26962374600004, 30.67726611300003]}}, {"type": "Feature", "properties": {"指标": "存在楼道安全隐患的住宅数量（栋）", "中类": "安全消防", "board": "安全韧性底线", "来源": "2026补充", "原图层": "存在楼道安全隐患的住宅", "街办_源": "点军街办", "社区_源": "五龙社区", "小区_源": "江南星城", "楼栋_源": "江南星城15栋", "社区": "五龙社区"}, "geometry": {"type": "Point", "coordinates": [111.26840395600004, 30.679032404000054]}}, {"type": "Feature", "properties": {"指标": "存在楼道安全隐患的住宅数量（栋）", "中类": "安全消防", "board": "安全韧性底线", "来源": "2026补充", "原图层": "存在楼道安全隐患的住宅", "街办_源": "点军街办", "社区_源": "五龙社区", "小区_源": "江南星城", "楼栋_源": "江南星城19栋", "社区": "五龙社区"}, "geometry": {"type": "Point", "coordinates": [111.26745198700007, 30.67979655000005]}}, {"type": "Feature", "properties": {"指标": "存在楼道安全隐患的住宅数量（栋）", "中类": "安全消防", "board": "安全韧性底线", "来源": "2026补充", "原图层": "存在楼道安全隐患的住宅", "街办_源": "点军街办", "社区_源": "五龙社区", "小区_源": "江南星城", "楼栋_源": "江南星城1栋", "社区": "五龙社区"}, "geometry": {"type": "Point", "coordinates": [111.27227010200005, 30.67638998600006]}}, {"type": "Feature", "properties": {"指标": "存在楼道安全隐患的住宅数量（栋）", "中类": "安全消防", "board": "安全韧性底线", "来源": "2026补充", "原图层": "存在楼道安全隐患的住宅", "街办_源": "点军街办", "社区_源": "五龙社区", "小区_源": "江南星城", "楼栋_源": "江南星城3栋", "社区": "五龙社区"}, "geometry": {"type": "Point", "coordinates": [111.27153790600005, 30.67679987100007]}}, {"type": "Feature", "properties": {"指标": "存在楼道安全隐患的住宅数量（栋）", "中类": "安全消防", "board": "安全韧性底线", "来源": "2026补充", "原图层": "存在楼道安全隐患的住宅", "街办_源": "点军街办", "社区_源": "梅子溪社区", "小区_源": "宜昌碧桂园", "楼栋_源": "宜昌碧桂园柏林小区73栋", "社区": "梅子溪社区"}, "geometry": {"type": "Point", "coordinates": [111.26526880400007, 30.664377586000057]}}, {"type": "Feature", "properties": {"指标": "存在楼道安全隐患的住宅数量（栋）", "中类": "安全消防", "board": "安全韧性底线", "来源": "2026补充", "原图层": "存在楼道安全隐患的住宅", "街办_源": "点军街办", "社区_源": "谭家河社区", "小区_源": "谭家河社区", "楼栋_源": "1", "社区": "谭家河社区"}, "geometry": {"type": "Point", "coordinates": [111.30140522700009, 30.66749262700006]}}, {"type": "Feature", "properties": {"指标": "存在楼道安全隐患的住宅数量（栋）", "中类": "安全消防", "board": "安全韧性底线", "来源": "2026补充", "原图层": "存在楼道安全隐患的住宅", "街办_源": "虎牙街办", "社区_源": "虎牙社区", "小区_源": "猇亭大道18号院", "楼栋_源": "锦绣江东经济适用房", "社区": "虎牙社区"}, "geometry": {"type": "Point", "coordinates": [111.39871951600009, 30.568409674000065]}}, {"type": "Feature", "properties": {"指标": "存在楼道安全隐患的住宅数量（栋）", "中类": "安全消防", "board": "安全韧性底线", "来源": "2026补充", "原图层": "存在楼道安全隐患的住宅", "街办_源": "虎牙街办", "社区_源": "鸡山社区", "小区_源": "鸡山三村", "楼栋_源": "鸡山新村15号楼", "社区": "鸡山社区"}, "geometry": {"type": "Point", "coordinates": [111.44504862500008, 30.551985801000058]}}, {"type": "Feature", "properties": {"指标": "存在楼道安全隐患的住宅数量（栋）", "中类": "安全消防", "board": "安全韧性底线", "来源": "2026补充", "原图层": "存在楼道安全隐患的住宅", "街办_源": "虎牙街办", "社区_源": "六泉湖社区", "小区_源": "六泉湖社区", "楼栋_源": "六泉湖社区1号楼2单元", "社区": "六泉湖社区"}, "geometry": {"type": "Point", "coordinates": [111.44981761600008, 30.55584893500003]}}, {"type": "Feature", "properties": {"指标": "存在楼道安全隐患的住宅数量（栋）", "中类": "安全消防", "board": "安全韧性底线", "来源": "2026补充", "原图层": "存在楼道安全隐患的住宅", "街办_源": "虎牙街办", "社区_源": "六泉湖社区", "小区_源": "六泉湖社区", "楼栋_源": "六泉湖社区21号楼1单元", "社区": "六泉湖社区"}, "geometry": {"type": "Point", "coordinates": [111.45115465200007, 30.55709934400005]}}, {"type": "Feature", "properties": {"指标": "存在楼道安全隐患的住宅数量（栋）", "中类": "安全消防", "board": "安全韧性底线", "来源": "2026补充", "原图层": "存在楼道安全隐患的住宅", "街办_源": "虎牙街办", "社区_源": "六泉湖社区", "小区_源": "六泉湖社区", "楼栋_源": "六泉湖社区6号楼2单元", "社区": "六泉湖社区"}, "geometry": {"type": "Point", "coordinates": [111.44971481900006, 30.556332844000053]}}, {"type": "Feature", "properties": {"指标": "存在楼道安全隐患的住宅数量（栋）", "中类": "安全消防", "board": "安全韧性底线", "来源": "2026补充", "原图层": "存在楼道安全隐患的住宅", "街办_源": "虎牙街办", "社区_源": "六泉湖社区", "小区_源": "六泉湖社区", "楼栋_源": "六泉湖社区9栋的房屋2单元", "社区": "六泉湖社区"}, "geometry": {"type": "Point", "coordinates": [111.44911356300008, 30.557139567000036]}}, {"type": "Feature", "properties": {"指标": "存在楼道安全隐患的住宅数量（栋）", "中类": "安全消防", "board": "安全韧性底线", "来源": "2026补充", "原图层": "存在楼道安全隐患的住宅", "街办_源": "虎牙街办", "社区_源": "六泉湖社区", "小区_源": "六泉湖社区", "楼栋_源": "六泉湖社区7号楼2单元", "社区": "六泉湖社区"}, "geometry": {"type": "Point", "coordinates": [111.44950171500005, 30.55660685600003]}}, {"type": "Feature", "properties": {"指标": "存在楼道安全隐患的住宅数量（栋）", "中类": "安全消防", "board": "安全韧性底线", "来源": "2026补充", "原图层": "存在楼道安全隐患的住宅", "街办_源": "虎牙街办", "社区_源": "六泉湖社区", "小区_源": "六泉湖社区", "楼栋_源": "六泉湖社区8号楼2单元", "社区": "六泉湖社区"}, "geometry": {"type": "Point", "coordinates": [111.44927988500007, 30.556855862000077]}}, {"type": "Feature", "properties": {"指标": "存在楼道安全隐患的住宅数量（栋）", "中类": "安全消防", "board": "安全韧性底线", "来源": "2026补充", "原图层": "存在楼道安全隐患的住宅", "街办_源": "虎牙街办", "社区_源": "六泉湖社区", "小区_源": "六泉湖社区", "楼栋_源": "22号楼2单元", "社区": "六泉湖社区"}, "geometry": {"type": "Point", "coordinates": [111.45188955400005, 30.557689364000055]}}, {"type": "Feature", "properties": {"指标": "存在楼道安全隐患的住宅数量（栋）", "中类": "安全消防", "board": "安全韧性底线", "来源": "2026补充", "原图层": "存在楼道安全隐患的住宅", "街办_源": "古老背街办", "社区_源": "七里新村社区", "小区_源": "七里新村(七里冲路)", "楼栋_源": "1号楼2单元", "社区": "七里新村社区"}, "geometry": {"type": "Point", "coordinates": [111.43532133100007, 30.54409769500006]}}, {"type": "Feature", "properties": {"指标": "存在楼道安全隐患的住宅数量（栋）", "中类": "安全消防", "board": "安全韧性底线", "来源": "2026补充", "原图层": "存在楼道安全隐患的住宅", "街办_源": "古老背街办", "社区_源": "七里新村社区", "小区_源": "七里新村(七里冲路)", "楼栋_源": "第4栋1单元", "社区": "七里新村社区"}, "geometry": {"type": "Point", "coordinates": [111.43759818300003, 30.54592507700005]}}, {"type": "Feature", "properties": {"指标": "存在楼道安全隐患的住宅数量（栋）", "中类": "安全消防", "board": "安全韧性底线", "来源": "2026补充", "原图层": "存在楼道安全隐患的住宅", "街办_源": "古老背街办", "社区_源": "双桥社区", "小区_源": "建宜小区", "楼栋_源": "6号15栋", "社区": "双桥社区"}, "geometry": {"type": "Point", "coordinates": [111.42291278200008, 30.533548402000065]}}, {"type": "Feature", "properties": {"指标": "存在楼道安全隐患的住宅数量（栋）", "中类": "安全消防", "board": "安全韧性底线", "来源": "2026补充", "原图层": "存在楼道安全隐患的住宅", "街办_源": "古老背街办", "社区_源": "双桥社区", "小区_源": "云天金城", "楼栋_源": "云天金城", "社区": "双桥社区"}, "geometry": {"type": "Point", "coordinates": [111.42112291600006, 30.534546086000034]}}, {"type": "Feature", "properties": {"指标": "存在楼道安全隐患的住宅数量（栋）", "中类": "安全消防", "board": "安全韧性底线", "来源": "2026补充", "原图层": "存在楼道安全隐患的住宅", "街办_源": "古老背街办", "社区_源": "双桥社区", "小区_源": "商业广场民房", "楼栋_源": "商业三街16号", "社区": "双桥社区"}, "geometry": {"type": "Point", "coordinates": [111.42185393700004, 30.532717797000032]}}, {"type": "Feature", "properties": {"指标": "存在楼道安全隐患的住宅数量（栋）", "中类": "安全消防", "board": "安全韧性底线", "来源": "2026补充", "原图层": "存在楼道安全隐患的住宅", "街办_源": "古老背街办", "社区_源": "双桥社区", "小区_源": "商业广场民房", "楼栋_源": "碳素楼", "社区": "双桥社区"}, "geometry": {"type": "Point", "coordinates": [111.42174405100008, 30.53397086600006]}}, {"type": "Feature", "properties": {"指标": "存在楼道安全隐患的住宅数量（栋）", "中类": "安全消防", "board": "安全韧性底线", "来源": "2026补充", "原图层": "存在楼道安全隐患的住宅", "街办_源": "古老背街办", "社区_源": "古老背社区", "小区_源": "金猇路43号", "楼栋_源": "金猇路43号的房屋", "社区": "古老背社区"}, "geometry": {"type": "Point", "coordinates": [111.41729020800005, 30.53435138900005]}}, {"type": "Feature", "properties": {"指标": "存在楼道安全隐患的住宅数量（栋）", "中类": "安全消防", "board": "安全韧性底线", "来源": "2026补充", "原图层": "存在楼道安全隐患的住宅", "街办_源": "古老背街办", "社区_源": "古老背社区", "小区_源": "二印小区", "楼栋_源": "二印小区", "社区": "古老背社区"}, "geometry": {"type": "Point", "coordinates": [111.41304411000004, 30.529088957000056]}}, {"type": "Feature", "properties": {"指标": "存在楼道安全隐患的住宅数量（栋）", "中类": "安全消防", "board": "安全韧性底线", "来源": "2026补充", "原图层": "存在楼道安全隐患的住宅", "街办_源": "古老背街办", "社区_源": "桐岭社区", "小区_源": "盛世桃源", "楼栋_源": "盛世桃园第1栋房屋", "社区": "桐岭社区"}, "geometry": {"type": "Point", "coordinates": [111.42588741400004, 30.529738156000064]}}, {"type": "Feature", "properties": {"指标": "存在楼道安全隐患的住宅数量（栋）", "中类": "安全消防", "board": "安全韧性底线", "来源": "2026补充", "原图层": "存在楼道安全隐患的住宅", "街办_源": "古老背街办", "社区_源": "桐岭社区", "小区_源": "桐岭五组", "楼栋_源": "桐岭路71号古老背街办老宿舍楼", "社区": "桐岭社区"}, "geometry": {"type": "Point", "coordinates": [111.42056614800003, 30.528963172000033]}}, {"type": "Feature", "properties": {"指标": "存在楼道安全隐患的住宅数量（栋）", "中类": "安全消防", "board": "安全韧性底线", "来源": "2026补充", "原图层": "存在楼道安全隐患的住宅", "街办_源": "古老背街办", "社区_源": "桐岭新村社区", "小区_源": "桐岭新村", "楼栋_源": "二期18栋的房屋24栋", "社区": "桐岭新村社区"}, "geometry": {"type": "Point", "coordinates": [111.42664642600005, 30.524694509000028]}}, {"type": "Feature", "properties": {"指标": "存在楼道安全隐患的住宅数量（栋）", "中类": "安全消防", "board": "安全韧性底线", "来源": "2026补充", "原图层": "存在楼道安全隐患的住宅", "街办_源": "小溪塔街办", "社区_源": "谭家榜社区", "小区_源": "谭家榜杂居小区", "楼栋_源": "谭家榜杂居小区36", "社区": "谭家榜社区"}, "geometry": {"type": "Point", "coordinates": [111.34591848700006, 30.79384037400007]}}, {"type": "Feature", "properties": {"指标": "存在楼道安全隐患的住宅数量（栋）", "中类": "安全消防", "board": "安全韧性底线", "来源": "2026补充", "原图层": "存在楼道安全隐患的住宅", "街办_源": "小溪塔街办", "社区_源": "长江市场社区", "小区_源": "丰豪名都", "楼栋_源": "丰豪名都5栋", "社区": "长江市场社区"}, "geometry": {"type": "Point", "coordinates": [111.29563599900007, 30.769747576000043]}}, {"type": "Feature", "properties": {"指标": "存在楼道安全隐患的住宅数量（栋）", "中类": "安全消防", "board": "安全韧性底线", "来源": "2026补充", "原图层": "存在楼道安全隐患的住宅", "街办_源": "小溪塔街办", "社区_源": "长江市场社区", "小区_源": "长河湾小区", "楼栋_源": "长河湾小区10栋", "社区": "长江市场社区"}, "geometry": {"type": "Point", "coordinates": [111.29568921100008, 30.766921271000058]}}, {"type": "Feature", "properties": {"指标": "存在楼道安全隐患的住宅数量（栋）", "中类": "安全消防", "board": "安全韧性底线", "来源": "2026补充", "原图层": "存在楼道安全隐患的住宅", "街办_源": "小溪塔街办", "社区_源": "长江市场社区", "小区_源": "长河湾小区", "楼栋_源": "长河湾小区12栋", "社区": "长江市场社区"}, "geometry": {"type": "Point", "coordinates": [111.29500500000006, 30.765802446000066]}}, {"type": "Feature", "properties": {"指标": "存在楼道安全隐患的住宅数量（栋）", "中类": "安全消防", "board": "安全韧性底线", "来源": "2026补充", "原图层": "存在楼道安全隐患的住宅", "街办_源": "小溪塔街办", "社区_源": "长江市场社区", "小区_源": "宇隆嘉苑小区", "楼栋_源": "宇隆嘉苑4单元", "社区": "长江市场社区"}, "geometry": {"type": "Point", "coordinates": [111.29449087600005, 30.76635866600003]}}, {"type": "Feature", "properties": {"指标": "存在楼道安全隐患的住宅数量（栋）", "中类": "安全消防", "board": "安全韧性底线", "来源": "2026补充", "原图层": "存在楼道安全隐患的住宅", "街办_源": "小溪塔街办", "社区_源": "长江市场社区", "小区_源": "宇隆广场小区", "楼栋_源": "宇隆广场", "社区": "长江市场社区"}, "geometry": {"type": "Point", "coordinates": [111.29436407200006, 30.76829108000004]}}, {"type": "Feature", "properties": {"指标": "存在楼道安全隐患的住宅数量（栋）", "中类": "安全消防", "board": "安全韧性底线", "来源": "2026补充", "原图层": "存在楼道安全隐患的住宅", "街办_源": "小溪塔街办", "社区_源": "朝阳社区", "小区_源": "金凤朝阳小区", "楼栋_源": "1栋", "社区": "朝阳社区"}, "geometry": {"type": "Point", "coordinates": [111.33070989100008, 30.783879566000053]}}, {"type": "Feature", "properties": {"指标": "存在楼道安全隐患的住宅数量（栋）", "中类": "安全消防", "board": "安全韧性底线", "来源": "2026补充", "原图层": "存在楼道安全隐患的住宅", "街办_源": "小溪塔街办", "社区_源": "朝阳社区", "小区_源": "星城花园小区", "楼栋_源": "3幢", "社区": "朝阳社区"}, "geometry": {"type": "Point", "coordinates": [111.32792386800008, 30.779594388000078]}}, {"type": "Feature", "properties": {"指标": "存在楼道安全隐患的住宅数量（栋）", "中类": "安全消防", "board": "安全韧性底线", "来源": "2026补充", "原图层": "存在楼道安全隐患的住宅", "街办_源": "小溪塔街办", "社区_源": "朝阳社区", "小区_源": "星城花园小区", "楼栋_源": "2幢", "社区": "朝阳社区"}, "geometry": {"type": "Point", "coordinates": [111.32784053600005, 30.77923940200003]}}, {"type": "Feature", "properties": {"指标": "存在楼道安全隐患的住宅数量（栋）", "中类": "安全消防", "board": "安全韧性底线", "来源": "2026补充", "原图层": "存在楼道安全隐患的住宅", "街办_源": "小溪塔街办", "社区_源": "峡江社区", "小区_源": "骏达梅珑镇小区", "楼栋_源": "骏达梅珑镇4栋三单元", "社区": "峡江社区"}, "geometry": {"type": "Point", "coordinates": [111.29762950800006, 30.773079341000027]}}, {"type": "Feature", "properties": {"指标": "存在楼道安全隐患的住宅数量（栋）", "中类": "安全消防", "board": "安全韧性底线", "来源": "2026补充", "原图层": "存在楼道安全隐患的住宅", "街办_源": "小溪塔街办", "社区_源": "峡江社区", "小区_源": "骏达梅珑镇小区", "楼栋_源": "骏达梅珑镇5栋", "社区": "峡江社区"}, "geometry": {"type": "Point", "coordinates": [111.29841765200007, 30.772555082000054]}}, {"type": "Feature", "properties": {"指标": "存在楼道安全隐患的住宅数量（栋）", "中类": "安全消防", "board": "安全韧性底线", "来源": "2026补充", "原图层": "存在楼道安全隐患的住宅", "街办_源": "小溪塔街办", "社区_源": "峡江社区", "小区_源": "骏达梅珑镇小区", "楼栋_源": "骏达梅珑镇1栋", "社区": "峡江社区"}, "geometry": {"type": "Point", "coordinates": [111.29795401400008, 30.773001470000054]}}, {"type": "Feature", "properties": {"指标": "存在楼道安全隐患的住宅数量（栋）", "中类": "安全消防", "board": "安全韧性底线", "来源": "2026补充", "原图层": "存在楼道安全隐患的住宅", "街办_源": "小溪塔街办", "社区_源": "峡江社区", "小区_源": "骏达梅珑镇小区", "楼栋_源": "骏达梅珑镇8栋", "社区": "峡江社区"}, "geometry": {"type": "Point", "coordinates": [111.29785043500004, 30.771485718000065]}}, {"type": "Feature", "properties": {"指标": "存在楼道安全隐患的住宅数量（栋）", "中类": "安全消防", "board": "安全韧性底线", "来源": "2026补充", "原图层": "存在楼道安全隐患的住宅", "街办_源": "小溪塔街办", "社区_源": "峡江社区", "小区_源": "湖锦花园小区", "楼栋_源": "108栋", "社区": "峡江社区"}, "geometry": {"type": "Point", "coordinates": [111.30122575800004, 30.77008433800006]}}, {"type": "Feature", "properties": {"指标": "存在楼道安全隐患的住宅数量（栋）", "中类": "安全消防", "board": "安全韧性底线", "来源": "2026补充", "原图层": "存在楼道安全隐患的住宅", "街办_源": "小溪塔街办", "社区_源": "峡江社区", "小区_源": "紫荆花园小区", "楼栋_源": "峡洲路9号紫荆花园3栋", "社区": "峡江社区"}, "geometry": {"type": "Point", "coordinates": [111.30175930100006, 30.77078018700007]}}, {"type": "Feature", "properties": {"指标": "存在楼道安全隐患的住宅数量（栋）", "中类": "安全消防", "board": "安全韧性底线", "来源": "2026补充", "原图层": "存在楼道安全隐患的住宅", "街办_源": "小溪塔街办", "社区_源": "峡江社区", "小区_源": "紫荆花园小区", "楼栋_源": "峡洲路9号紫荆花园1号楼1栋", "社区": "峡江社区"}, "geometry": {"type": "Point", "coordinates": [111.30247636000007, 30.770514331000072]}}, {"type": "Feature", "properties": {"指标": "存在楼道安全隐患的住宅数量（栋）", "中类": "安全消防", "board": "安全韧性底线", "来源": "2026补充", "原图层": "存在楼道安全隐患的住宅", "街办_源": "小溪塔街办", "社区_源": "峡江社区", "小区_源": "幸福家园小区", "楼栋_源": "峡洲路7-3住宅", "社区": "峡江社区"}, "geometry": {"type": "Point", "coordinates": [111.30268412600009, 30.76977215000005]}}, {"type": "Feature", "properties": {"指标": "存在楼道安全隐患的住宅数量（栋）", "中类": "安全消防", "board": "安全韧性底线", "来源": "2026补充", "原图层": "存在楼道安全隐患的住宅", "街办_源": "小溪塔街办", "社区_源": "峡江社区", "小区_源": "幸福家园小区", "楼栋_源": "峡洲路7-1住宅", "社区": "峡江社区"}, "geometry": {"type": "Point", "coordinates": [111.30241864400006, 30.769890558000043]}}, {"type": "Feature", "properties": {"指标": "存在楼道安全隐患的住宅数量（栋）", "中类": "安全消防", "board": "安全韧性底线", "来源": "2026补充", "原图层": "存在楼道安全隐患的住宅", "街办_源": "小溪塔街办", "社区_源": "峡江社区", "小区_源": "幸福家园小区", "楼栋_源": "峡洲路7-2住宅", "社区": "峡江社区"}, "geometry": {"type": "Point", "coordinates": [111.30260711600005, 30.770198766000078]}}, {"type": "Feature", "properties": {"指标": "存在楼道安全隐患的住宅数量（栋）", "中类": "安全消防", "board": "安全韧性底线", "来源": "2026补充", "原图层": "存在楼道安全隐患的住宅", "街办_源": "小溪塔街办", "社区_源": "峡江社区", "小区_源": "香山凤凰城小区", "楼栋_源": "香山凤凰城1栋", "社区": "峡江社区"}, "geometry": {"type": "Point", "coordinates": [111.30191732700007, 30.76794466000007]}}, {"type": "Feature", "properties": {"指标": "存在楼道安全隐患的住宅数量（栋）", "中类": "安全消防", "board": "安全韧性底线", "来源": "2026补充", "原图层": "存在楼道安全隐患的住宅", "街办_源": "小溪塔街办", "社区_源": "峡江社区", "小区_源": "湖光二巷杂居小区", "楼栋_源": "冯家湾社区居民点二单元", "社区": "峡江社区"}, "geometry": {"type": "Point", "coordinates": [111.29985392500004, 30.768822752000062]}}, {"type": "Feature", "properties": {"指标": "存在楼道安全隐患的住宅数量（栋）", "中类": "安全消防", "board": "安全韧性底线", "来源": "2026补充", "原图层": "存在楼道安全隐患的住宅", "街办_源": "小溪塔街办", "社区_源": "峡江社区", "小区_源": "湖光路北侧杂居小区", "楼栋_源": "张海峰的住宅", "社区": "峡江社区"}, "geometry": {"type": "Point", "coordinates": [111.29826112300009, 30.768158028000073]}}, {"type": "Feature", "properties": {"指标": "存在楼道安全隐患的住宅数量（栋）", "中类": "安全消防", "board": "安全韧性底线", "来源": "2026补充", "原图层": "存在楼道安全隐患的住宅", "街办_源": "东城试验区", "社区_源": "润城社区", "小区_源": "至上未来城", "楼栋_源": "至上未来城10号楼", "社区": "润城社区"}, "geometry": {"type": "Point", "coordinates": [111.33710340500005, 30.753033393000067]}}, {"type": "Feature", "properties": {"指标": "存在楼道安全隐患的住宅数量（栋）", "中类": "安全消防", "board": "安全韧性底线", "来源": "2026补充", "原图层": "存在楼道安全隐患的住宅", "街办_源": "东城试验区", "社区_源": "润城社区", "小区_源": "至上未来城", "楼栋_源": "至上未来城9号楼", "社区": "润城社区"}, "geometry": {"type": "Point", "coordinates": [111.33784927300007, 30.752890404000027]}}, {"type": "Feature", "properties": {"指标": "存在楼道安全隐患的住宅数量（栋）", "中类": "安全消防", "board": "安全韧性底线", "来源": "2026补充", "原图层": "存在楼道安全隐患的住宅", "街办_源": "东城试验区", "社区_源": "润城社区", "小区_源": "至上未来城", "楼栋_源": "至上未来城8号楼", "社区": "润城社区"}, "geometry": {"type": "Point", "coordinates": [111.33855498000008, 30.752796722000028]}}, {"type": "Feature", "properties": {"指标": "存在楼道安全隐患的住宅数量（栋）", "中类": "安全消防", "board": "安全韧性底线", "来源": "2026补充", "原图层": "存在楼道安全隐患的住宅", "街办_源": "东城试验区", "社区_源": "润城社区", "小区_源": "至上未来城", "楼栋_源": "至上未来城7号楼", "社区": "润城社区"}, "geometry": {"type": "Point", "coordinates": [111.33695996800009, 30.752436783000064]}}, {"type": "Feature", "properties": {"指标": "存在楼道安全隐患的住宅数量（栋）", "中类": "安全消防", "board": "安全韧性底线", "来源": "2026补充", "原图层": "存在楼道安全隐患的住宅", "街办_源": "东城试验区", "社区_源": "锦江社区", "小区_源": "清江润城-悦邸", "楼栋_源": "50栋1单元", "社区": "锦江社区"}, "geometry": {"type": "Point", "coordinates": [111.33965251200004, 30.748176718000025]}}, {"type": "Feature", "properties": {"指标": "存在楼道安全隐患的住宅数量（栋）", "中类": "安全消防", "board": "安全韧性底线", "来源": "2026补充", "原图层": "存在楼道安全隐患的住宅", "街办_源": "东城试验区", "社区_源": "锦江社区", "小区_源": "清江润城-悦邸", "楼栋_源": "43栋", "社区": "锦江社区"}, "geometry": {"type": "Point", "coordinates": [111.34070001600008, 30.749506396000072]}}, {"type": "Feature", "properties": {"指标": "存在楼道安全隐患的住宅数量（栋）", "中类": "安全消防", "board": "安全韧性底线", "来源": "2026补充", "原图层": "存在楼道安全隐患的住宅", "街办_源": "东城试验区", "社区_源": "锦江社区", "小区_源": "清江润城-悦邸", "楼栋_源": "清江润城53栋1单元", "社区": "锦江社区"}, "geometry": {"type": "Point", "coordinates": [111.33969896400004, 30.745818127000064]}}, {"type": "Feature", "properties": {"指标": "存在楼道安全隐患的住宅数量（栋）", "中类": "安全消防", "board": "安全韧性底线", "来源": "2026补充", "原图层": "存在楼道安全隐患的住宅", "街办_源": "东城试验区", "社区_源": "锦江社区", "小区_源": "清江润城-悦邸", "楼栋_源": "清江润城55栋", "社区": "锦江社区"}, "geometry": {"type": "Point", "coordinates": [111.34139980700007, 30.74614811300006]}}, {"type": "Feature", "properties": {"指标": "存在楼道安全隐患的住宅数量（栋）", "中类": "安全消防", "board": "安全韧性底线", "来源": "2026补充", "原图层": "存在楼道安全隐患的住宅", "街办_源": "东城试验区", "社区_源": "锦江社区", "小区_源": "清江润城-悦邸", "楼栋_源": "46栋1单元", "社区": "锦江社区"}, "geometry": {"type": "Point", "coordinates": [111.33951995400008, 30.75044015700007]}}, {"type": "Feature", "properties": {"指标": "存在楼道安全隐患的住宅数量（栋）", "中类": "安全消防", "board": "安全韧性底线", "来源": "2026补充", "原图层": "存在楼道安全隐患的住宅", "街办_源": "虎牙街办", "社区_源": "六泉湖社区", "小区_源": "六泉湖社区", "楼栋_源": "六泉湖社区1号楼3单元", "社区": "六泉湖社区"}, "geometry": {"type": "Point", "coordinates": [111.44999093900009, 30.555987925000068]}}, {"type": "Feature", "properties": {"指标": "存在楼道安全隐患的住宅数量（栋）", "中类": "安全消防", "board": "安全韧性底线", "来源": "2026补充", "原图层": "存在楼道安全隐患的住宅", "街办_源": "虎牙街办", "社区_源": "六泉湖社区", "小区_源": "六泉湖社区", "楼栋_源": "六泉湖社区1号楼1单元", "社区": "六泉湖社区"}, "geometry": {"type": "Point", "coordinates": [111.44959190500003, 30.55569814300003]}}, {"type": "Feature", "properties": {"指标": "存在楼道安全隐患的住宅数量（栋）", "中类": "安全消防", "board": "安全韧性底线", "来源": "2026补充", "原图层": "存在楼道安全隐患的住宅", "街办_源": "虎牙街办", "社区_源": "六泉湖社区", "小区_源": "六泉湖社区", "楼栋_源": "六泉湖社区21号楼2单元", "社区": "六泉湖社区"}, "geometry": {"type": "Point", "coordinates": [111.45123651900008, 30.557305357000075]}}, {"type": "Feature", "properties": {"指标": "存在楼道安全隐患的住宅数量（栋）", "中类": "安全消防", "board": "安全韧性底线", "来源": "2026补充", "原图层": "存在楼道安全隐患的住宅", "街办_源": "虎牙街办", "社区_源": "六泉湖社区", "小区_源": "六泉湖社区", "楼栋_源": "六泉湖社区6号楼1单元", "社区": "六泉湖社区"}, "geometry": {"type": "Point", "coordinates": [111.44955568100005, 30.556198051000024]}}, {"type": "Feature", "properties": {"指标": "存在楼道安全隐患的住宅数量（栋）", "中类": "安全消防", "board": "安全韧性底线", "来源": "2026补充", "原图层": "存在楼道安全隐患的住宅", "街办_源": "虎牙街办", "社区_源": "六泉湖社区", "小区_源": "六泉湖社区", "楼栋_源": "六泉湖社区9栋的房屋1单元", "社区": "六泉湖社区"}, "geometry": {"type": "Point", "coordinates": [111.44887301800009, 30.557005600000025]}}, {"type": "Feature", "properties": {"指标": "存在楼道安全隐患的住宅数量（栋）", "中类": "安全消防", "board": "安全韧性底线", "来源": "2026补充", "原图层": "存在楼道安全隐患的住宅", "街办_源": "虎牙街办", "社区_源": "六泉湖社区", "小区_源": "六泉湖社区", "楼栋_源": "六泉湖社区9栋的房屋3单元", "社区": "六泉湖社区"}, "geometry": {"type": "Point", "coordinates": [111.44931622500008, 30.55726362100006]}}, {"type": "Feature", "properties": {"指标": "存在楼道安全隐患的住宅数量（栋）", "中类": "安全消防", "board": "安全韧性底线", "来源": "2026补充", "原图层": "存在楼道安全隐患的住宅", "街办_源": "虎牙街办", "社区_源": "六泉湖社区", "小区_源": "六泉湖社区", "楼栋_源": "六泉湖社区7号楼1单元", "社区": "六泉湖社区"}, "geometry": {"type": "Point", "coordinates": [111.44929952700005, 30.55647746300008]}}, {"type": "Feature", "properties": {"指标": "存在楼道安全隐患的住宅数量（栋）", "中类": "安全消防", "board": "安全韧性底线", "来源": "2026补充", "原图层": "存在楼道安全隐患的住宅", "街办_源": "虎牙街办", "社区_源": "六泉湖社区", "小区_源": "六泉湖社区", "楼栋_源": "六泉湖社区8号楼1单元", "社区": "六泉湖社区"}, "geometry": {"type": "Point", "coordinates": [111.44908974900005, 30.556744940000044]}}, {"type": "Feature", "properties": {"指标": "存在楼道安全隐患的住宅数量（栋）", "中类": "安全消防", "board": "安全韧性底线", "来源": "2026补充", "原图层": "存在楼道安全隐患的住宅", "街办_源": "虎牙街办", "社区_源": "六泉湖社区", "小区_源": "六泉湖社区", "楼栋_源": "22号楼1单元", "社区": "六泉湖社区"}, "geometry": {"type": "Point", "coordinates": [111.45165719500005, 30.55764559200003]}}, {"type": "Feature", "properties": {"指标": "存在楼道安全隐患的住宅数量（栋）", "中类": "安全消防", "board": "安全韧性底线", "来源": "2026补充", "原图层": "存在楼道安全隐患的住宅", "街办_源": "古老背街办", "社区_源": "七里新村社区", "小区_源": "七里新村(七里冲路)", "楼栋_源": "1号楼1单元", "社区": "七里新村社区"}, "geometry": {"type": "Point", "coordinates": [111.43506083900007, 30.543888854000045]}}, {"type": "Feature", "properties": {"指标": "存在楼道安全隐患的住宅数量（栋）", "中类": "安全消防", "board": "安全韧性底线", "来源": "2026补充", "原图层": "存在楼道安全隐患的住宅", "街办_源": "古老背街办", "社区_源": "七里新村社区", "小区_源": "七里新村(七里冲路)", "楼栋_源": "第4栋2单元", "社区": "七里新村社区"}, "geometry": {"type": "Point", "coordinates": [111.43785335500007, 30.54614164700007]}}, {"type": "Feature", "properties": {"指标": "存在楼道安全隐患的住宅数量（栋）", "中类": "安全消防", "board": "安全韧性底线", "来源": "2026补充", "原图层": "存在楼道安全隐患的住宅", "街办_源": "古老背街办", "社区_源": "桐岭新村社区", "小区_源": "桐岭新村", "楼栋_源": "二期18栋的房屋23栋", "社区": "桐岭新村社区"}, "geometry": {"type": "Point", "coordinates": [111.42655799200008, 30.524547940000048]}}, {"type": "Feature", "properties": {"指标": "存在楼道安全隐患的住宅数量（栋）", "中类": "安全消防", "board": "安全韧性底线", "来源": "2026补充", "原图层": "存在楼道安全隐患的住宅", "街办_源": "小溪塔街办", "社区_源": "峡江社区", "小区_源": "紫荆花园小区", "楼栋_源": "峡洲路9号紫荆花园1号楼2栋", "社区": "峡江社区"}, "geometry": {"type": "Point", "coordinates": [111.30245938700006, 30.770723046000057]}}, {"type": "Feature", "properties": {"指标": "存在楼道安全隐患的住宅数量（栋）", "中类": "安全消防", "board": "安全韧性底线", "来源": "2026补充", "原图层": "存在楼道安全隐患的住宅", "街办_源": "东城试验区", "社区_源": "锦江社区", "小区_源": "清江润城-悦邸", "楼栋_源": "50栋2单元", "社区": "锦江社区"}, "geometry": {"type": "Point", "coordinates": [111.34008998700006, 30.748164141000075]}}, {"type": "Feature", "properties": {"指标": "存在楼道安全隐患的住宅数量（栋）", "中类": "安全消防", "board": "安全韧性底线", "来源": "2026补充", "原图层": "存在楼道安全隐患的住宅", "街办_源": "东城试验区", "社区_源": "锦江社区", "小区_源": "清江润城-悦邸", "楼栋_源": "清江润城53栋2单元", "社区": "锦江社区"}, "geometry": {"type": "Point", "coordinates": [111.34009622600007, 30.745807201000048]}}, {"type": "Feature", "properties": {"指标": "存在楼道安全隐患的住宅数量（栋）", "中类": "安全消防", "board": "安全韧性底线", "来源": "2026补充", "原图层": "存在楼道安全隐患的住宅", "街办_源": "东城试验区", "社区_源": "锦江社区", "小区_源": "清江润城-悦邸", "楼栋_源": "46栋2单元", "社区": "锦江社区"}, "geometry": {"type": "Point", "coordinates": [111.33990089500008, 30.750435211000024]}}, {"type": "Feature", "properties": {"指标": "存在楼道安全隐患的住宅数量（栋）", "中类": "安全消防", "board": "安全韧性底线", "来源": "2026补充", "原图层": "存在楼道安全隐患的住宅", "街办_源": "东城试验区", "社区_源": "锦江社区", "小区_源": "清江润城-悦邸", "楼栋_源": "清江润城56栋", "社区": "锦江社区"}, "geometry": {"type": "Point", "coordinates": [111.34130769100005, 30.746610159000056]}}, {"type": "Feature", "properties": {"指标": "存在楼道安全隐患的住宅数量（栋）", "中类": "安全消防", "board": "安全韧性底线", "来源": "2026补充", "原图层": "存在楼道安全隐患的住宅", "街办_源": "东城试验区", "社区_源": "锦江社区", "小区_源": "清江润城-悦邸", "楼栋_源": "清江润城57栋", "社区": "锦江社区"}, "geometry": {"type": "Point", "coordinates": [111.34124522600007, 30.74705305300006]}}, {"type": "Feature", "properties": {"指标": "存在楼道安全隐患的住宅数量（栋）", "中类": "安全消防", "board": "安全韧性底线", "来源": "2026补充", "原图层": "存在楼道安全隐患的住宅", "街办_源": "东城试验区", "社区_源": "锦江社区", "小区_源": "清江润城-悦邸", "楼栋_源": "41栋", "社区": "锦江社区"}, "geometry": {"type": "Point", "coordinates": [111.34108906500006, 30.748026072000073]}}, {"type": "Feature", "properties": {"指标": "存在楼道安全隐患的住宅数量（栋）", "中类": "安全消防", "board": "安全韧性底线", "来源": "2026补充", "原图层": "存在楼道安全隐患的住宅", "街办_源": "东城试验区", "社区_源": "锦江社区", "小区_源": "清江润城-悦邸", "楼栋_源": "49栋1单元", "社区": "锦江社区"}, "geometry": {"type": "Point", "coordinates": [111.33923574400006, 30.748821658000054]}}, {"type": "Feature", "properties": {"指标": "存在楼道安全隐患的住宅数量（栋）", "中类": "安全消防", "board": "安全韧性底线", "来源": "2026补充", "原图层": "存在楼道安全隐患的住宅", "街办_源": "东城试验区", "社区_源": "锦江社区", "小区_源": "清江润城-悦邸", "楼栋_源": "49栋2单元", "社区": "锦江社区"}, "geometry": {"type": "Point", "coordinates": [111.33967049600005, 30.748804479000057]}}, {"type": "Feature", "properties": {"指标": "存在楼道安全隐患的住宅数量（栋）", "中类": "安全消防", "board": "安全韧性底线", "来源": "2026补充", "原图层": "存在楼道安全隐患的住宅", "街办_源": "东城试验区", "社区_源": "锦江社区", "小区_源": "清江润城-悦邸", "楼栋_源": "清江润城44栋", "社区": "锦江社区"}, "geometry": {"type": "Point", "coordinates": [111.34076893500009, 30.749978789000068]}}, {"type": "Feature", "properties": {"指标": "存在楼道安全隐患的住宅数量（栋）", "中类": "安全消防", "board": "安全韧性底线", "来源": "2026补充", "原图层": "存在楼道安全隐患的住宅", "街办_源": "东城试验区", "社区_源": "锦江社区", "小区_源": "清江润城-悦邸", "楼栋_源": "清江润城52栋", "社区": "锦江社区"}, "geometry": {"type": "Point", "coordinates": [111.33948560100004, 30.74667431200004]}}, {"type": "Feature", "properties": {"指标": "存在楼道安全隐患的住宅数量（栋）", "中类": "安全消防", "board": "安全韧性底线", "来源": "2026补充", "原图层": "存在楼道安全隐患的住宅", "街办_源": "东城试验区", "社区_源": "锦江社区", "小区_源": "清江润城-悦邸", "楼栋_源": "清江润城51栋2单元", "社区": "锦江社区"}, "geometry": {"type": "Point", "coordinates": [111.33941710400006, 30.74729686200004]}}, {"type": "Feature", "properties": {"指标": "存在楼道安全隐患的住宅数量（栋）", "中类": "安全消防", "board": "安全韧性底线", "来源": "2026补充", "原图层": "存在楼道安全隐患的住宅", "街办_源": "东城试验区", "社区_源": "锦江社区", "小区_源": "清江润城-悦邸", "楼栋_源": "清江润城51栋1单元", "社区": "锦江社区"}, "geometry": {"type": "Point", "coordinates": [111.33906504800007, 30.747256402000062]}}, {"type": "Feature", "properties": {"指标": "存在楼道安全隐患的住宅数量（栋）", "中类": "安全消防", "board": "安全韧性底线", "来源": "2026补充", "原图层": "存在楼道安全隐患的住宅", "街办_源": "东城试验区", "社区_源": "锦江社区", "小区_源": "清江润城-悦邸", "楼栋_源": "清江润城58栋2单元", "社区": "锦江社区"}, "geometry": {"type": "Point", "coordinates": [111.34058175400008, 30.746978461000026]}}, {"type": "Feature", "properties": {"指标": "存在楼道安全隐患的住宅数量（栋）", "中类": "安全消防", "board": "安全韧性底线", "来源": "2026补充", "原图层": "存在楼道安全隐患的住宅", "街办_源": "东城试验区", "社区_源": "锦江社区", "小区_源": "清江润城-悦邸", "楼栋_源": "清江润城58栋1单元", "社区": "锦江社区"}, "geometry": {"type": "Point", "coordinates": [111.34019899600008, 30.746892264000053]}}, {"type": "Feature", "properties": {"指标": "存在楼道安全隐患的住宅数量（栋）", "中类": "安全消防", "board": "安全韧性底线", "来源": "2026补充", "原图层": "存在楼道安全隐患的住宅", "街办_源": "东城试验区", "社区_源": "锦江社区", "小区_源": "清江润城-悦邸", "楼栋_源": "清江润城54栋1单元", "社区": "锦江社区"}, "geometry": {"type": "Point", "coordinates": [111.34105471000004, 30.74563927400004]}}, {"type": "Feature", "properties": {"指标": "存在楼道安全隐患的住宅数量（栋）", "中类": "安全消防", "board": "安全韧性底线", "来源": "2026补充", "原图层": "存在楼道安全隐患的住宅", "街办_源": "东城试验区", "社区_源": "锦江社区", "小区_源": "清江润城-悦邸", "楼栋_源": "清江润城54栋2单元", "社区": "锦江社区"}, "geometry": {"type": "Point", "coordinates": [111.34150445400007, 30.745592031000058]}}, {"type": "Feature", "properties": {"指标": "存在楼道安全隐患的住宅数量（栋）", "中类": "安全消防", "board": "安全韧性底线", "来源": "2026补充", "原图层": "存在楼道安全隐患的住宅", "街办_源": "东城试验区", "社区_源": "锦江社区", "小区_源": "清江润城-悦邸", "楼栋_源": "42栋", "社区": "锦江社区"}, "geometry": {"type": "Point", "coordinates": [111.34088752000008, 30.749068281000064]}}, {"type": "Feature", "properties": {"指标": "存在楼道安全隐患的住宅数量（栋）", "中类": "安全消防", "board": "安全韧性底线", "来源": "2026补充", "原图层": "存在楼道安全隐患的住宅", "街办_源": "东城试验区", "社区_源": "锦江社区", "小区_源": "清江润城-悦邸", "楼栋_源": "45栋", "社区": "锦江社区"}, "geometry": {"type": "Point", "coordinates": [111.34068987800003, 30.75045354200006]}}, {"type": "Feature", "properties": {"指标": "存在楼道安全隐患的住宅数量（栋）", "中类": "安全消防", "board": "安全韧性底线", "来源": "2026补充", "原图层": "存在楼道安全隐患的住宅", "街办_源": "东城试验区", "社区_源": "锦江社区", "小区_源": "清江润城-悦邸", "楼栋_源": "47栋", "社区": "锦江社区"}, "geometry": {"type": "Point", "coordinates": [111.33953477300008, 30.749845841000024]}}, {"type": "Feature", "properties": {"指标": "存在楼道安全隐患的住宅数量（栋）", "中类": "安全消防", "board": "安全韧性底线", "来源": "2026补充", "原图层": "存在楼道安全隐患的住宅", "街办_源": "东城试验区", "社区_源": "润城社区", "小区_源": "清江润城-北区", "楼栋_源": "24号楼", "社区": "润城社区"}, "geometry": {"type": "Point", "coordinates": [111.34052583500005, 30.75108306800007]}}, {"type": "Feature", "properties": {"指标": "存在楼道安全隐患的住宅数量（栋）", "中类": "安全消防", "board": "安全韧性底线", "来源": "2026补充", "原图层": "存在楼道安全隐患的住宅", "街办_源": "东城试验区", "社区_源": "润城社区", "小区_源": "清江润城-北区", "楼栋_源": "清江润城40", "社区": "润城社区"}, "geometry": {"type": "Point", "coordinates": [111.33987400100006, 30.754961884000068]}}, {"type": "Feature", "properties": {"指标": "存在楼道安全隐患的住宅数量（栋）", "中类": "安全消防", "board": "安全韧性底线", "来源": "2026补充", "原图层": "存在楼道安全隐患的住宅", "街办_源": "东城试验区", "社区_源": "润城社区", "小区_源": "清江润城-北区", "楼栋_源": "14栋", "社区": "润城社区"}, "geometry": {"type": "Point", "coordinates": [111.33928206500008, 30.75300887000003]}}, {"type": "Feature", "properties": {"指标": "存在楼道安全隐患的住宅数量（栋）", "中类": "安全消防", "board": "安全韧性底线", "来源": "2026补充", "原图层": "存在楼道安全隐患的住宅", "街办_源": "东城试验区", "社区_源": "润城社区", "小区_源": "清江润城-北区", "楼栋_源": "7号楼", "社区": "润城社区"}, "geometry": {"type": "Point", "coordinates": [111.33876852600008, 30.754979105000075]}}, {"type": "Feature", "properties": {"指标": "存在楼道安全隐患的住宅数量（栋）", "中类": "安全消防", "board": "安全韧性底线", "来源": "2026补充", "原图层": "存在楼道安全隐患的住宅", "街办_源": "东城试验区", "社区_源": "润城社区", "小区_源": "清江润城-北区", "楼栋_源": "15号楼", "社区": "润城社区"}, "geometry": {"type": "Point", "coordinates": [111.33924330800005, 30.752757549000023]}}, {"type": "Feature", "properties": {"指标": "存在楼道安全隐患的住宅数量（栋）", "中类": "安全消防", "board": "安全韧性底线", "来源": "2026补充", "原图层": "存在楼道安全隐患的住宅", "街办_源": "东城试验区", "社区_源": "润城社区", "小区_源": "清江润城-北区", "楼栋_源": "清江润城05", "社区": "润城社区"}, "geometry": {"type": "Point", "coordinates": [111.33947233000004, 30.754410805000077]}}, {"type": "Feature", "properties": {"指标": "存在楼道安全隐患的住宅数量（栋）", "中类": "安全消防", "board": "安全韧性底线", "来源": "2026补充", "原图层": "存在楼道安全隐患的住宅", "街办_源": "东城试验区", "社区_源": "润城社区", "小区_源": "清江润城-北区", "楼栋_源": "清江润城31", "社区": "润城社区"}, "geometry": {"type": "Point", "coordinates": [111.34043422500008, 30.754368414000055]}}, {"type": "Feature", "properties": {"指标": "存在楼道安全隐患的住宅数量（栋）", "中类": "安全消防", "board": "安全韧性底线", "来源": "2026补充", "原图层": "存在楼道安全隐患的住宅", "街办_源": "东城试验区", "社区_源": "润城社区", "小区_源": "清江润城-北区", "楼栋_源": "11号楼", "社区": "润城社区"}, "geometry": {"type": "Point", "coordinates": [111.33907418300004, 30.75398689600007]}}, {"type": "Feature", "properties": {"指标": "存在楼道安全隐患的住宅数量（栋）", "中类": "安全消防", "board": "安全韧性底线", "来源": "2026补充", "原图层": "存在楼道安全隐患的住宅", "街办_源": "东城试验区", "社区_源": "润城社区", "小区_源": "清江润城-北区", "楼栋_源": "30号楼", "社区": "润城社区"}, "geometry": {"type": "Point", "coordinates": [111.33955618800007, 30.751114075000032]}}, {"type": "Feature", "properties": {"指标": "存在楼道安全隐患的住宅数量（栋）", "中类": "安全消防", "board": "安全韧性底线", "来源": "2026补充", "原图层": "存在楼道安全隐患的住宅", "街办_源": "东城试验区", "社区_源": "润城社区", "小区_源": "清江润城-北区", "楼栋_源": "清江润城2", "社区": "润城社区"}, "geometry": {"type": "Point", "coordinates": [111.34051174100006, 30.752881695000042]}}, {"type": "Feature", "properties": {"指标": "存在楼道安全隐患的住宅数量（栋）", "中类": "安全消防", "board": "安全韧性底线", "来源": "2026补充", "原图层": "存在楼道安全隐患的住宅", "街办_源": "东城试验区", "社区_源": "润城社区", "小区_源": "清江润城-北区", "楼栋_源": "清江润城34", "社区": "润城社区"}, "geometry": {"type": "Point", "coordinates": [111.34068593900008, 30.755687487000046]}}, {"type": "Feature", "properties": {"指标": "存在楼道安全隐患的住宅数量（栋）", "中类": "安全消防", "board": "安全韧性底线", "来源": "2026补充", "原图层": "存在楼道安全隐患的住宅", "街办_源": "东城试验区", "社区_源": "润城社区", "小区_源": "清江润城-北区", "楼栋_源": "35号楼", "社区": "润城社区"}, "geometry": {"type": "Point", "coordinates": [111.34017631100005, 30.75604792400003]}}, {"type": "Feature", "properties": {"指标": "存在楼道安全隐患的住宅数量（栋）", "中类": "安全消防", "board": "安全韧性底线", "来源": "2026补充", "原图层": "存在楼道安全隐患的住宅", "街办_源": "东城试验区", "社区_源": "润城社区", "小区_源": "清江润城-北区", "楼栋_源": "18号楼", "社区": "润城社区"}, "geometry": {"type": "Point", "coordinates": [111.33972080200004, 30.752540383000053]}}, {"type": "Feature", "properties": {"指标": "存在楼道安全隐患的住宅数量（栋）", "中类": "安全消防", "board": "安全韧性底线", "来源": "2026补充", "原图层": "存在楼道安全隐患的住宅", "街办_源": "东城试验区", "社区_源": "润城社区", "小区_源": "清江润城-北区", "楼栋_源": "1号楼", "社区": "润城社区"}, "geometry": {"type": "Point", "coordinates": [111.34038828000007, 30.752484183000036]}}, {"type": "Feature", "properties": {"指标": "存在楼道安全隐患的住宅数量（栋）", "中类": "安全消防", "board": "安全韧性底线", "来源": "2026补充", "原图层": "存在楼道安全隐患的住宅", "街办_源": "东城试验区", "社区_源": "润城社区", "小区_源": "清江润城-北区", "楼栋_源": "20号楼", "社区": "润城社区"}, "geometry": {"type": "Point", "coordinates": [111.33981461000008, 30.753010827000026]}}, {"type": "Feature", "properties": {"指标": "存在楼道安全隐患的住宅数量（栋）", "中类": "安全消防", "board": "安全韧性底线", "来源": "2026补充", "原图层": "存在楼道安全隐患的住宅", "街办_源": "东城试验区", "社区_源": "润城社区", "小区_源": "清江润城-北区", "楼栋_源": "38号楼", "社区": "润城社区"}, "geometry": {"type": "Point", "coordinates": [111.33864784900004, 30.755431207000072]}}, {"type": "Feature", "properties": {"指标": "存在楼道安全隐患的住宅数量（栋）", "中类": "安全消防", "board": "安全韧性底线", "来源": "2026补充", "原图层": "存在楼道安全隐患的住宅", "街办_源": "东城试验区", "社区_源": "润城社区", "小区_源": "清江润城-北区", "楼栋_源": "清江润城22", "社区": "润城社区"}, "geometry": {"type": "Point", "coordinates": [111.33966964200005, 30.753874862000032]}}, {"type": "Feature", "properties": {"指标": "存在楼道安全隐患的住宅数量（栋）", "中类": "安全消防", "board": "安全韧性底线", "来源": "2026补充", "原图层": "存在楼道安全隐患的住宅", "街办_源": "东城试验区", "社区_源": "润城社区", "小区_源": "清江润城-北区", "楼栋_源": "9号楼", "社区": "润城社区"}, "geometry": {"type": "Point", "coordinates": [111.33886277800008, 30.754450168000062]}}, {"type": "Feature", "properties": {"指标": "存在楼道安全隐患的住宅数量（栋）", "中类": "安全消防", "board": "安全韧性底线", "来源": "2026补充", "原图层": "存在楼道安全隐患的住宅", "街办_源": "东城试验区", "社区_源": "润城社区", "小区_源": "清江润城-北区", "楼栋_源": "36号楼", "社区": "润城社区"}, "geometry": {"type": "Point", "coordinates": [111.33968725900007, 30.756312317000038]}}, {"type": "Feature", "properties": {"指标": "存在楼道安全隐患的住宅数量（栋）", "中类": "安全消防", "board": "安全韧性底线", "来源": "2026补充", "原图层": "存在楼道安全隐患的住宅", "街办_源": "东城试验区", "社区_源": "润城社区", "小区_源": "清江润城-北区", "楼栋_源": "清江润城32", "社区": "润城社区"}, "geometry": {"type": "Point", "coordinates": [111.34068438900005, 30.75480746100004]}}, {"type": "Feature", "properties": {"指标": "存在楼道安全隐患的住宅数量（栋）", "中类": "安全消防", "board": "安全韧性底线", "来源": "2026补充", "原图层": "存在楼道安全隐患的住宅", "街办_源": "东城试验区", "社区_源": "润城社区", "小区_源": "清江润城-北区", "楼栋_源": "12号楼", "社区": "润城社区"}, "geometry": {"type": "Point", "coordinates": [111.33914112800005, 30.753735577000043]}}, {"type": "Feature", "properties": {"指标": "存在楼道安全隐患的住宅数量（栋）", "中类": "安全消防", "board": "安全韧性底线", "来源": "2026补充", "原图层": "存在楼道安全隐患的住宅", "街办_源": "东城试验区", "社区_源": "润城社区", "小区_源": "清江润城-北区", "楼栋_源": "清江润城21", "社区": "润城社区"}, "geometry": {"type": "Point", "coordinates": [111.33976477500005, 30.753638683000077]}}, {"type": "Feature", "properties": {"指标": "存在楼道安全隐患的住宅数量（栋）", "中类": "安全消防", "board": "安全韧性底线", "来源": "2026补充", "原图层": "存在楼道安全隐患的住宅", "街办_源": "东城试验区", "社区_源": "润城社区", "小区_源": "清江润城-北区", "楼栋_源": "26号楼", "社区": "润城社区"}, "geometry": {"type": "Point", "coordinates": [111.34051922800006, 30.75207417200005]}}, {"type": "Feature", "properties": {"指标": "存在楼道安全隐患的住宅数量（栋）", "中类": "安全消防", "board": "安全韧性底线", "来源": "2026补充", "原图层": "存在楼道安全隐患的住宅", "街办_源": "东城试验区", "社区_源": "润城社区", "小区_源": "清江润城-北区", "楼栋_源": "28号楼", "社区": "润城社区"}, "geometry": {"type": "Point", "coordinates": [111.33907682600005, 30.75179502900005]}}, {"type": "Feature", "properties": {"指标": "存在楼道安全隐患的住宅数量（栋）", "中类": "安全消防", "board": "安全韧性底线", "来源": "2026补充", "原图层": "存在楼道安全隐患的住宅", "街办_源": "东城试验区", "社区_源": "润城社区", "小区_源": "清江润城-北区", "楼栋_源": "39号楼", "社区": "润城社区"}, "geometry": {"type": "Point", "coordinates": [111.33937010600005, 30.75530526600005]}}, {"type": "Feature", "properties": {"指标": "存在楼道安全隐患的住宅数量（栋）", "中类": "安全消防", "board": "安全韧性底线", "来源": "2026补充", "原图层": "存在楼道安全隐患的住宅", "街办_源": "东城试验区", "社区_源": "润城社区", "小区_源": "清江润城-北区", "楼栋_源": "10号楼", "社区": "润城社区"}, "geometry": {"type": "Point", "coordinates": [111.33894734000006, 30.754226344000074]}}, {"type": "Feature", "properties": {"指标": "存在楼道安全隐患的住宅数量（栋）", "中类": "安全消防", "board": "安全韧性底线", "来源": "2026补充", "原图层": "存在楼道安全隐患的住宅", "街办_源": "东城试验区", "社区_源": "润城社区", "小区_源": "清江润城-北区", "楼栋_源": "17号楼", "社区": "润城社区"}, "geometry": {"type": "Point", "coordinates": [111.33913901400007, 30.752280703000054]}}, {"type": "Feature", "properties": {"指标": "存在楼道安全隐患的住宅数量（栋）", "中类": "安全消防", "board": "安全韧性底线", "来源": "2026补充", "原图层": "存在楼道安全隐患的住宅", "街办_源": "东城试验区", "社区_源": "润城社区", "小区_源": "清江润城-北区", "楼栋_源": "27号楼", "社区": "润城社区"}, "geometry": {"type": "Point", "coordinates": [111.33972368900004, 30.751883431000067]}}, {"type": "Feature", "properties": {"指标": "存在楼道安全隐患的住宅数量（栋）", "中类": "安全消防", "board": "安全韧性底线", "来源": "2026补充", "原图层": "存在楼道安全隐患的住宅", "街办_源": "东城试验区", "社区_源": "润城社区", "小区_源": "清江润城-北区", "楼栋_源": "25号楼", "社区": "润城社区"}, "geometry": {"type": "Point", "coordinates": [111.34054697500005, 30.75161902600007]}}, {"type": "Feature", "properties": {"指标": "存在楼道安全隐患的住宅数量（栋）", "中类": "安全消防", "board": "安全韧性底线", "来源": "2026补充", "原图层": "存在楼道安全隐患的住宅", "街办_源": "东城试验区", "社区_源": "润城社区", "小区_源": "清江润城-北区", "楼栋_源": "16号楼", "社区": "润城社区"}, "geometry": {"type": "Point", "coordinates": [111.33920215400008, 30.752524879000077]}}, {"type": "Feature", "properties": {"指标": "存在楼道安全隐患的住宅数量（栋）", "中类": "安全消防", "board": "安全韧性底线", "来源": "2026补充", "原图层": "存在楼道安全隐患的住宅", "街办_源": "东城试验区", "社区_源": "润城社区", "小区_源": "清江润城-北区", "楼栋_源": "清江润城33", "社区": "润城社区"}, "geometry": {"type": "Point", "coordinates": [111.34068819400005, 30.755257285000027]}}, {"type": "Feature", "properties": {"指标": "存在楼道安全隐患的住宅数量（栋）", "中类": "安全消防", "board": "安全韧性底线", "来源": "2026补充", "原图层": "存在楼道安全隐患的住宅", "街办_源": "东城试验区", "社区_源": "润城社区", "小区_源": "清江润城-北区", "楼栋_源": "清江润城6", "社区": "润城社区"}, "geometry": {"type": "Point", "coordinates": [111.33935549400007, 30.754759257000046]}}, {"type": "Feature", "properties": {"指标": "存在楼道安全隐患的住宅数量（栋）", "中类": "安全消防", "board": "安全韧性底线", "来源": "2026补充", "原图层": "存在楼道安全隐患的住宅", "街办_源": "东城试验区", "社区_源": "润城社区", "小区_源": "清江润城-北区", "楼栋_源": "清江润城03", "社区": "润城社区"}, "geometry": {"type": "Point", "coordinates": [111.34055754500008, 30.753723465000064]}}, {"type": "Feature", "properties": {"指标": "存在楼道安全隐患的住宅数量（栋）", "中类": "安全消防", "board": "安全韧性底线", "来源": "2026补充", "原图层": "存在楼道安全隐患的住宅", "街办_源": "东城试验区", "社区_源": "润城社区", "小区_源": "清江润城-北区", "楼栋_源": "13号楼", "社区": "润城社区"}, "geometry": {"type": "Point", "coordinates": [111.33921159700009, 30.753487286000052]}}, {"type": "Feature", "properties": {"指标": "存在楼道安全隐患的住宅数量（栋）", "中类": "安全消防", "board": "安全韧性底线", "来源": "2026补充", "原图层": "存在楼道安全隐患的住宅", "街办_源": "东城试验区", "社区_源": "润城社区", "小区_源": "清江润城-北区", "楼栋_源": "19号楼", "社区": "润城社区"}, "geometry": {"type": "Point", "coordinates": [111.33978239200007, 30.75276360500004]}}, {"type": "Feature", "properties": {"指标": "存在楼道安全隐患的住宅数量（栋）", "中类": "安全消防", "board": "安全韧性底线", "来源": "2026补充", "原图层": "存在楼道安全隐患的住宅", "街办_源": "东城试验区", "社区_源": "润城社区", "小区_源": "清江润城-北区", "楼栋_源": "清江润城23", "社区": "润城社区"}, "geometry": {"type": "Point", "coordinates": [111.33958155700009, 30.75414737600005]}}, {"type": "Feature", "properties": {"指标": "存在楼道安全隐患的住宅数量（栋）", "中类": "安全消防", "board": "安全韧性底线", "来源": "2026补充", "原图层": "存在楼道安全隐患的住宅", "街办_源": "东城试验区", "社区_源": "润城社区", "小区_源": "清江润城-北区", "楼栋_源": "8号楼", "社区": "润城社区"}, "geometry": {"type": "Point", "coordinates": [111.33876017600005, 30.75468755600008]}}, {"type": "Feature", "properties": {"指标": "存在楼道安全隐患的住宅数量（栋）", "中类": "安全消防", "board": "安全韧性底线", "来源": "2026补充", "原图层": "存在楼道安全隐患的住宅", "街办_源": "东城试验区", "社区_源": "润城社区", "小区_源": "清江润城-北区", "楼栋_源": "29号楼", "社区": "润城社区"}, "geometry": {"type": "Point", "coordinates": [111.33908579600006, 30.751343913000028]}}, {"type": "Feature", "properties": {"指标": "存在楼道安全隐患的住宅数量（栋）", "中类": "安全消防", "board": "安全韧性底线", "来源": "2026补充", "原图层": "存在楼道安全隐患的住宅", "街办_源": "东城试验区", "社区_源": "润城社区", "小区_源": "清江润城-北区", "楼栋_源": "37号楼", "社区": "润城社区"}, "geometry": {"type": "Point", "coordinates": [111.33909165900008, 30.755819260000067]}}, {"type": "Feature", "properties": {"指标": "存在楼道安全隐患的住宅数量（栋）", "中类": "安全消防", "board": "安全韧性底线", "来源": "2026补充", "原图层": "存在楼道安全隐患的住宅", "街办_源": "东城试验区", "社区_源": "锦湖社区", "小区_源": "梅香溪岸", "楼栋_源": "梅香溪岸20栋1单元", "社区": "锦湖社区"}, "geometry": {"type": "Point", "coordinates": [111.34862196200004, 30.75545913700006]}}, {"type": "Feature", "properties": {"指标": "存在楼道安全隐患的住宅数量（栋）", "中类": "安全消防", "board": "安全韧性底线", "来源": "2026补充", "原图层": "存在楼道安全隐患的住宅", "街办_源": "东城试验区", "社区_源": "锦湖社区", "小区_源": "梅香溪岸", "楼栋_源": "梅香溪岸20栋2单元", "社区": "锦湖社区"}, "geometry": {"type": "Point", "coordinates": [111.34877441200007, 30.755605038000056]}}, {"type": "Feature", "properties": {"指标": "存在楼道安全隐患的住宅数量（栋）", "中类": "安全消防", "board": "安全韧性底线", "来源": "2026补充", "原图层": "存在楼道安全隐患的住宅", "街办_源": "东城试验区", "社区_源": "润城社区", "小区_源": "梅岭一号", "楼栋_源": "梅岭一号1栋", "社区": "润城社区"}, "geometry": {"type": "Point", "coordinates": [111.34165483200007, 30.75677967200005]}}, {"type": "Feature", "properties": {"指标": "存在楼道安全隐患的住宅数量（栋）", "中类": "安全消防", "board": "安全韧性底线", "来源": "2026补充", "原图层": "存在楼道安全隐患的住宅", "街办_源": "东城试验区", "社区_源": "平云社区", "小区_源": "嘉豪城-嘉兴苑", "楼栋_源": "2栋", "社区": "平云社区"}, "geometry": {"type": "Point", "coordinates": [111.33556472700008, 30.78027614800004]}}, {"type": "Feature", "properties": {"指标": "存在楼道安全隐患的住宅数量（栋）", "中类": "安全消防", "board": "安全韧性底线", "来源": "2026补充", "原图层": "存在楼道安全隐患的住宅", "街办_源": "东城试验区", "社区_源": "平云社区", "小区_源": "嘉豪城-嘉兴苑", "楼栋_源": "6栋", "社区": "平云社区"}, "geometry": {"type": "Point", "coordinates": [111.33591381300005, 30.779741212000033]}}, {"type": "Feature", "properties": {"指标": "存在楼道安全隐患的住宅数量（栋）", "中类": "安全消防", "board": "安全韧性底线", "来源": "2026补充", "原图层": "存在楼道安全隐患的住宅", "街办_源": "东城试验区", "社区_源": "黄金卡社区", "小区_源": "汇锦苑小区", "楼栋_源": "3号楼", "社区": "黄金卡社区"}, "geometry": {"type": "Point", "coordinates": [111.33853636300006, 30.788263525000048]}}, {"type": "Feature", "properties": {"指标": "存在楼道安全隐患的住宅数量（栋）", "中类": "安全消防", "board": "安全韧性底线", "来源": "2026补充", "原图层": "存在楼道安全隐患的住宅", "街办_源": "东城试验区", "社区_源": "锦湖社区", "小区_源": "保利罗兰香谷", "楼栋_源": "保利罗兰8栋", "社区": "锦湖社区"}, "geometry": {"type": "Point", "coordinates": [111.34989782000008, 30.758706376000077]}}, {"type": "Feature", "properties": {"指标": "存在楼道安全隐患的住宅数量（栋）", "中类": "安全消防", "board": "安全韧性底线", "来源": "2026补充", "原图层": "存在楼道安全隐患的住宅", "街办_源": "东城试验区", "社区_源": "锦湖社区", "小区_源": "保利罗兰香谷", "楼栋_源": "保利罗兰8栋", "社区": "锦湖社区"}, "geometry": {"type": "Point", "coordinates": [111.34967046500009, 30.758716287000027]}}, {"type": "Feature", "properties": {"指标": "存在楼道安全隐患的住宅数量（栋）", "中类": "安全消防", "board": "安全韧性底线", "来源": "2026补充", "原图层": "存在楼道安全隐患的住宅", "街办_源": "小溪塔街办", "社区_源": "丁家坝社区", "小区_源": "丁家坝花园", "楼栋_源": "4号楼", "社区": "丁家坝社区"}, "geometry": {"type": "Point", "coordinates": [111.31371018800007, 30.776713581000024]}}, {"type": "Feature", "properties": {"指标": "存在楼道安全隐患的住宅数量（栋）", "中类": "安全消防", "board": "安全韧性底线", "来源": "2026补充", "原图层": "存在楼道安全隐患的住宅", "街办_源": "小溪塔街办", "社区_源": "丁家坝社区", "小区_源": "松湖花园", "楼栋_源": "松湖花园1号楼", "社区": "丁家坝社区"}, "geometry": {"type": "Point", "coordinates": [111.31294262200004, 30.778042995000078]}}, {"type": "Feature", "properties": {"指标": "存在楼道安全隐患的住宅数量（栋）", "中类": "安全消防", "board": "安全韧性底线", "来源": "2026补充", "原图层": "存在楼道安全隐患的住宅", "街办_源": "小溪塔街办", "社区_源": "丁家坝社区", "小区_源": "松湖花园", "楼栋_源": "松湖花园3号楼", "社区": "丁家坝社区"}, "geometry": {"type": "Point", "coordinates": [111.31316983100004, 30.77778829400006]}}, {"type": "Feature", "properties": {"指标": "存在楼道安全隐患的住宅数量（栋）", "中类": "安全消防", "board": "安全韧性底线", "来源": "2026补充", "原图层": "存在楼道安全隐患的住宅", "街办_源": "小溪塔街办", "社区_源": "丁家坝社区", "小区_源": "金亚花园", "楼栋_源": "1号楼", "社区": "丁家坝社区"}, "geometry": {"type": "Point", "coordinates": [111.31406039700005, 30.777872346000038]}}, {"type": "Feature", "properties": {"指标": "存在楼道安全隐患的住宅数量（栋）", "中类": "安全消防", "board": "安全韧性底线", "来源": "2026补充", "原图层": "存在楼道安全隐患的住宅", "街办_源": "小溪塔街办", "社区_源": "丁家坝社区", "小区_源": "星湖湾", "楼栋_源": "23号楼", "社区": "丁家坝社区"}, "geometry": {"type": "Point", "coordinates": [111.30938649700005, 30.77809320800003]}}, {"type": "Feature", "properties": {"指标": "存在楼道安全隐患的住宅数量（栋）", "中类": "安全消防", "board": "安全韧性底线", "来源": "2026补充", "原图层": "存在楼道安全隐患的住宅", "街办_源": "小溪塔街办", "社区_源": "丁家坝社区", "小区_源": "星湖湾", "楼栋_源": "10-2号楼", "社区": "丁家坝社区"}, "geometry": {"type": "Point", "coordinates": [111.30742250100008, 30.77647313400007]}}, {"type": "Feature", "properties": {"指标": "存在楼道安全隐患的住宅数量（栋）", "中类": "安全消防", "board": "安全韧性底线", "来源": "2026补充", "原图层": "存在楼道安全隐患的住宅", "街办_源": "小溪塔街办", "社区_源": "丁家坝社区", "小区_源": "星湖湾", "楼栋_源": "10-1号楼", "社区": "丁家坝社区"}, "geometry": {"type": "Point", "coordinates": [111.30698154800007, 30.77647982900004]}}, {"type": "Feature", "properties": {"指标": "存在楼道安全隐患的住宅数量（栋）", "中类": "安全消防", "board": "安全韧性底线", "来源": "2026补充", "原图层": "存在楼道安全隐患的住宅", "街办_源": "小溪塔街办", "社区_源": "丁家坝社区", "小区_源": "山水云间", "楼栋_源": "3号楼", "社区": "丁家坝社区"}, "geometry": {"type": "Point", "coordinates": [111.31642130200004, 30.778943344000027]}}, {"type": "Feature", "properties": {"指标": "存在楼道安全隐患的住宅数量（栋）", "中类": "安全消防", "board": "安全韧性底线", "来源": "2026补充", "原图层": "存在楼道安全隐患的住宅", "街办_源": "小溪塔街办", "社区_源": "丁家坝社区", "小区_源": "山水云间", "楼栋_源": "山水之间7号楼", "社区": "丁家坝社区"}, "geometry": {"type": "Point", "coordinates": [111.31614319800008, 30.780311470000072]}}, {"type": "Feature", "properties": {"指标": "存在楼道安全隐患的住宅数量（栋）", "中类": "安全消防", "board": "安全韧性底线", "来源": "2026补充", "原图层": "存在楼道安全隐患的住宅", "街办_源": "小溪塔街办", "社区_源": "丁家坝社区", "小区_源": "山水云间", "楼栋_源": "2号楼", "社区": "丁家坝社区"}, "geometry": {"type": "Point", "coordinates": [111.31589983700007, 30.779243155000074]}}, {"type": "Feature", "properties": {"指标": "存在楼道安全隐患的住宅数量（栋）", "中类": "安全消防", "board": "安全韧性底线", "来源": "2026补充", "原图层": "存在楼道安全隐患的住宅", "街办_源": "小溪塔街办", "社区_源": "丁家坝社区", "小区_源": "山水云间", "楼栋_源": "山水云间5号楼", "社区": "丁家坝社区"}, "geometry": {"type": "Point", "coordinates": [111.31585176000004, 30.779507944000045]}}, {"type": "Feature", "properties": {"指标": "存在楼道安全隐患的住宅数量（栋）", "中类": "安全消防", "board": "安全韧性底线", "来源": "2026补充", "原图层": "存在楼道安全隐患的住宅", "街办_源": "小溪塔街办", "社区_源": "丁家坝社区", "小区_源": "山水云间", "楼栋_源": "6号楼", "社区": "丁家坝社区"}, "geometry": {"type": "Point", "coordinates": [111.31570508800007, 30.780218190000028]}}, {"type": "Feature", "properties": {"指标": "存在楼道安全隐患的住宅数量（栋）", "中类": "安全消防", "board": "安全韧性底线", "来源": "2026补充", "原图层": "存在楼道安全隐患的住宅", "街办_源": "小溪塔街办", "社区_源": "东湖社区", "小区_源": "客运宿舍小区", "楼栋_源": "330宿舍3号"}, "geometry": {"type": "Point", "coordinates": [111.32019779000007, 30.769362564000062]}}, {"type": "Feature", "properties": {"指标": "存在楼道安全隐患的住宅数量（栋）", "中类": "安全消防", "board": "安全韧性底线", "来源": "2026补充", "原图层": "存在楼道安全隐患的住宅", "街办_源": "小溪塔街办", "社区_源": "东湖社区", "小区_源": "23号小区", "楼栋_源": "2栋"}, "geometry": {"type": "Point", "coordinates": [111.32345624000004, 30.769674275000057]}}, {"type": "Feature", "properties": {"指标": "存在楼道安全隐患的住宅数量（栋）", "中类": "安全消防", "board": "安全韧性底线", "来源": "2026补充", "原图层": "存在楼道安全隐患的住宅", "街办_源": "小溪塔街办", "社区_源": "营盘社区", "小区_源": "林业农业杂居小区", "楼栋_源": "夷陵区水利电力局李昌柱夷兴四巷4号", "社区": "营盘社区"}, "geometry": {"type": "Point", "coordinates": [111.32381043300006, 30.772537847000024]}}, {"type": "Feature", "properties": {"指标": "存在楼道安全隐患的住宅数量（栋）", "中类": "安全消防", "board": "安全韧性底线", "来源": "2026补充", "原图层": "存在楼道安全隐患的住宅", "街办_源": "小溪塔街办", "社区_源": "营盘社区", "小区_源": "林业农业杂居小区", "楼栋_源": "夷陵区水利电力局李昌柱夷兴大道104号", "社区": "营盘社区"}, "geometry": {"type": "Point", "coordinates": [111.32369304800005, 30.772401600000023]}}, {"type": "Feature", "properties": {"指标": "存在楼道安全隐患的住宅数量（栋）", "中类": "安全消防", "board": "安全韧性底线", "来源": "2026补充", "原图层": "存在楼道安全隐患的住宅", "街办_源": "小溪塔街办", "社区_源": "营盘社区", "小区_源": "柏林馨苑", "楼栋_源": "11", "社区": "营盘社区"}, "geometry": {"type": "Point", "coordinates": [111.32448854600005, 30.772916788000032]}}, {"type": "Feature", "properties": {"指标": "存在楼道安全隐患的住宅数量（栋）", "中类": "安全消防", "board": "安全韧性底线", "来源": "2026补充", "原图层": "存在楼道安全隐患的住宅", "街办_源": "小溪塔街办", "社区_源": "营盘社区", "小区_源": "平安杂居小区", "楼栋_源": "42", "社区": "营盘社区"}, "geometry": {"type": "Point", "coordinates": [111.33359500700004, 30.779455141000028]}}, {"type": "Feature", "properties": {"指标": "存在楼道安全隐患的住宅数量（栋）", "中类": "安全消防", "board": "安全韧性底线", "来源": "2026补充", "原图层": "存在楼道安全隐患的住宅", "街办_源": "小溪塔街办", "社区_源": "营盘社区", "小区_源": "黄金杂居小区", "楼栋_源": "29", "社区": "营盘社区"}, "geometry": {"type": "Point", "coordinates": [111.33302573500004, 30.77965887700003]}}, {"type": "Feature", "properties": {"指标": "存在楼道安全隐患的住宅数量（栋）", "中类": "安全消防", "board": "安全韧性底线", "来源": "2026补充", "原图层": "存在楼道安全隐患的住宅", "街办_源": "小溪塔街办", "社区_源": "营盘社区", "小区_源": "黄金杂居小区", "楼栋_源": "29", "社区": "营盘社区"}, "geometry": {"type": "Point", "coordinates": [111.33292617900008, 30.779487032000077]}}]}