{"type": "FeatureCollection", "features": [{"type": "Feature", "geometry": {"type": "Point", "coordinates": [111.287811, 30.698677]}, "properties": {"指标": "未达标配建养老服务设施的小区数量（个）", "中类": "公服设施", "board": "民生基础需求", "来源": "2025体检"}}, {"type": "Feature", "geometry": {"type": "Point", "coordinates": [111.299502, 30.698192]}, "properties": {"指标": "未达标配建养老服务设施的小区数量（个）", "中类": "公服设施", "board": "民生基础需求", "来源": "2025体检"}}, {"type": "Feature", "geometry": {"type": "Point", "coordinates": [111.287047, 30.723858]}, "properties": {"指标": "未达标配建婴幼儿照护服务设施的小区数量（个）", "中类": "公服设施", "board": "民生基础需求", "来源": "2025体检"}}, {"type": "Feature", "geometry": {"type": "Point", "coordinates": [111.268848, 30.717952]}, "properties": {"指标": "未达标配建婴幼儿照护服务设施的小区数量（个）", "中类": "公服设施", "board": "民生基础需求", "来源": "2025体检"}}, {"type": "Feature", "geometry": {"type": "Point", "coordinates": [111.26815, 30.717904]}, "properties": {"指标": "未达标配建婴幼儿照护服务设施的小区数量（个）", "中类": "公服设施", "board": "民生基础需求", "来源": "2025体检"}}, {"type": "Feature", "geometry": {"type": "Point", "coordinates": [111.308519, 30.743677]}, "properties": {"指标": "未达标配建婴幼儿照护服务设施的小区数量（个）", "中类": "公服设施", "board": "民生基础需求", "来源": "2025体检"}}, {"type": "Feature", "geometry": {"type": "Point", "coordinates": [111.372926, 30.664848]}, "properties": {"指标": "未达标配建婴幼儿照护服务设施的小区数量（个）", "中类": "公服设施", "board": "民生基础需求", "来源": "2025体检"}}, {"type": "Feature", "geometry": {"type": "Point", "coordinates": [111.280137, 30.69875]}, "properties": {"指标": "未达标配建婴幼儿照护服务设施的小区数量（个）", "中类": "公服设施", "board": "民生基础需求", "来源": "2025体检"}}, {"type": "Feature", "geometry": {"type": "Point", "coordinates": [111.323824, 30.72293]}, "properties": {"指标": "未达标配建婴幼儿照护服务设施的小区数量（个）", "中类": "公服设施", "board": "民生基础需求", "来源": "2025体检"}}, {"type": "Feature", "geometry": {"type": "Point", "coordinates": [111.287734, 30.72159]}, "properties": {"指标": "未达标配建婴幼儿照护服务设施的小区数量（个）", "中类": "公服设施", "board": "民生基础需求", "来源": "2025体检"}}, {"type": "Feature", "geometry": {"type": "Point", "coordinates": [111.364934, 30.637053]}, "properties": {"指标": "未达标配建婴幼儿照护服务设施的小区数量（个）", "中类": "公服设施", "board": "民生基础需求", "来源": "2025体检"}}, {"type": "Feature", "geometry": {"type": "Point", "coordinates": [111.324234, 30.725283]}, "properties": {"指标": "未达标配建婴幼儿照护服务设施的小区数量（个）", "中类": "公服设施", "board": "民生基础需求", "来源": "2025体检"}}, {"type": "Feature", "geometry": {"type": "Point", "coordinates": [111.308364, 30.704745]}, "properties": {"指标": "未达标配建婴幼儿照护服务设施的小区数量（个）", "中类": "公服设施", "board": "民生基础需求", "来源": "2025体检"}}, {"type": "Feature", "geometry": {"type": "Point", "coordinates": [111.330976, 30.666502]}, "properties": {"指标": "未达标配建婴幼儿照护服务设施的小区数量（个）", "中类": "公服设施", "board": "民生基础需求", "来源": "2025体检"}}, {"type": "Feature", "geometry": {"type": "Point", "coordinates": [111.287565, 30.72616]}, "properties": {"指标": "未达标配建婴幼儿照护服务设施的小区数量（个）", "中类": "公服设施", "board": "民生基础需求", "来源": "2025体检"}}, {"type": "Feature", "geometry": {"type": "Point", "coordinates": [111.334582, 30.724433]}, "properties": {"指标": "未达标配建婴幼儿照护服务设施的小区数量（个）", "中类": "公服设施", "board": "民生基础需求", "来源": "2025体检"}}, {"type": "Feature", "geometry": {"type": "Point", "coordinates": [111.317078, 30.699434]}, "properties": {"指标": "未达标配建婴幼儿照护服务设施的小区数量（个）", "中类": "公服设施", "board": "民生基础需求", "来源": "2025体检"}}, {"type": "Feature", "geometry": {"type": "Point", "coordinates": [111.347777, 30.644913]}, "properties": {"指标": "未达标配建婴幼儿照护服务设施的小区数量（个）", "中类": "公服设施", "board": "民生基础需求", "来源": "2025体检"}}, {"type": "Feature", "geometry": {"type": "Point", "coordinates": [111.288276, 30.737605]}, "properties": {"指标": "未达标配建婴幼儿照护服务设施的小区数量（个）", "中类": "公服设施", "board": "民生基础需求", "来源": "2025体检"}}, {"type": "Feature", "geometry": {"type": "Point", "coordinates": [111.287365, 30.720762]}, "properties": {"指标": "未达标配建婴幼儿照护服务设施的小区数量（个）", "中类": "公服设施", "board": "民生基础需求", "来源": "2025体检"}}, {"type": "Feature", "geometry": {"type": "Point", "coordinates": [111.357668, 30.635155]}, "properties": {"指标": "未达标配建婴幼儿照护服务设施的小区数量（个）", "中类": "公服设施", "board": "民生基础需求", "来源": "2025体检"}}, {"type": "Feature", "geometry": {"type": "Point", "coordinates": [111.268378, 30.71721]}, "properties": {"指标": "未达标配建婴幼儿照护服务设施的小区数量（个）", "中类": "公服设施", "board": "民生基础需求", "来源": "2025体检"}}, {"type": "Feature", "geometry": {"type": "Point", "coordinates": [111.375865, 30.664369]}, "properties": {"指标": "未达标配建婴幼儿照护服务设施的小区数量（个）", "中类": "公服设施", "board": "民生基础需求", "来源": "2025体检"}}, {"type": "Feature", "geometry": {"type": "Point", "coordinates": [111.308686, 30.67881]}, "properties": {"指标": "未达标配建婴幼儿照护服务设施的小区数量（个）", "中类": "公服设施", "board": "民生基础需求", "来源": "2025体检"}}, {"type": "Feature", "geometry": {"type": "Point", "coordinates": [111.287139, 30.725156]}, "properties": {"指标": "未达标配建婴幼儿照护服务设施的小区数量（个）", "中类": "公服设施", "board": "民生基础需求", "来源": "2025体检"}}, {"type": "Feature", "geometry": {"type": "Point", "coordinates": [111.360621, 30.636698]}, "properties": {"指标": "未达标配建婴幼儿照护服务设施的小区数量（个）", "中类": "公服设施", "board": "民生基础需求", "来源": "2025体检"}}, {"type": "Feature", "geometry": {"type": "Point", "coordinates": [111.268058, 30.718171]}, "properties": {"指标": "未达标配建婴幼儿照护服务设施的小区数量（个）", "中类": "公服设施", "board": "民生基础需求", "来源": "2025体检"}}, {"type": "Feature", "geometry": {"type": "Point", "coordinates": [111.353676, 30.643956]}, "properties": {"指标": "未达标配建婴幼儿照护服务设施的小区数量（个）", "中类": "公服设施", "board": "民生基础需求", "来源": "2025体检"}}, {"type": "Feature", "geometry": {"type": "Point", "coordinates": [111.301205, 30.730251]}, "properties": {"指标": "未达标配建婴幼儿照护服务设施的小区数量（个）", "中类": "公服设施", "board": "民生基础需求", "来源": "2025体检"}}, {"type": "Feature", "geometry": {"type": "Point", "coordinates": [111.282913, 30.725311]}, "properties": {"指标": "未达标配建婴幼儿照护服务设施的小区数量（个）", "中类": "公服设施", "board": "民生基础需求", "来源": "2025体检"}}, {"type": "Feature", "geometry": {"type": "Point", "coordinates": [111.268953, 30.71774]}, "properties": {"指标": "未达标配建婴幼儿照护服务设施的小区数量（个）", "中类": "公服设施", "board": "民生基础需求", "来源": "2025体检"}}, {"type": "Feature", "geometry": {"type": "Point", "coordinates": [111.310467, 30.696444]}, "properties": {"指标": "未达标配建婴幼儿照护服务设施的小区数量（个）", "中类": "公服设施", "board": "民生基础需求", "来源": "2025体检"}}, {"type": "Feature", "geometry": {"type": "Point", "coordinates": [111.293069, 30.725585]}, "properties": {"指标": "未达标配建婴幼儿照护服务设施的小区数量（个）", "中类": "公服设施", "board": "民生基础需求", "来源": "2025体检"}}, {"type": "Feature", "geometry": {"type": "Point", "coordinates": [111.273682, 30.728464]}, "properties": {"指标": "未达标配建婴幼儿照护服务设施的小区数量（个）", "中类": "公服设施", "board": "民生基础需求", "来源": "2025体检"}}, {"type": "Feature", "geometry": {"type": "Point", "coordinates": [111.319131, 30.723036]}, "properties": {"指标": "未达标配建婴幼儿照护服务设施的小区数量（个）", "中类": "公服设施", "board": "民生基础需求", "来源": "2025体检"}}, {"type": "Feature", "geometry": {"type": "Point", "coordinates": [111.375841, 30.676022]}, "properties": {"指标": "未达标配建婴幼儿照护服务设施的小区数量（个）", "中类": "公服设施", "board": "民生基础需求", "来源": "2025体检"}}, {"type": "Feature", "geometry": {"type": "Point", "coordinates": [111.358957, 30.635691]}, "properties": {"指标": "未达标配建幼儿园的小区数量（个）", "中类": "公服设施", "board": "民生基础需求", "来源": "2025体检"}}, {"type": "Feature", "geometry": {"type": "Point", "coordinates": [111.336623, 30.653542]}, "properties": {"指标": "未达标配建幼儿园的小区数量（个）", "中类": "公服设施", "board": "民生基础需求", "来源": "2025体检"}}, {"type": "Feature", "geometry": {"type": "Point", "coordinates": [111.288247, 30.737644]}, "properties": {"指标": "未达标配建幼儿园的小区数量（个）", "中类": "公服设施", "board": "民生基础需求", "来源": "2025体检"}}, {"type": "Feature", "geometry": {"type": "Point", "coordinates": [111.298939, 30.702173]}, "properties": {"指标": "未达标配建幼儿园的小区数量（个）", "中类": "公服设施", "board": "民生基础需求", "来源": "2025体检"}}, {"type": "Feature", "geometry": {"type": "Point", "coordinates": [111.288358, 30.708491]}, "properties": {"指标": "未达标配建幼儿园的小区数量（个）", "中类": "公服设施", "board": "民生基础需求", "来源": "2025体检"}}, {"type": "Feature", "geometry": {"type": "Point", "coordinates": [111.293234, 30.725247]}, "properties": {"指标": "未达标配建幼儿园的小区数量（个）", "中类": "公服设施", "board": "民生基础需求", "来源": "2025体检"}}, {"type": "Feature", "geometry": {"type": "Point", "coordinates": [111.28092, 30.700162]}, "properties": {"指标": "未达标配建幼儿园的小区数量（个）", "中类": "公服设施", "board": "民生基础需求", "来源": "2025体检"}}, {"type": "Feature", "geometry": {"type": "Point", "coordinates": [111.301205, 30.730251]}, "properties": {"指标": "未达标配建幼儿园的小区数量（个）", "中类": "公服设施", "board": "民生基础需求", "来源": "2025体检"}}, {"type": "Feature", "geometry": {"type": "Point", "coordinates": [111.361209, 30.632323]}, "properties": {"指标": "未达标配建幼儿园的小区数量（个）", "中类": "公服设施", "board": "民生基础需求", "来源": "2025体检"}}, {"type": "Feature", "geometry": {"type": "Point", "coordinates": [111.308364, 30.704745]}, "properties": {"指标": "未达标配建幼儿园的小区数量（个）", "中类": "公服设施", "board": "民生基础需求", "来源": "2025体检"}}, {"type": "Feature", "geometry": {"type": "Point", "coordinates": [111.278276, 30.717529]}, "properties": {"指标": "未达标配建幼儿园的小区数量（个）", "中类": "公服设施", "board": "民生基础需求", "来源": "2025体检"}}, {"type": "Feature", "geometry": {"type": "Point", "coordinates": [111.286553, 30.726235]}, "properties": {"指标": "未达标配建公共活动场地的小区数量（个）", "中类": "公服设施", "board": "民生基础需求", "来源": "2025体检"}}, {"type": "Feature", "geometry": {"type": "Point", "coordinates": [111.277961, 30.7174]}, "properties": {"指标": "未达标配建公共活动场地的小区数量（个）", "中类": "公服设施", "board": "民生基础需求", "来源": "2025体检"}}, {"type": "Feature", "geometry": {"type": "Point", "coordinates": [111.308552, 30.679138]}, "properties": {"指标": "未达标配建公共活动场地的小区数量（个）", "中类": "公服设施", "board": "民生基础需求", "来源": "2025体检"}}, {"type": "Feature", "geometry": {"type": "Point", "coordinates": [111.287147, 30.728159]}, "properties": {"指标": "未达标配建公共活动场地的小区数量（个）", "中类": "公服设施", "board": "民生基础需求", "来源": "2025体检"}}, {"type": "Feature", "geometry": {"type": "Point", "coordinates": [111.287152, 30.725304]}, "properties": {"指标": "未达标配建公共活动场地的小区数量（个）", "中类": "公服设施", "board": "民生基础需求", "来源": "2025体检"}}, {"type": "Feature", "geometry": {"type": "Point", "coordinates": [111.287695, 30.720483]}, "properties": {"指标": "未达标配建公共活动场地的小区数量（个）", "中类": "公服设施", "board": "民生基础需求", "来源": "2025体检"}}, {"type": "Feature", "geometry": {"type": "Point", "coordinates": [111.293918, 30.701329]}, "properties": {"指标": "未达标配建公共活动场地的小区数量（个）", "中类": "公服设施", "board": "民生基础需求", "来源": "2025体检"}}, {"type": "Feature", "geometry": {"type": "Point", "coordinates": [111.295341, 30.714256]}, "properties": {"指标": "未达标配建公共活动场地的小区数量（个）", "中类": "公服设施", "board": "民生基础需求", "来源": "2025体检"}}, {"type": "Feature", "geometry": {"type": "Point", "coordinates": [111.313016, 30.692943]}, "properties": {"指标": "未达标配建公共活动场地的小区数量（个）", "中类": "公服设施", "board": "民生基础需求", "来源": "2025体检"}}, {"type": "Feature", "geometry": {"type": "Point", "coordinates": [111.290042, 30.718507]}, "properties": {"指标": "未达标配建公共活动场地的小区数量（个）", "中类": "公服设施", "board": "民生基础需求", "来源": "2025体检"}}, {"type": "Feature", "geometry": {"type": "Point", "coordinates": [111.326865, 30.668877]}, "properties": {"指标": "未达标配建公共活动场地的小区数量（个）", "中类": "公服设施", "board": "民生基础需求", "来源": "2025体检"}}, {"type": "Feature", "geometry": {"type": "Point", "coordinates": [111.287868, 30.723497]}, "properties": {"指标": "未达标配建公共活动场地的小区数量（个）", "中类": "公服设施", "board": "民生基础需求", "来源": "2025体检"}}, {"type": "Feature", "geometry": {"type": "Point", "coordinates": [111.312096, 30.697705]}, "properties": {"指标": "未达标配建公共活动场地的小区数量（个）", "中类": "公服设施", "board": "民生基础需求", "来源": "2025体检"}}, {"type": "Feature", "geometry": {"type": "Point", "coordinates": [111.294813, 30.730043]}, "properties": {"指标": "未达标配建公共活动场地的小区数量（个）", "中类": "公服设施", "board": "民生基础需求", "来源": "2025体检"}}, {"type": "Feature", "geometry": {"type": "Point", "coordinates": [111.313889, 30.693335]}, "properties": {"指标": "未达标配建公共活动场地的小区数量（个）", "中类": "公服设施", "board": "民生基础需求", "来源": "2025体检"}}, {"type": "Feature", "geometry": {"type": "Point", "coordinates": [111.312852, 30.694533]}, "properties": {"指标": "未达标配建公共活动场地的小区数量（个）", "中类": "公服设施", "board": "民生基础需求", "来源": "2025体检"}}, {"type": "Feature", "geometry": {"type": "Point", "coordinates": [111.281317, 30.714159]}, "properties": {"指标": "未达标配建公共活动场地的小区数量（个）", "中类": "公服设施", "board": "民生基础需求", "来源": "2025体检"}}, {"type": "Feature", "geometry": {"type": "Point", "coordinates": [111.28735, 30.725051]}, "properties": {"指标": "未达标配建公共活动场地的小区数量（个）", "中类": "公服设施", "board": "民生基础需求", "来源": "2025体检"}}, {"type": "Feature", "geometry": {"type": "Point", "coordinates": [111.276502, 30.711097]}, "properties": {"指标": "未达标配建公共活动场地的小区数量（个）", "中类": "公服设施", "board": "民生基础需求", "来源": "2025体检"}}, {"type": "Feature", "geometry": {"type": "Point", "coordinates": [111.280665, 30.70558]}, "properties": {"指标": "未达标配建公共活动场地的小区数量（个）", "中类": "公服设施", "board": "民生基础需求", "来源": "2025体检"}}, {"type": "Feature", "geometry": {"type": "Point", "coordinates": [111.312695, 30.693943]}, "properties": {"指标": "未达标配建公共活动场地的小区数量（个）", "中类": "公服设施", "board": "民生基础需求", "来源": "2025体检"}}, {"type": "Feature", "geometry": {"type": "Point", "coordinates": [111.292238, 30.712703]}, "properties": {"指标": "未达标配建公共活动场地的小区数量（个）", "中类": "公服设施", "board": "民生基础需求", "来源": "2025体检"}}, {"type": "Feature", "geometry": {"type": "Point", "coordinates": [111.292296, 30.708608]}, "properties": {"指标": "未达标配建公共活动场地的小区数量（个）", "中类": "公服设施", "board": "民生基础需求", "来源": "2025体检"}}, {"type": "Feature", "geometry": {"type": "Point", "coordinates": [111.29099, 30.711809]}, "properties": {"指标": "未达标配建公共活动场地的小区数量（个）", "中类": "公服设施", "board": "民生基础需求", "来源": "2025体检"}}, {"type": "Feature", "geometry": {"type": "Point", "coordinates": [111.280201, 30.713934]}, "properties": {"指标": "未达标配建公共活动场地的小区数量（个）", "中类": "公服设施", "board": "民生基础需求", "来源": "2025体检"}}, {"type": "Feature", "geometry": {"type": "Point", "coordinates": [111.306115, 30.695919]}, "properties": {"指标": "未达标配建公共活动场地的小区数量（个）", "中类": "公服设施", "board": "民生基础需求", "来源": "2025体检"}}, {"type": "Feature", "geometry": {"type": "Point", "coordinates": [111.287553, 30.726095]}, "properties": {"指标": "未达标配建公共活动场地的小区数量（个）", "中类": "公服设施", "board": "民生基础需求", "来源": "2025体检"}}, {"type": "Feature", "geometry": {"type": "Point", "coordinates": [111.277063, 30.708885]}, "properties": {"指标": "未达标配建的多功能运动场地数量（个）", "中类": "公服设施", "board": "民生基础需求", "来源": "2025体检"}}, {"type": "Feature", "geometry": {"type": "Point", "coordinates": [111.287833, 30.737159]}, "properties": {"指标": "未达标配建的多功能运动场地数量（个）", "中类": "公服设施", "board": "民生基础需求", "来源": "2025体检"}}, {"type": "Feature", "geometry": {"type": "Point", "coordinates": [111.299037, 30.715993]}, "properties": {"指标": "未达标配建的多功能运动场地数量（个）", "中类": "公服设施", "board": "民生基础需求", "来源": "2025体检"}}, {"type": "Feature", "geometry": {"type": "Point", "coordinates": [111.292895, 30.691693]}, "properties": {"指标": "未达标配建的多功能运动场地数量（个）", "中类": "公服设施", "board": "民生基础需求", "来源": "2025体检"}}, {"type": "Feature", "geometry": {"type": "Point", "coordinates": [111.327652, 30.711453]}, "properties": {"指标": "未达标配建的多功能运动场地数量（个）", "中类": "公服设施", "board": "民生基础需求", "来源": "2025体检"}}, {"type": "Feature", "geometry": {"type": "Point", "coordinates": [111.412814, 30.684063]}, "properties": {"指标": "未达标配建的多功能运动场地数量（个）", "中类": "公服设施", "board": "民生基础需求", "来源": "2025体检"}}, {"type": "Feature", "geometry": {"type": "Point", "coordinates": [111.292154, 30.725751]}, "properties": {"指标": "小学学位缺口数（个）", "中类": "公服设施", "board": "民生基础需求", "来源": "2025体检"}}, {"type": "Feature", "geometry": {"type": "Point", "coordinates": [111.311984, 30.712816]}, "properties": {"指标": "小学学位缺口数（个）", "中类": "公服设施", "board": "民生基础需求", "来源": "2025体检"}}, {"type": "Feature", "geometry": {"type": "Point", "coordinates": [111.312214, 30.693164]}, "properties": {"指标": "小学学位缺口数（个）", "中类": "公服设施", "board": "民生基础需求", "来源": "2025体检"}}, {"type": "Feature", "geometry": {"type": "Point", "coordinates": [111.346173, 30.654735]}, "properties": {"指标": "小学学位缺口数（个）", "中类": "公服设施", "board": "民生基础需求", "来源": "2025体检"}}, {"type": "Feature", "geometry": {"type": "Point", "coordinates": [111.328774, 30.687685]}, "properties": {"指标": "小学学位缺口数（个）", "中类": "公服设施", "board": "民生基础需求", "来源": "2025体检"}}, {"type": "Feature", "geometry": {"type": "Point", "coordinates": [111.333306, 30.678151]}, "properties": {"指标": "小学学位缺口数（个）", "中类": "公服设施", "board": "民生基础需求", "来源": "2025体检"}}, {"type": "Feature", "geometry": {"type": "Point", "coordinates": [111.33782, 30.650274]}, "properties": {"指标": "小学学位缺口数（个）", "中类": "公服设施", "board": "民生基础需求", "来源": "2025体检"}}, {"type": "Feature", "geometry": {"type": "Point", "coordinates": [111.354742, 30.637896]}, "properties": {"指标": "小学学位缺口数（个）", "中类": "公服设施", "board": "民生基础需求", "来源": "2025体检"}}, {"type": "Feature", "geometry": {"type": "Point", "coordinates": [111.28223, 30.700821]}, "properties": {"指标": "小学学位缺口数（个）", "中类": "公服设施", "board": "民生基础需求", "来源": "2025体检"}}, {"type": "Feature", "geometry": {"type": "Point", "coordinates": [111.324998, 30.737895]}, "properties": {"指标": "小学学位缺口数（个）", "中类": "公服设施", "board": "民生基础需求", "来源": "2025体检"}}, {"type": "Feature", "geometry": {"type": "Point", "coordinates": [111.290643, 30.728211]}, "properties": {"指标": "小学学位缺口数（个）", "中类": "公服设施", "board": "民生基础需求", "来源": "2025体检"}}, {"type": "Feature", "geometry": {"type": "Point", "coordinates": [111.362917, 30.639784]}, "properties": {"指标": "小学学位缺口数（个）", "中类": "公服设施", "board": "民生基础需求", "来源": "2025体检"}}, {"type": "Feature", "geometry": {"type": "Point", "coordinates": [111.317379, 30.672542]}, "properties": {"指标": "小学学位缺口数（个）", "中类": "公服设施", "board": "民生基础需求", "来源": "2025体检"}}, {"type": "Feature", "geometry": {"type": "Point", "coordinates": [111.296162, 30.706904]}, "properties": {"指标": "小学学位缺口数（个）", "中类": "公服设施", "board": "民生基础需求", "来源": "2025体检"}}, {"type": "Feature", "geometry": {"type": "Point", "coordinates": [111.283691, 30.69368]}, "properties": {"指标": "小学学位缺口数（个）", "中类": "公服设施", "board": "民生基础需求", "来源": "2025体检"}}, {"type": "Feature", "geometry": {"type": "Point", "coordinates": [111.311895, 30.746311]}, "properties": {"指标": "小学学位缺口数（个）", "中类": "公服设施", "board": "民生基础需求", "来源": "2025体检"}}, {"type": "Feature", "geometry": {"type": "Point", "coordinates": [111.282098, 30.715337]}, "properties": {"指标": "小学学位缺口数（个）", "中类": "公服设施", "board": "民生基础需求", "来源": "2025体检"}}, {"type": "Feature", "geometry": {"type": "Point", "coordinates": [111.348496, 30.642739]}, "properties": {"指标": "小学学位缺口数（个）", "中类": "公服设施", "board": "民生基础需求", "来源": "2025体检"}}, {"type": "Feature", "geometry": {"type": "Point", "coordinates": [111.302927, 30.689634]}, "properties": {"指标": "小学学位缺口数（个）", "中类": "公服设施", "board": "民生基础需求", "来源": "2025体检"}}, {"type": "Feature", "geometry": {"type": "Point", "coordinates": [111.344545, 30.673571]}, "properties": {"指标": "小学学位缺口数（个）", "中类": "公服设施", "board": "民生基础需求", "来源": "2025体检"}}, {"type": "Feature", "geometry": {"type": "Point", "coordinates": [111.29178, 30.715197]}, "properties": {"指标": "小学学位缺口数（个）", "中类": "公服设施", "board": "民生基础需求", "来源": "2025体检"}}, {"type": "Feature", "geometry": {"type": "Point", "coordinates": [111.297322, 30.718173]}, "properties": {"指标": "小学学位缺口数（个）", "中类": "公服设施", "board": "民生基础需求", "来源": "2025体检"}}, {"type": "Feature", "geometry": {"type": "Point", "coordinates": [111.315732, 30.704321]}, "properties": {"指标": "小学学位缺口数（个）", "中类": "公服设施", "board": "民生基础需求", "来源": "2025体检"}}, {"type": "Feature", "geometry": {"type": "Point", "coordinates": [111.274938, 30.722273]}, "properties": {"指标": "小学学位缺口数（个）", "中类": "公服设施", "board": "民生基础需求", "来源": "2025体检"}}, {"type": "Feature", "geometry": {"type": "Point", "coordinates": [111.334876, 30.711119]}, "properties": {"指标": "小学学位缺口数（个）", "中类": "公服设施", "board": "民生基础需求", "来源": "2025体检"}}, {"type": "Feature", "geometry": {"type": "Point", "coordinates": [111.282806, 30.707616]}, "properties": {"指标": "小学学位缺口数（个）", "中类": "公服设施", "board": "民生基础需求", "来源": "2025体检"}}, {"type": "Feature", "geometry": {"type": "Point", "coordinates": [111.275553, 30.710184]}, "properties": {"指标": "小学学位缺口数（个）", "中类": "公服设施", "board": "民生基础需求", "来源": "2025体检"}}, {"type": "Feature", "geometry": {"type": "Point", "coordinates": [111.279739, 30.719147]}, "properties": {"指标": "小学学位缺口数（个）", "中类": "公服设施", "board": "民生基础需求", "来源": "2025体检"}}, {"type": "Feature", "geometry": {"type": "Point", "coordinates": [111.28661, 30.697143]}, "properties": {"指标": "小学学位缺口数（个）", "中类": "公服设施", "board": "民生基础需求", "来源": "2025体检"}}, {"type": "Feature", "geometry": {"type": "Point", "coordinates": [111.295279, 30.73008]}, "properties": {"指标": "小学学位缺口数（个）", "中类": "公服设施", "board": "民生基础需求", "来源": "2025体检"}}, {"type": "Feature", "geometry": {"type": "Point", "coordinates": [111.37273, 30.650174]}, "properties": {"指标": "小学学位缺口数（个）", "中类": "公服设施", "board": "民生基础需求", "来源": "2025体检"}}, {"type": "Feature", "properties": {"指标": "未达标配建养老服务设施的小区数量（个）", "中类": "公服设施", "board": "民生基础需求", "来源": "2026补充", "原图层": "未达标配建养老服务设施的社区数量", "社区": "五龙社区"}, "geometry": {"type": "Point", "coordinates": [111.26927797300004, 30.677887224000074]}}, {"type": "Feature", "properties": {"指标": "未达标配建养老服务设施的小区数量（个）", "中类": "公服设施", "board": "民生基础需求", "来源": "2026补充", "原图层": "未达标配建养老服务设施的社区数量", "社区": "下马槽社区"}, "geometry": {"type": "Point", "coordinates": [111.45223473400006, 30.495463593000068]}}, {"type": "Feature", "properties": {"指标": "未达标配建养老服务设施的小区数量（个）", "中类": "公服设施", "board": "民生基础需求", "来源": "2026补充", "原图层": "未达标配建养老服务设施的社区数量", "社区": "云池社区"}, "geometry": {"type": "Point", "coordinates": [111.45662845300006, 30.487571970000033]}}, {"type": "Feature", "properties": {"指标": "未达标配建养老服务设施的小区数量（个）", "中类": "公服设施", "board": "民生基础需求", "来源": "2026补充", "原图层": "未达标配建养老服务设施的社区数量", "社区": "云池社区"}, "geometry": {"type": "Point", "coordinates": [111.45285688900009, 30.48100978800005]}}, {"type": "Feature", "properties": {"指标": "未达标配建养老服务设施的小区数量（个）", "中类": "公服设施", "board": "民生基础需求", "来源": "2026补充", "原图层": "未达标配建养老服务设施的社区数量", "社区": "云池社区"}, "geometry": {"type": "Point", "coordinates": [111.45451647300007, 30.476589928000067]}}, {"type": "Feature", "properties": {"指标": "未达标配建养老服务设施的小区数量（个）", "中类": "公服设施", "board": "民生基础需求", "来源": "2026补充", "原图层": "未达标配建养老服务设施的社区数量", "社区": "云池社区"}, "geometry": {"type": "Point", "coordinates": [111.46252688500005, 30.48963553200008]}}, {"type": "Feature", "properties": {"指标": "未达标配建养老服务设施的小区数量（个）", "中类": "公服设施", "board": "民生基础需求", "来源": "2026补充", "原图层": "未达标配建养老服务设施的社区数量", "社区": "云池社区"}, "geometry": {"type": "Point", "coordinates": [111.46045338700009, 30.48593414000004]}}, {"type": "Feature", "properties": {"指标": "未达标配建养老服务设施的小区数量（个）", "中类": "公服设施", "board": "民生基础需求", "来源": "2026补充", "原图层": "未达标配建养老服务设施的社区数量", "社区": "云池社区"}, "geometry": {"type": "Point", "coordinates": [111.45275090800004, 30.48062062300005]}}, {"type": "Feature", "properties": {"指标": "未达标配建养老服务设施的小区数量（个）", "中类": "公服设施", "board": "民生基础需求", "来源": "2026补充", "原图层": "未达标配建养老服务设施的社区数量", "社区": "云池社区"}, "geometry": {"type": "Point", "coordinates": [111.45561408300006, 30.482549522000056]}}, {"type": "Feature", "properties": {"指标": "未达标配建养老服务设施的小区数量（个）", "中类": "公服设施", "board": "民生基础需求", "来源": "2026补充", "原图层": "未达标配建养老服务设施的社区数量", "社区": "云池社区"}, "geometry": {"type": "Point", "coordinates": [111.45275920400007, 30.484454764000077]}}, {"type": "Feature", "properties": {"指标": "未达标配建婴幼儿照护服务设施的小区数量（个）", "中类": "公服设施", "board": "民生基础需求", "来源": "2026补充", "原图层": "未达标配建婴幼儿照护服务设施的社区数量", "社区": "下马槽社区"}, "geometry": {"type": "Point", "coordinates": [111.45261818300008, 30.495606417000033]}}, {"type": "Feature", "properties": {"指标": "未达标配建婴幼儿照护服务设施的小区数量（个）", "中类": "公服设施", "board": "民生基础需求", "来源": "2026补充", "原图层": "未达标配建婴幼儿照护服务设施的社区数量", "社区": "云池社区"}, "geometry": {"type": "Point", "coordinates": [111.45565683900008, 30.48242055700007]}}, {"type": "Feature", "properties": {"指标": "未达标配建婴幼儿照护服务设施的小区数量（个）", "中类": "公服设施", "board": "民生基础需求", "来源": "2026补充", "原图层": "未达标配建婴幼儿照护服务设施的社区数量", "社区": "云池社区"}, "geometry": {"type": "Point", "coordinates": [111.45598832900004, 30.48479843100006]}}, {"type": "Feature", "properties": {"指标": "未达标配建婴幼儿照护服务设施的小区数量（个）", "中类": "公服设施", "board": "民生基础需求", "来源": "2026补充", "原图层": "未达标配建婴幼儿照护服务设施的社区数量", "社区": "云池社区"}, "geometry": {"type": "Point", "coordinates": [111.45650268100007, 30.48758745300006]}}, {"type": "Feature", "properties": {"指标": "未达标配建婴幼儿照护服务设施的小区数量（个）", "中类": "公服设施", "board": "民生基础需求", "来源": "2026补充", "原图层": "未达标配建婴幼儿照护服务设施的社区数量", "社区": "云池社区"}, "geometry": {"type": "Point", "coordinates": [111.46261988100008, 30.489589740000042]}}, {"type": "Feature", "properties": {"指标": "未达标配建婴幼儿照护服务设施的小区数量（个）", "中类": "公服设施", "board": "民生基础需求", "来源": "2026补充", "原图层": "未达标配建婴幼儿照护服务设施的社区数量", "社区": "云池社区"}, "geometry": {"type": "Point", "coordinates": [111.45452692400005, 30.476499862000026]}}, {"type": "Feature", "properties": {"指标": "未达标配建婴幼儿照护服务设施的小区数量（个）", "中类": "公服设施", "board": "民生基础需求", "来源": "2026补充", "原图层": "未达标配建婴幼儿照护服务设施的社区数量", "社区": "云池社区"}, "geometry": {"type": "Point", "coordinates": [111.46030167900005, 30.48594382400006]}}, {"type": "Feature", "properties": {"指标": "未达标配建婴幼儿照护服务设施的小区数量（个）", "中类": "公服设施", "board": "民生基础需求", "来源": "2026补充", "原图层": "未达标配建婴幼儿照护服务设施的社区数量", "社区": "云池社区"}, "geometry": {"type": "Point", "coordinates": [111.45271019200004, 30.484152065000046]}}, {"type": "Feature", "properties": {"指标": "未达标配建婴幼儿照护服务设施的小区数量（个）", "中类": "公服设施", "board": "民生基础需求", "来源": "2026补充", "原图层": "未达标配建婴幼儿照护服务设施的社区数量", "社区": "云池社区"}, "geometry": {"type": "Point", "coordinates": [111.45290296800005, 30.48099390400006]}}, {"type": "Feature", "properties": {"指标": "未达标配建公共活动场地的小区数量（个）", "中类": "公服设施", "board": "民生基础需求", "来源": "2026补充", "原图层": "未达标配建公共活动场地的社区数量", "社区": "蔡家畈社区"}, "geometry": {"type": "Point", "coordinates": [111.42897072800008, 30.537732645000062]}}, {"type": "Feature", "properties": {"指标": "未达标配建公共活动场地的小区数量（个）", "中类": "公服设施", "board": "民生基础需求", "来源": "2026补充", "原图层": "未达标配建公共活动场地的社区数量", "社区": "蔡家畈社区"}, "geometry": {"type": "Point", "coordinates": [111.42918586800005, 30.539573681000036]}}, {"type": "Feature", "properties": {"指标": "未达标配建公共活动场地的小区数量（个）", "中类": "公服设施", "board": "民生基础需求", "来源": "2026补充", "原图层": "未达标配建公共活动场地的社区数量"}, "geometry": {"type": "Point", "coordinates": [111.32138040800004, 30.770382676000054]}}, {"type": "Feature", "properties": {"指标": "未达标配建公共活动场地的小区数量（个）", "中类": "公服设施", "board": "民生基础需求", "来源": "2026补充", "原图层": "未达标配建公共活动场地的社区数量", "社区": "古老背社区"}, "geometry": {"type": "Point", "coordinates": [111.41255554800006, 30.529236136000065]}}, {"type": "Feature", "properties": {"指标": "未达标配建公共活动场地的小区数量（个）", "中类": "公服设施", "board": "民生基础需求", "来源": "2026补充", "原图层": "未达标配建公共活动场地的社区数量", "社区": "红光社区"}, "geometry": {"type": "Point", "coordinates": [111.28224767500006, 30.67759122500007]}}, {"type": "Feature", "properties": {"指标": "未达标配建公共活动场地的小区数量（个）", "中类": "公服设施", "board": "民生基础需求", "来源": "2026补充", "原图层": "未达标配建公共活动场地的社区数量", "社区": "红光社区"}, "geometry": {"type": "Point", "coordinates": [111.28360653100009, 30.677417220000052]}}, {"type": "Feature", "properties": {"指标": "未达标配建公共活动场地的小区数量（个）", "中类": "公服设施", "board": "民生基础需求", "来源": "2026补充", "原图层": "未达标配建公共活动场地的社区数量", "社区": "虎牙社区"}, "geometry": {"type": "Point", "coordinates": [111.39833034800006, 30.567691255000057]}}, {"type": "Feature", "properties": {"指标": "未达标配建公共活动场地的小区数量（个）", "中类": "公服设施", "board": "民生基础需求", "来源": "2026补充", "原图层": "未达标配建公共活动场地的社区数量", "社区": "梅子溪社区"}, "geometry": {"type": "Point", "coordinates": [111.26813890100004, 30.67317196500005]}}, {"type": "Feature", "properties": {"指标": "未达标配建公共活动场地的小区数量（个）", "中类": "公服设施", "board": "民生基础需求", "来源": "2026补充", "原图层": "未达标配建公共活动场地的社区数量", "社区": "梅子溪社区"}, "geometry": {"type": "Point", "coordinates": [111.27165318400006, 30.673030506000032]}}, {"type": "Feature", "properties": {"指标": "未达标配建公共活动场地的小区数量（个）", "中类": "公服设施", "board": "民生基础需求", "来源": "2026补充", "原图层": "未达标配建公共活动场地的社区数量", "社区": "磨盘社区"}, "geometry": {"type": "Point", "coordinates": [111.41392952900009, 30.589726281000026]}}, {"type": "Feature", "properties": {"指标": "未达标配建公共活动场地的小区数量（个）", "中类": "公服设施", "board": "民生基础需求", "来源": "2026补充", "原图层": "未达标配建公共活动场地的社区数量", "社区": "平云社区"}, "geometry": {"type": "Point", "coordinates": [111.33562424300004, 30.78001211800006]}}, {"type": "Feature", "properties": {"指标": "未达标配建公共活动场地的小区数量（个）", "中类": "公服设施", "board": "民生基础需求", "来源": "2026补充", "原图层": "未达标配建公共活动场地的社区数量", "社区": "润城社区"}, "geometry": {"type": "Point", "coordinates": [111.34039945800004, 30.75768515900006]}}, {"type": "Feature", "properties": {"指标": "未达标配建公共活动场地的小区数量（个）", "中类": "公服设施", "board": "民生基础需求", "来源": "2026补充", "原图层": "未达标配建公共活动场地的社区数量", "社区": "润城社区"}, "geometry": {"type": "Point", "coordinates": [111.34191802400005, 30.759740204000025]}}, {"type": "Feature", "properties": {"指标": "未达标配建公共活动场地的小区数量（个）", "中类": "公服设施", "board": "民生基础需求", "来源": "2026补充", "原图层": "未达标配建公共活动场地的社区数量", "社区": "谭家河社区"}, "geometry": {"type": "Point", "coordinates": [111.28861970100007, 30.654317182000057]}}, {"type": "Feature", "properties": {"指标": "未达标配建公共活动场地的小区数量（个）", "中类": "公服设施", "board": "民生基础需求", "来源": "2026补充", "原图层": "未达标配建公共活动场地的社区数量", "社区": "五龙社区"}, "geometry": {"type": "Point", "coordinates": [111.26988157800008, 30.677544966000028]}}, {"type": "Feature", "properties": {"指标": "未达标配建公共活动场地的小区数量（个）", "中类": "公服设施", "board": "民生基础需求", "来源": "2026补充", "原图层": "未达标配建公共活动场地的社区数量", "社区": "五龙社区"}, "geometry": {"type": "Point", "coordinates": [111.27519986300007, 30.680037121000055]}}, {"type": "Feature", "properties": {"指标": "未达标配建公共活动场地的小区数量（个）", "中类": "公服设施", "board": "民生基础需求", "来源": "2026补充", "原图层": "未达标配建公共活动场地的社区数量", "社区": "五龙社区"}, "geometry": {"type": "Point", "coordinates": [111.25621896300004, 30.67650063600007]}}, {"type": "Feature", "properties": {"指标": "未达标配建公共活动场地的小区数量（个）", "中类": "公服设施", "board": "民生基础需求", "来源": "2026补充", "原图层": "未达标配建公共活动场地的社区数量", "社区": "五龙社区"}, "geometry": {"type": "Point", "coordinates": [111.26270014600004, 30.675740517000065]}}, {"type": "Feature", "properties": {"指标": "未达标配建公共活动场地的小区数量（个）", "中类": "公服设施", "board": "民生基础需求", "来源": "2026补充", "原图层": "未达标配建公共活动场地的社区数量", "社区": "五龙社区"}, "geometry": {"type": "Point", "coordinates": [111.26772287300008, 30.675210406000076]}}, {"type": "Feature", "properties": {"指标": "未达标配建公共活动场地的小区数量（个）", "中类": "公服设施", "board": "民生基础需求", "来源": "2026补充", "原图层": "未达标配建公共活动场地的社区数量", "社区": "峡江社区"}, "geometry": {"type": "Point", "coordinates": [111.29967655200005, 30.77277308500004]}}, {"type": "Feature", "properties": {"指标": "未达标配建公共活动场地的小区数量（个）", "中类": "公服设施", "board": "民生基础需求", "来源": "2026补充", "原图层": "未达标配建公共活动场地的社区数量", "社区": "峡江社区"}, "geometry": {"type": "Point", "coordinates": [111.30183542700007, 30.770895130000042]}}, {"type": "Feature", "properties": {"指标": "未达标配建公共活动场地的小区数量（个）", "中类": "公服设施", "board": "民生基础需求", "来源": "2026补充", "原图层": "未达标配建公共活动场地的社区数量", "社区": "峡江社区"}, "geometry": {"type": "Point", "coordinates": [111.30200161300007, 30.771882769000058]}}, {"type": "Feature", "properties": {"指标": "未达标配建公共活动场地的小区数量（个）", "中类": "公服设施", "board": "民生基础需求", "来源": "2026补充", "原图层": "未达标配建公共活动场地的社区数量", "社区": "峡江社区"}, "geometry": {"type": "Point", "coordinates": [111.30245301100007, 30.770646890000023]}}, {"type": "Feature", "properties": {"指标": "未达标配建公共活动场地的小区数量（个）", "中类": "公服设施", "board": "民生基础需求", "来源": "2026补充", "原图层": "未达标配建公共活动场地的社区数量", "社区": "峡江社区"}, "geometry": {"type": "Point", "coordinates": [111.29599786600005, 30.77474851000005]}}, {"type": "Feature", "properties": {"指标": "未达标配建公共活动场地的小区数量（个）", "中类": "公服设施", "board": "民生基础需求", "来源": "2026补充", "原图层": "未达标配建公共活动场地的社区数量", "社区": "峡江社区"}, "geometry": {"type": "Point", "coordinates": [111.30208364000003, 30.771466305000047]}}, {"type": "Feature", "properties": {"指标": "未达标配建公共活动场地的小区数量（个）", "中类": "公服设施", "board": "民生基础需求", "来源": "2026补充", "原图层": "未达标配建公共活动场地的社区数量", "社区": "峡江社区"}, "geometry": {"type": "Point", "coordinates": [111.30233966300005, 30.771568820000027]}}, {"type": "Feature", "properties": {"指标": "未达标配建公共活动场地的小区数量（个）", "中类": "公服设施", "board": "民生基础需求", "来源": "2026补充", "原图层": "未达标配建公共活动场地的社区数量", "社区": "峡江社区"}, "geometry": {"type": "Point", "coordinates": [111.29741810300004, 30.769844523000074]}}, {"type": "Feature", "properties": {"指标": "未达标配建公共活动场地的小区数量（个）", "中类": "公服设施", "board": "民生基础需求", "来源": "2026补充", "原图层": "未达标配建公共活动场地的社区数量", "社区": "峡江社区"}, "geometry": {"type": "Point", "coordinates": [111.30125591500007, 30.77140864100005]}}, {"type": "Feature", "properties": {"指标": "未达标配建公共活动场地的小区数量（个）", "中类": "公服设施", "board": "民生基础需求", "来源": "2026补充", "原图层": "未达标配建公共活动场地的社区数量", "社区": "峡江社区"}, "geometry": {"type": "Point", "coordinates": [111.30115875600006, 30.76846663200007]}}, {"type": "Feature", "properties": {"指标": "未达标配建公共活动场地的小区数量（个）", "中类": "公服设施", "board": "民生基础需求", "来源": "2026补充", "原图层": "未达标配建公共活动场地的社区数量", "社区": "营盘社区"}, "geometry": {"type": "Point", "coordinates": [111.33193225400004, 30.77564134200003]}}, {"type": "Feature", "properties": {"指标": "未达标配建公共活动场地的小区数量（个）", "中类": "公服设施", "board": "民生基础需求", "来源": "2026补充", "原图层": "未达标配建公共活动场地的社区数量", "社区": "长江市场社区"}, "geometry": {"type": "Point", "coordinates": [111.29657351300006, 30.766177300000038]}}, {"type": "Feature", "properties": {"指标": "未达标配建公共活动场地的小区数量（个）", "中类": "公服设施", "board": "民生基础需求", "来源": "2026补充", "原图层": "未达标配建公共活动场地的社区数量", "社区": "长江市场社区"}, "geometry": {"type": "Point", "coordinates": [111.29876424800005, 30.76586713000006]}}, {"type": "Feature", "properties": {"指标": "未达标配建公共活动场地的小区数量（个）", "中类": "公服设施", "board": "民生基础需求", "来源": "2026补充", "原图层": "未达标配建公共活动场地的社区数量", "社区": "至喜社区"}, "geometry": {"type": "Point", "coordinates": [111.25947701800004, 30.738448023000046]}}, {"type": "Feature", "properties": {"指标": "未达标配建公共活动场地的小区数量（个）", "中类": "公服设施", "board": "民生基础需求", "来源": "2026补充", "原图层": "未达标配建公共活动场地的社区数量", "社区": "至喜社区"}, "geometry": {"type": "Point", "coordinates": [111.25848389800007, 30.740594878000024]}}, {"type": "Feature", "properties": {"指标": "未达标配建公共活动场地的小区数量（个）", "中类": "公服设施", "board": "民生基础需求", "来源": "2026补充", "原图层": "未达标配建公共活动场地的社区数量", "社区": "至喜社区"}, "geometry": {"type": "Point", "coordinates": [111.25546876000004, 30.737616569000068]}}]}