{"type": "FeatureCollection", "features": [{"type": "Feature", "properties": {"指标": "不达标的步行道长度（千米）", "中类": "交通设施", "board": "民生基础需求", "来源": "2026补充", "原图层": "不达标的步行道长度", "社区": "东城社区"}, "geometry": {"type": "Point", "coordinates": [111.31776317000003, 30.767662820000055]}}, {"type": "Feature", "properties": {"指标": "不达标的步行道长度（千米）", "中类": "交通设施", "board": "民生基础需求", "来源": "2026补充", "原图层": "不达标的步行道长度", "社区": "古老背社区"}, "geometry": {"type": "Point", "coordinates": [111.41253727300005, 30.529239284000028]}}, {"type": "Feature", "properties": {"指标": "不达标的步行道长度（千米）", "中类": "交通设施", "board": "民生基础需求", "来源": "2026补充", "原图层": "不达标的步行道长度", "社区": "虎牙社区"}, "geometry": {"type": "Point", "coordinates": [111.39825536100005, 30.567503428000066]}}, {"type": "Feature", "properties": {"指标": "不达标的步行道长度（千米）", "中类": "交通设施", "board": "民生基础需求", "来源": "2026补充", "原图层": "不达标的步行道长度", "社区": "鸡山社区"}, "geometry": {"type": "Point", "coordinates": [111.44527761800003, 30.55277929500005]}}, {"type": "Feature", "properties": {"指标": "不达标的步行道长度（千米）", "中类": "交通设施", "board": "民生基础需求", "来源": "2026补充", "原图层": "不达标的步行道长度", "社区": "磨盘社区"}, "geometry": {"type": "Point", "coordinates": [111.41383194300005, 30.58866220500005]}}, {"type": "Feature", "properties": {"指标": "不达标的步行道长度（千米）", "中类": "交通设施", "board": "民生基础需求", "来源": "2026补充", "原图层": "不达标的步行道长度", "社区": "五龙社区"}, "geometry": {"type": "Point", "coordinates": [111.27477589400007, 30.68031059100008]}}, {"type": "Feature", "properties": {"指标": "不达标的步行道长度（千米）", "中类": "交通设施", "board": "民生基础需求", "来源": "2026补充", "原图层": "不达标的步行道长度", "社区": "五龙社区"}, "geometry": {"type": "Point", "coordinates": [111.26927697800005, 30.67788564700004]}}, {"type": "Feature", "properties": {"指标": "不达标的步行道长度（千米）", "中类": "交通设施", "board": "民生基础需求", "来源": "2026补充", "原图层": "不达标的步行道长度", "社区": "五龙社区"}, "geometry": {"type": "Point", "coordinates": [111.26292856200007, 30.675691404000077]}}, {"type": "Feature", "properties": {"指标": "不达标的步行道长度（千米）", "中类": "交通设施", "board": "民生基础需求", "来源": "2026补充", "原图层": "不达标的步行道长度", "社区": "至喜社区"}, "geometry": {"type": "Point", "coordinates": [111.25951951600007, 30.738484550000067]}}, {"type": "Feature", "properties": {"指标": "不达标的步行道长度（千米）", "中类": "交通设施", "board": "民生基础需求", "来源": "2026补充", "原图层": "不达标的步行道长度", "社区": "至喜社区"}, "geometry": {"type": "Point", "coordinates": [111.25546876000004, 30.737585787000057]}}, {"type": "Feature", "properties": {"指标": "不达标的步行道长度（千米）", "中类": "交通设施", "board": "民生基础需求", "来源": "2026补充", "原图层": "不达标的步行道长度", "社区": "至喜社区"}, "geometry": {"type": "Point", "coordinates": [111.25859173800006, 30.740492921000055]}}]}