{"type": "FeatureCollection", "features": [{"type": "Feature", "properties": {"指标": "停车泊位缺口数（个）", "中类": "停车设施", "board": "民生基础需求", "来源": "2026补充", "原图层": "停车泊位存在较大缺口的小区数", "社区": "朝阳社区"}, "geometry": {"type": "Point", "coordinates": [111.32920454200007, 30.78148258400006]}}, {"type": "Feature", "properties": {"指标": "停车泊位缺口数（个）", "中类": "停车设施", "board": "民生基础需求", "来源": "2026补充", "原图层": "停车泊位存在较大缺口的小区数", "社区": "朝阳社区"}, "geometry": {"type": "Point", "coordinates": [111.33051154400005, 30.779103081000073]}}, {"type": "Feature", "properties": {"指标": "停车泊位缺口数（个）", "中类": "停车设施", "board": "民生基础需求", "来源": "2026补充", "原图层": "停车泊位存在较大缺口的小区数", "社区": "朝阳社区"}, "geometry": {"type": "Point", "coordinates": [111.32985405500006, 30.779343063000056]}}, {"type": "Feature", "properties": {"指标": "停车泊位缺口数（个）", "中类": "停车设施", "board": "民生基础需求", "来源": "2026补充", "原图层": "停车泊位存在较大缺口的小区数", "社区": "东城社区"}, "geometry": {"type": "Point", "coordinates": [111.32360007500006, 30.768363875000034]}}, {"type": "Feature", "properties": {"指标": "停车泊位缺口数（个）", "中类": "停车设施", "board": "民生基础需求", "来源": "2026补充", "原图层": "停车泊位存在较大缺口的小区数", "社区": "东城社区"}, "geometry": {"type": "Point", "coordinates": [111.31760974200006, 30.767660070000034]}}, {"type": "Feature", "properties": {"指标": "停车泊位缺口数（个）", "中类": "停车设施", "board": "民生基础需求", "来源": "2026补充", "原图层": "停车泊位存在较大缺口的小区数"}, "geometry": {"type": "Point", "coordinates": [111.32204350800004, 30.770201677000045]}}, {"type": "Feature", "properties": {"指标": "停车泊位缺口数（个）", "中类": "停车设施", "board": "民生基础需求", "来源": "2026补充", "原图层": "停车泊位存在较大缺口的小区数", "社区": "港虹社区"}, "geometry": {"type": "Point", "coordinates": [111.30338821000004, 30.768635475000053]}}, {"type": "Feature", "properties": {"指标": "停车泊位缺口数（个）", "中类": "停车设施", "board": "民生基础需求", "来源": "2026补充", "原图层": "停车泊位存在较大缺口的小区数", "社区": "港虹社区"}, "geometry": {"type": "Point", "coordinates": [111.30463421000007, 30.767405156000052]}}, {"type": "Feature", "properties": {"指标": "停车泊位缺口数（个）", "中类": "停车设施", "board": "民生基础需求", "来源": "2026补充", "原图层": "停车泊位存在较大缺口的小区数", "社区": "红光社区"}, "geometry": {"type": "Point", "coordinates": [111.28292232000007, 30.677222723000057]}}, {"type": "Feature", "properties": {"指标": "停车泊位缺口数（个）", "中类": "停车设施", "board": "民生基础需求", "来源": "2026补充", "原图层": "停车泊位存在较大缺口的小区数", "社区": "红光社区"}, "geometry": {"type": "Point", "coordinates": [111.28305919800005, 30.67711808100006]}}, {"type": "Feature", "properties": {"指标": "停车泊位缺口数（个）", "中类": "停车设施", "board": "民生基础需求", "来源": "2026补充", "原图层": "停车泊位存在较大缺口的小区数", "社区": "红光社区"}, "geometry": {"type": "Point", "coordinates": [111.28225010000006, 30.67759681700005]}}, {"type": "Feature", "properties": {"指标": "停车泊位缺口数（个）", "中类": "停车设施", "board": "民生基础需求", "来源": "2026补充", "原图层": "停车泊位存在较大缺口的小区数", "社区": "红光社区"}, "geometry": {"type": "Point", "coordinates": [111.28362191600007, 30.677392766000025]}}, {"type": "Feature", "properties": {"指标": "停车泊位缺口数（个）", "中类": "停车设施", "board": "民生基础需求", "来源": "2026补充", "原图层": "停车泊位存在较大缺口的小区数", "社区": "虎牙社区"}, "geometry": {"type": "Point", "coordinates": [111.39832781000007, 30.567580761000045]}}, {"type": "Feature", "properties": {"指标": "停车泊位缺口数（个）", "中类": "停车设施", "board": "民生基础需求", "来源": "2026补充", "原图层": "停车泊位存在较大缺口的小区数", "社区": "鸡山社区"}, "geometry": {"type": "Point", "coordinates": [111.44523833600005, 30.552872501000024]}}, {"type": "Feature", "properties": {"指标": "停车泊位缺口数（个）", "中类": "停车设施", "board": "民生基础需求", "来源": "2026补充", "原图层": "停车泊位存在较大缺口的小区数", "社区": "锦江社区"}, "geometry": {"type": "Point", "coordinates": [111.34020201500005, 30.74770435000005]}}, {"type": "Feature", "properties": {"指标": "停车泊位缺口数（个）", "中类": "停车设施", "board": "民生基础需求", "来源": "2026补充", "原图层": "停车泊位存在较大缺口的小区数", "社区": "六泉湖社区"}, "geometry": {"type": "Point", "coordinates": [111.45094162100008, 30.557809280000072]}}, {"type": "Feature", "properties": {"指标": "停车泊位缺口数（个）", "中类": "停车设施", "board": "民生基础需求", "来源": "2026补充", "原图层": "停车泊位存在较大缺口的小区数", "社区": "绿洲社区"}, "geometry": {"type": "Point", "coordinates": [111.33845134800004, 30.76754650500004]}}, {"type": "Feature", "properties": {"指标": "停车泊位缺口数（个）", "中类": "停车设施", "board": "民生基础需求", "来源": "2026补充", "原图层": "停车泊位存在较大缺口的小区数", "社区": "梅子溪社区"}, "geometry": {"type": "Point", "coordinates": [111.26580047800007, 30.66593467900003]}}, {"type": "Feature", "properties": {"指标": "停车泊位缺口数（个）", "中类": "停车设施", "board": "民生基础需求", "来源": "2026补充", "原图层": "停车泊位存在较大缺口的小区数", "社区": "磨盘社区"}, "geometry": {"type": "Point", "coordinates": [111.41243819200008, 30.588635225000075]}}, {"type": "Feature", "properties": {"指标": "停车泊位缺口数（个）", "中类": "停车设施", "board": "民生基础需求", "来源": "2026补充", "原图层": "停车泊位存在较大缺口的小区数", "社区": "平云社区"}, "geometry": {"type": "Point", "coordinates": [111.32497444400008, 30.785901384000056]}}, {"type": "Feature", "properties": {"指标": "停车泊位缺口数（个）", "中类": "停车设施", "board": "民生基础需求", "来源": "2026补充", "原图层": "停车泊位存在较大缺口的小区数", "社区": "平云社区"}, "geometry": {"type": "Point", "coordinates": [111.32912948700005, 30.785507625000037]}}, {"type": "Feature", "properties": {"指标": "停车泊位缺口数（个）", "中类": "停车设施", "board": "民生基础需求", "来源": "2026补充", "原图层": "停车泊位存在较大缺口的小区数", "社区": "平云社区"}, "geometry": {"type": "Point", "coordinates": [111.33570860600008, 30.779978353000047]}}, {"type": "Feature", "properties": {"指标": "停车泊位缺口数（个）", "中类": "停车设施", "board": "民生基础需求", "来源": "2026补充", "原图层": "停车泊位存在较大缺口的小区数", "社区": "平云社区"}, "geometry": {"type": "Point", "coordinates": [111.32568113500008, 30.786212292000073]}}, {"type": "Feature", "properties": {"指标": "停车泊位缺口数（个）", "中类": "停车设施", "board": "民生基础需求", "来源": "2026补充", "原图层": "停车泊位存在较大缺口的小区数", "社区": "平云社区"}, "geometry": {"type": "Point", "coordinates": [111.33831080300007, 30.78112099200007]}}, {"type": "Feature", "properties": {"指标": "停车泊位缺口数（个）", "中类": "停车设施", "board": "民生基础需求", "来源": "2026补充", "原图层": "停车泊位存在较大缺口的小区数", "社区": "润城社区"}, "geometry": {"type": "Point", "coordinates": [111.33994602600006, 30.753312608000044]}}, {"type": "Feature", "properties": {"指标": "停车泊位缺口数（个）", "中类": "停车设施", "board": "民生基础需求", "来源": "2026补充", "原图层": "停车泊位存在较大缺口的小区数", "社区": "双桥社区"}, "geometry": {"type": "Point", "coordinates": [111.42143337400006, 30.534464600000035]}}, {"type": "Feature", "properties": {"指标": "停车泊位缺口数（个）", "中类": "停车设施", "board": "民生基础需求", "来源": "2026补充", "原图层": "停车泊位存在较大缺口的小区数", "社区": "谭家榜社区"}, "geometry": {"type": "Point", "coordinates": [111.34484097000006, 30.793668523000065]}}, {"type": "Feature", "properties": {"指标": "停车泊位缺口数（个）", "中类": "停车设施", "board": "民生基础需求", "来源": "2026补充", "原图层": "停车泊位存在较大缺口的小区数", "社区": "五龙社区"}, "geometry": {"type": "Point", "coordinates": [111.27277025000006, 30.677256723000028]}}, {"type": "Feature", "properties": {"指标": "停车泊位缺口数（个）", "中类": "停车设施", "board": "民生基础需求", "来源": "2026补充", "原图层": "停车泊位存在较大缺口的小区数", "社区": "五龙社区"}, "geometry": {"type": "Point", "coordinates": [111.26920591100009, 30.677953639000066]}}, {"type": "Feature", "properties": {"指标": "停车泊位缺口数（个）", "中类": "停车设施", "board": "民生基础需求", "来源": "2026补充", "原图层": "停车泊位存在较大缺口的小区数", "社区": "五龙社区"}, "geometry": {"type": "Point", "coordinates": [111.26288521300006, 30.67571126400003]}}, {"type": "Feature", "properties": {"指标": "停车泊位缺口数（个）", "中类": "停车设施", "board": "民生基础需求", "来源": "2026补充", "原图层": "停车泊位存在较大缺口的小区数", "社区": "五龙社区"}, "geometry": {"type": "Point", "coordinates": [111.25619515300008, 30.67628902100006]}}, {"type": "Feature", "properties": {"指标": "停车泊位缺口数（个）", "中类": "停车设施", "board": "民生基础需求", "来源": "2026补充", "原图层": "停车泊位存在较大缺口的小区数", "社区": "五龙社区"}, "geometry": {"type": "Point", "coordinates": [111.27547073300008, 30.679875065000033]}}, {"type": "Feature", "properties": {"指标": "停车泊位缺口数（个）", "中类": "停车设施", "board": "民生基础需求", "来源": "2026补充", "原图层": "停车泊位存在较大缺口的小区数", "社区": "峡江社区"}, "geometry": {"type": "Point", "coordinates": [111.30181687300006, 30.770890575000067]}}, {"type": "Feature", "properties": {"指标": "停车泊位缺口数（个）", "中类": "停车设施", "board": "民生基础需求", "来源": "2026补充", "原图层": "停车泊位存在较大缺口的小区数", "社区": "峡江社区"}, "geometry": {"type": "Point", "coordinates": [111.29970994500007, 30.772199252000064]}}, {"type": "Feature", "properties": {"指标": "停车泊位缺口数（个）", "中类": "停车设施", "board": "民生基础需求", "来源": "2026补充", "原图层": "停车泊位存在较大缺口的小区数", "社区": "峡江社区"}, "geometry": {"type": "Point", "coordinates": [111.29901408500007, 30.768431514000042]}}, {"type": "Feature", "properties": {"指标": "停车泊位缺口数（个）", "中类": "停车设施", "board": "民生基础需求", "来源": "2026补充", "原图层": "停车泊位存在较大缺口的小区数", "社区": "峡江社区"}, "geometry": {"type": "Point", "coordinates": [111.30246361300004, 30.77064461300006]}}, {"type": "Feature", "properties": {"指标": "停车泊位缺口数（个）", "中类": "停车设施", "board": "民生基础需求", "来源": "2026补充", "原图层": "停车泊位存在较大缺口的小区数", "社区": "峡江社区"}, "geometry": {"type": "Point", "coordinates": [111.30253410000006, 30.76990731500007]}}, {"type": "Feature", "properties": {"指标": "停车泊位缺口数（个）", "中类": "停车设施", "board": "民生基础需求", "来源": "2026补充", "原图层": "停车泊位存在较大缺口的小区数", "社区": "峡江社区"}, "geometry": {"type": "Point", "coordinates": [111.30239734900005, 30.771079602000043]}}, {"type": "Feature", "properties": {"指标": "停车泊位缺口数（个）", "中类": "停车设施", "board": "民生基础需求", "来源": "2026补充", "原图层": "停车泊位存在较大缺口的小区数", "社区": "峡江社区"}, "geometry": {"type": "Point", "coordinates": [111.29739206500005, 30.769922826000027]}}, {"type": "Feature", "properties": {"指标": "停车泊位缺口数（个）", "中类": "停车设施", "board": "民生基础需求", "来源": "2026补充", "原图层": "停车泊位存在较大缺口的小区数", "社区": "峡江社区"}, "geometry": {"type": "Point", "coordinates": [111.30184750200004, 30.77159444800003]}}, {"type": "Feature", "properties": {"指标": "停车泊位缺口数（个）", "中类": "停车设施", "board": "民生基础需求", "来源": "2026补充", "原图层": "停车泊位存在较大缺口的小区数", "社区": "峡江社区"}, "geometry": {"type": "Point", "coordinates": [111.30118372100009, 30.768380827000044]}}, {"type": "Feature", "properties": {"指标": "停车泊位缺口数（个）", "中类": "停车设施", "board": "民生基础需求", "来源": "2026补充", "原图层": "停车泊位存在较大缺口的小区数", "社区": "峡江社区"}, "geometry": {"type": "Point", "coordinates": [111.30235954800008, 30.771541055000057]}}, {"type": "Feature", "properties": {"指标": "停车泊位缺口数（个）", "中类": "停车设施", "board": "民生基础需求", "来源": "2026补充", "原图层": "停车泊位存在较大缺口的小区数", "社区": "下马槽社区"}, "geometry": {"type": "Point", "coordinates": [111.45100618800006, 30.49538511700007]}}, {"type": "Feature", "properties": {"指标": "停车泊位缺口数（个）", "中类": "停车设施", "board": "民生基础需求", "来源": "2026补充", "原图层": "停车泊位存在较大缺口的小区数", "社区": "营盘社区"}, "geometry": {"type": "Point", "coordinates": [111.32531869000007, 30.773261971000068]}}, {"type": "Feature", "properties": {"指标": "停车泊位缺口数（个）", "中类": "停车设施", "board": "民生基础需求", "来源": "2026补充", "原图层": "停车泊位存在较大缺口的小区数", "社区": "永兴社区"}, "geometry": {"type": "Point", "coordinates": [111.32582545000008, 30.784610056000076]}}, {"type": "Feature", "properties": {"指标": "停车泊位缺口数（个）", "中类": "停车设施", "board": "民生基础需求", "来源": "2026补充", "原图层": "停车泊位存在较大缺口的小区数", "社区": "永兴社区"}, "geometry": {"type": "Point", "coordinates": [111.32478250500009, 30.785336938000057]}}, {"type": "Feature", "properties": {"指标": "停车泊位缺口数（个）", "中类": "停车设施", "board": "民生基础需求", "来源": "2026补充", "原图层": "停车泊位存在较大缺口的小区数", "社区": "永兴社区"}, "geometry": {"type": "Point", "coordinates": [111.32716979400004, 30.785056202000078]}}, {"type": "Feature", "properties": {"指标": "停车泊位缺口数（个）", "中类": "停车设施", "board": "民生基础需求", "来源": "2026补充", "原图层": "停车泊位存在较大缺口的小区数", "社区": "永兴社区"}, "geometry": {"type": "Point", "coordinates": [111.32573431700007, 30.78522481600004]}}, {"type": "Feature", "properties": {"指标": "停车泊位缺口数（个）", "中类": "停车设施", "board": "民生基础需求", "来源": "2026补充", "原图层": "停车泊位存在较大缺口的小区数", "社区": "长江市场社区"}, "geometry": {"type": "Point", "coordinates": [111.29567617700008, 30.770227567000063]}}, {"type": "Feature", "properties": {"指标": "停车泊位缺口数（个）", "中类": "停车设施", "board": "民生基础需求", "来源": "2026补充", "原图层": "停车泊位存在较大缺口的小区数", "社区": "长江市场社区"}, "geometry": {"type": "Point", "coordinates": [111.29463029600004, 30.76722630300003]}}, {"type": "Feature", "properties": {"指标": "停车泊位缺口数（个）", "中类": "停车设施", "board": "民生基础需求", "来源": "2026补充", "原图层": "停车泊位存在较大缺口的小区数", "社区": "长江市场社区"}, "geometry": {"type": "Point", "coordinates": [111.29495588200007, 30.766782541000055]}}, {"type": "Feature", "properties": {"指标": "停车泊位缺口数（个）", "中类": "停车设施", "board": "民生基础需求", "来源": "2026补充", "原图层": "停车泊位存在较大缺口的小区数", "社区": "长江新村社区"}, "geometry": {"type": "Point", "coordinates": [111.42943164700006, 30.545062462000033]}}, {"type": "Feature", "properties": {"指标": "停车泊位缺口数（个）", "中类": "停车设施", "board": "民生基础需求", "来源": "2026补充", "原图层": "停车泊位存在较大缺口的小区数", "社区": "朱市街社区"}, "geometry": {"type": "Point", "coordinates": [111.26054265400006, 30.69863893200005]}}, {"type": "Feature", "properties": {"指标": "新能源汽车充电桩缺口数（个）", "中类": "停车设施", "board": "民生基础需求", "来源": "2026补充", "原图层": "新能源汽车充电桩缺口数", "社区": "古老背社区"}, "geometry": {"type": "Point", "coordinates": [111.41246417400004, 30.52922039400005]}}, {"type": "Feature", "properties": {"指标": "新能源汽车充电桩缺口数（个）", "中类": "停车设施", "board": "民生基础需求", "来源": "2026补充", "原图层": "新能源汽车充电桩缺口数", "社区": "黄金卡社区"}, "geometry": {"type": "Point", "coordinates": [111.33676693300004, 30.779303088000063]}}, {"type": "Feature", "properties": {"指标": "新能源汽车充电桩缺口数（个）", "中类": "停车设施", "board": "民生基础需求", "来源": "2026补充", "原图层": "新能源汽车充电桩缺口数", "社区": "鸡山社区"}, "geometry": {"type": "Point", "coordinates": [111.44535891100008, 30.55277929500005]}}, {"type": "Feature", "properties": {"指标": "新能源汽车充电桩缺口数（个）", "中类": "停车设施", "board": "民生基础需求", "来源": "2026补充", "原图层": "新能源汽车充电桩缺口数", "社区": "锦云社区"}, "geometry": {"type": "Point", "coordinates": [111.35854438600006, 30.763846796000053]}}, {"type": "Feature", "properties": {"指标": "新能源汽车充电桩缺口数（个）", "中类": "停车设施", "board": "民生基础需求", "来源": "2026补充", "原图层": "新能源汽车充电桩缺口数", "社区": "绿洲社区"}, "geometry": {"type": "Point", "coordinates": [111.33864300700009, 30.76793552500004]}}, {"type": "Feature", "properties": {"指标": "新能源汽车充电桩缺口数（个）", "中类": "停车设施", "board": "民生基础需求", "来源": "2026补充", "原图层": "新能源汽车充电桩缺口数", "社区": "梅子溪社区"}, "geometry": {"type": "Point", "coordinates": [111.27107842500004, 30.673210268000048]}}, {"type": "Feature", "properties": {"指标": "新能源汽车充电桩缺口数（个）", "中类": "停车设施", "board": "民生基础需求", "来源": "2026补充", "原图层": "新能源汽车充电桩缺口数", "社区": "平云社区"}, "geometry": {"type": "Point", "coordinates": [111.32497926300005, 30.785897910000074]}}, {"type": "Feature", "properties": {"指标": "新能源汽车充电桩缺口数（个）", "中类": "停车设施", "board": "民生基础需求", "来源": "2026补充", "原图层": "新能源汽车充电桩缺口数", "社区": "平云社区"}, "geometry": {"type": "Point", "coordinates": [111.32883527000007, 30.788815380000074]}}, {"type": "Feature", "properties": {"指标": "新能源汽车充电桩缺口数（个）", "中类": "停车设施", "board": "民生基础需求", "来源": "2026补充", "原图层": "新能源汽车充电桩缺口数", "社区": "平云社区"}, "geometry": {"type": "Point", "coordinates": [111.33019583200007, 30.78474118300005]}}, {"type": "Feature", "properties": {"指标": "新能源汽车充电桩缺口数（个）", "中类": "停车设施", "board": "民生基础需求", "来源": "2026补充", "原图层": "新能源汽车充电桩缺口数", "社区": "平云社区"}, "geometry": {"type": "Point", "coordinates": [111.32900172400008, 30.78551207000004]}}, {"type": "Feature", "properties": {"指标": "新能源汽车充电桩缺口数（个）", "中类": "停车设施", "board": "民生基础需求", "来源": "2026补充", "原图层": "新能源汽车充电桩缺口数", "社区": "七里新村社区"}, "geometry": {"type": "Point", "coordinates": [111.43570868400008, 30.545720981000045]}}, {"type": "Feature", "properties": {"指标": "新能源汽车充电桩缺口数（个）", "中类": "停车设施", "board": "民生基础需求", "来源": "2026补充", "原图层": "新能源汽车充电桩缺口数", "社区": "润城社区"}, "geometry": {"type": "Point", "coordinates": [111.33945748800005, 30.759913416000074]}}, {"type": "Feature", "properties": {"指标": "新能源汽车充电桩缺口数（个）", "中类": "停车设施", "board": "民生基础需求", "来源": "2026补充", "原图层": "新能源汽车充电桩缺口数", "社区": "润城社区"}, "geometry": {"type": "Point", "coordinates": [111.34325950300007, 30.760815310000055]}}, {"type": "Feature", "properties": {"指标": "新能源汽车充电桩缺口数（个）", "中类": "停车设施", "board": "民生基础需求", "来源": "2026补充", "原图层": "新能源汽车充电桩缺口数", "社区": "润城社区"}, "geometry": {"type": "Point", "coordinates": [111.34165389900005, 30.75884427300008]}}, {"type": "Feature", "properties": {"指标": "新能源汽车充电桩缺口数（个）", "中类": "停车设施", "board": "民生基础需求", "来源": "2026补充", "原图层": "新能源汽车充电桩缺口数", "社区": "润城社区"}, "geometry": {"type": "Point", "coordinates": [111.34239067000004, 30.76076752800003]}}, {"type": "Feature", "properties": {"指标": "新能源汽车充电桩缺口数（个）", "中类": "停车设施", "board": "民生基础需求", "来源": "2026补充", "原图层": "新能源汽车充电桩缺口数", "社区": "谭家榜社区"}, "geometry": {"type": "Point", "coordinates": [111.34587585900005, 30.79396242100006]}}, {"type": "Feature", "properties": {"指标": "新能源汽车充电桩缺口数（个）", "中类": "停车设施", "board": "民生基础需求", "来源": "2026补充", "原图层": "新能源汽车充电桩缺口数", "社区": "望江社区"}, "geometry": {"type": "Point", "coordinates": [111.29292474400006, 30.765709565000066]}}, {"type": "Feature", "properties": {"指标": "新能源汽车充电桩缺口数（个）", "中类": "停车设施", "board": "民生基础需求", "来源": "2026补充", "原图层": "新能源汽车充电桩缺口数", "社区": "五龙社区"}, "geometry": {"type": "Point", "coordinates": [111.26766888400005, 30.674823453000045]}}, {"type": "Feature", "properties": {"指标": "新能源汽车充电桩缺口数（个）", "中类": "停车设施", "board": "民生基础需求", "来源": "2026补充", "原图层": "新能源汽车充电桩缺口数", "社区": "峡江社区"}, "geometry": {"type": "Point", "coordinates": [111.30211903800006, 30.770831362000024]}}, {"type": "Feature", "properties": {"指标": "新能源汽车充电桩缺口数（个）", "中类": "停车设施", "board": "民生基础需求", "来源": "2026补充", "原图层": "新能源汽车充电桩缺口数", "社区": "峡江社区"}, "geometry": {"type": "Point", "coordinates": [111.30185247400004, 30.77156668400005]}}, {"type": "Feature", "properties": {"指标": "新能源汽车充电桩缺口数（个）", "中类": "停车设施", "board": "民生基础需求", "来源": "2026补充", "原图层": "新能源汽车充电桩缺口数", "社区": "峡江社区"}, "geometry": {"type": "Point", "coordinates": [111.30118372100009, 30.76833256200007]}}, {"type": "Feature", "properties": {"指标": "新能源汽车充电桩缺口数（个）", "中类": "停车设施", "board": "民生基础需求", "来源": "2026补充", "原图层": "新能源汽车充电桩缺口数", "社区": "峡江社区"}, "geometry": {"type": "Point", "coordinates": [111.29962089600008, 30.772782649000078]}}, {"type": "Feature", "properties": {"指标": "新能源汽车充电桩缺口数（个）", "中类": "停车设施", "board": "民生基础需求", "来源": "2026补充", "原图层": "新能源汽车充电桩缺口数", "社区": "峡江社区"}, "geometry": {"type": "Point", "coordinates": [111.30253609800008, 30.769914179000068]}}, {"type": "Feature", "properties": {"指标": "新能源汽车充电桩缺口数（个）", "中类": "停车设施", "board": "民生基础需求", "来源": "2026补充", "原图层": "新能源汽车充电桩缺口数", "社区": "永兴社区"}, "geometry": {"type": "Point", "coordinates": [111.32583381700005, 30.78461724400006]}}, {"type": "Feature", "properties": {"指标": "新能源汽车充电桩缺口数（个）", "中类": "停车设施", "board": "民生基础需求", "来源": "2026补充", "原图层": "新能源汽车充电桩缺口数", "社区": "永兴社区"}, "geometry": {"type": "Point", "coordinates": [111.32573431700007, 30.78520463500007]}}, {"type": "Feature", "properties": {"指标": "未配建电动自行车充电设施的小区数量（个）", "中类": "停车设施", "board": "民生基础需求", "来源": "2026补充", "原图层": "未配建电动自行车充电设施的小区数", "社区": "东城社区"}, "geometry": {"type": "Point", "coordinates": [111.32270906500008, 30.768713697000067]}}, {"type": "Feature", "properties": {"指标": "未配建电动自行车充电设施的小区数量（个）", "中类": "停车设施", "board": "民生基础需求", "来源": "2026补充", "原图层": "未配建电动自行车充电设施的小区数"}, "geometry": {"type": "Point", "coordinates": [111.32195229700005, 30.77003902100006]}}, {"type": "Feature", "properties": {"指标": "未配建电动自行车充电设施的小区数量（个）", "中类": "停车设施", "board": "民生基础需求", "来源": "2026补充", "原图层": "未配建电动自行车充电设施的小区数", "社区": "黄金卡社区"}, "geometry": {"type": "Point", "coordinates": [111.33975612800003, 30.778377050000074]}}, {"type": "Feature", "properties": {"指标": "未配建电动自行车充电设施的小区数量（个）", "中类": "停车设施", "board": "民生基础需求", "来源": "2026补充", "原图层": "未配建电动自行车充电设施的小区数", "社区": "鸡山社区"}, "geometry": {"type": "Point", "coordinates": [111.44522884200006, 30.55276529400004]}}, {"type": "Feature", "properties": {"指标": "未配建电动自行车充电设施的小区数量（个）", "中类": "停车设施", "board": "民生基础需求", "来源": "2026补充", "原图层": "未配建电动自行车充电设施的小区数"}, "geometry": {"type": "Point", "coordinates": [111.27117191800005, 30.663812693000068]}}, {"type": "Feature", "properties": {"指标": "未配建电动自行车充电设施的小区数量（个）", "中类": "停车设施", "board": "民生基础需求", "来源": "2026补充", "原图层": "未配建电动自行车充电设施的小区数", "社区": "磨盘社区"}, "geometry": {"type": "Point", "coordinates": [111.41262837900007, 30.58866220500005]}}, {"type": "Feature", "properties": {"指标": "未配建电动自行车充电设施的小区数量（个）", "中类": "停车设施", "board": "民生基础需求", "来源": "2026补充", "原图层": "未配建电动自行车充电设施的小区数", "社区": "平云社区"}, "geometry": {"type": "Point", "coordinates": [111.33181522400008, 30.787591647000056]}}, {"type": "Feature", "properties": {"指标": "未配建电动自行车充电设施的小区数量（个）", "中类": "停车设施", "board": "民生基础需求", "来源": "2026补充", "原图层": "未配建电动自行车充电设施的小区数", "社区": "平云社区"}, "geometry": {"type": "Point", "coordinates": [111.32908993400008, 30.785476886000026]}}, {"type": "Feature", "properties": {"指标": "未配建电动自行车充电设施的小区数量（个）", "中类": "停车设施", "board": "民生基础需求", "来源": "2026补充", "原图层": "未配建电动自行车充电设施的小区数", "社区": "平云社区"}, "geometry": {"type": "Point", "coordinates": [111.33553298600009, 30.780025753000075]}}, {"type": "Feature", "properties": {"指标": "未配建电动自行车充电设施的小区数量（个）", "中类": "停车设施", "board": "民生基础需求", "来源": "2026补充", "原图层": "未配建电动自行车充电设施的小区数", "社区": "润城社区"}, "geometry": {"type": "Point", "coordinates": [111.33770600300005, 30.752023892000068]}}, {"type": "Feature", "properties": {"指标": "未配建电动自行车充电设施的小区数量（个）", "中类": "停车设施", "board": "民生基础需求", "来源": "2026补充", "原图层": "未配建电动自行车充电设施的小区数", "社区": "双桥社区"}, "geometry": {"type": "Point", "coordinates": [111.42169033000005, 30.534543745000065]}}, {"type": "Feature", "properties": {"指标": "未配建电动自行车充电设施的小区数量（个）", "中类": "停车设施", "board": "民生基础需求", "来源": "2026补充", "原图层": "未配建电动自行车充电设施的小区数", "社区": "五龙社区"}, "geometry": {"type": "Point", "coordinates": [111.27516453300007, 30.680118149000066]}}, {"type": "Feature", "properties": {"指标": "未配建电动自行车充电设施的小区数量（个）", "中类": "停车设施", "board": "民生基础需求", "来源": "2026补充", "原图层": "未配建电动自行车充电设施的小区数", "社区": "五龙社区"}, "geometry": {"type": "Point", "coordinates": [111.26956885400006, 30.677769098000056]}}, {"type": "Feature", "properties": {"指标": "未配建电动自行车充电设施的小区数量（个）", "中类": "停车设施", "board": "民生基础需求", "来源": "2026补充", "原图层": "未配建电动自行车充电设施的小区数", "社区": "峡江社区"}, "geometry": {"type": "Point", "coordinates": [111.30179778900003, 30.771609398000066]}}, {"type": "Feature", "properties": {"指标": "未配建电动自行车充电设施的小区数量（个）", "中类": "停车设施", "board": "民生基础需求", "来源": "2026补充", "原图层": "未配建电动自行车充电设施的小区数", "社区": "峡江社区"}, "geometry": {"type": "Point", "coordinates": [111.30238939700007, 30.77110920800004]}}, {"type": "Feature", "properties": {"指标": "未配建电动自行车充电设施的小区数量（个）", "中类": "停车设施", "board": "民生基础需求", "来源": "2026补充", "原图层": "未配建电动自行车充电设施的小区数", "社区": "峡江社区"}, "geometry": {"type": "Point", "coordinates": [111.30245301100007, 30.770619561000046]}}, {"type": "Feature", "properties": {"指标": "未配建电动自行车充电设施的小区数量（个）", "中类": "停车设施", "board": "民生基础需求", "来源": "2026补充", "原图层": "未配建电动自行车充电设施的小区数", "社区": "永兴社区"}, "geometry": {"type": "Point", "coordinates": [111.32704115200005, 30.785062019000065]}}]}