{"type": "FeatureCollection", "features": [{"type": "Feature", "properties": {"SQMC": "上导堤社区", "SSJD": "夜明珠街办", "类型": "城市社区", "来源": 2025, "社区": "上导堤社区", "排名": 1, "诉求总量": 1, "民生基础件": 1, "安全韧性件": 0, "每周约件数": 0}, "geometry": {"type": "MultiPolygon", "coordinates": [[[[111.2953959205854, 30.74044367423619], [111.29535712563097, 30.740405577155684], [111.2954342236107, 30.74031948595558], [111.29542579066782, 30.740271775122437], [111.29535372979092, 30.74019795517154], [111.29523460379403, 30.74009321922682], [111.29520399356943, 30.740021690748563], [111.29518163012824, 30.739935827076863], [111.29526051596014, 30.739937367615596], [111.29568155695847, 30.739945592814934], [111.29495864682423, 30.73812964216944], [111.29462802906028, 30.737744923889295], [111.29458959203606, 30.73770019700663], [111.29447063511174, 30.737615990785457], [111.29399239543278, 30.73727746168555], [111.29300601361672, 30.73714997109431], [111.2925564380293, 30.73718352120261], [111.29252059195193, 30.73721458828271], [111.29235721481359, 30.737356181143014], [111.29235472818829, 30.7373583359186], [111.29233829577589, 30.73737257758245], [111.29232030124098, 30.73738817272607], [111.29234485003491, 30.73746039278302], [111.29231079360824, 30.73758069689177], [111.29226609640335, 30.73773859176265], [111.29224457472736, 30.73784374409354], [111.29223588277995, 30.7378862118793], [111.29223617416022, 30.737886289220967], [111.29213750504181, 30.73798495833921], [111.29211332586937, 30.738067168065527], [111.29210713943297, 30.73806342238919], [111.29205081039674, 30.73802932099636], [111.291967758905, 30.737974617934412], [111.29190263899574, 30.73791032719987], [111.29171104472908, 30.73774158380712], [111.29170560832733, 30.737737248175506], [111.2915157776311, 30.737585870691476], [111.29135593302993, 30.737459907149116], [111.29127029958471, 30.737421097805452], [111.29113003772125, 30.737403965720546], [111.2909396107745, 30.737408215017297], [111.29056667541187, 30.737350626929924], [111.29039515491257, 30.737321935858745], [111.29014057033106, 30.737337273796243], [111.29013147998393, 30.737342024914653], [111.28986341906165, 30.737482132094897], [111.2895014797096, 30.737496068888504], [111.28929751796608, 30.737271689836803], [111.28916665042067, 30.7370635687289], [111.28907328910111, 30.736915095155553], [111.28906902631451, 30.736901770800216], [111.28905882260659, 30.73686987184726], [111.2890271466855, 30.73677084659738], [111.28902040536747, 30.736771527384178], [111.28897325211403, 30.736607362439997], [111.28886847030378, 30.73626725682857], [111.2887985812896, 30.735987701671206], [111.28879040105619, 30.735954983435818], [111.28878364175182, 30.73595548705606], [111.28875281838805, 30.735836594882983], [111.28867789586826, 30.735547612132734], [111.2885989102117, 30.735312909763024], [111.28851393866739, 30.73506042509871], [111.2884750357943, 30.73504611058968], [111.28769449260687, 30.73440257821653], [111.28769418503867, 30.734388925608584], [111.28768160981855, 30.733831416087014], [111.28788123143374, 30.733034510634297], [111.28794725516178, 30.732770934631105], [111.2887681059633, 30.729494020033144], [111.28860062342011, 30.72829586766028], [111.28866212985349, 30.728041635613124], [111.28866503916021, 30.7280296116773], [111.28864912116018, 30.728024800304297], [111.28835572093993, 30.72793609837231], [111.28835254093718, 30.727955015611656], [111.28825166937918, 30.728555204259408], [111.28824679055703, 30.72858422897906], [111.28821819211606, 30.72869566667174], [111.28805219884998, 30.72934246808046], [111.28795038300393, 30.729857915410605], [111.28794791796224, 30.72985746844745], [111.28785651266804, 30.730237714399152], [111.28785154841029, 30.730258368229272], [111.28785049980087, 30.730262726343824], [111.28784957439836, 30.730266579039437], [111.28779479579327, 30.730494455554776], [111.28757971483202, 30.731831447063712], [111.28757937129103, 30.731833582953584], [111.28755653660505, 30.731975528348073], [111.28755328555587, 30.73197534488645], [111.28737719380257, 30.733252016167683], [111.28732351326965, 30.733715012337996], [111.28731680342793, 30.73400354542747], [111.28733022311144, 30.734365888574985], [111.28737372062085, 30.734561627817016], [111.28716028631823, 30.734384409213305], [111.28696479259128, 30.734543456115716], [111.28664547570827, 30.73468734314656], [111.28658868891699, 30.734710176933163], [111.28673463809315, 30.73525378113709], [111.28694099113392, 30.736735129123076], [111.28695053204154, 30.736803709623643], [111.286953979143, 30.736828490442633], [111.2871340458995, 30.738123024058382], [111.28727265570848, 30.738750185172933], [111.28733638796405, 30.73898830856359], [111.28747193288353, 30.739494767169845], [111.2874768215982, 30.739511152817556], [111.28775771494662, 30.740452659362802], [111.28780973083457, 30.74062700912924], [111.28795394701717, 30.740739811093476], [111.2881550776948, 30.740782509105543], [111.2888412873956, 30.740794265043462], [111.28967691136046, 30.740792539244353], [111.29019684720686, 30.740785456184028], [111.29060404943738, 30.740742735688798], [111.29091907385617, 30.740615856636623], [111.29120992180049, 30.74045057833166], [111.29162673778382, 30.740456040813683], [111.29186290155184, 30.74043403170532], [111.2922125138964, 30.740801973132704], [111.29227965997836, 30.74080462703205], [111.2933766359231, 30.740847947374903], [111.29418859782561, 30.740880010903822], [111.29437820009389, 30.740887496860523], [111.29449912563422, 30.7408922686634], [111.29540614767569, 30.74091881934811], [111.29542459277093, 30.74078488421503], [111.29543527222006, 30.740663148385636], [111.2953961184362, 30.740508110660926], [111.2953959205854, 30.74044367423619]]], [[[111.28905634137715, 30.75456243410906], [111.29046460865487, 30.75237321984838], [111.29154386795528, 30.75163340335905], [111.29193164303098, 30.751367582647845], [111.29396248398155, 30.750408383739966], [111.29472387071013, 30.749905608756876], [111.29608036401766, 30.74900982914039], [111.29690462324993, 30.7479501831545], [111.2971812987779, 30.74759448329894], [111.29691264520261, 30.74648774071676], [111.29610036673859, 30.74546565671477], [111.29595846631025, 30.745287100819212], [111.29495150530789, 30.744885005838455], [111.29467483967221, 30.744774525923788], [111.2944617426154, 30.744555361141124], [111.29352233958434, 30.74467451501704], [111.29348524974449, 30.74468528619707], [111.29325731657207, 30.74475148259495], [111.29291484394491, 30.7447999866302], [111.29268274870998, 30.74480051093491], [111.2924400333809, 30.7449442495776], [111.2920733698902, 30.745043783843585], [111.29168333571744, 30.74514966102811], [111.29172356868781, 30.745691913551013], [111.29177578512451, 30.746358542312976], [111.29179247024643, 30.746689166372107], [111.29179262582915, 30.746740663351034], [111.29110121085233, 30.746652771708114], [111.29070084976439, 30.746564228056798], [111.29061386194036, 30.74659491382431], [111.29044459424273, 30.746656274567442], [111.2903247487883, 30.746717525593397], [111.29022373693607, 30.746780768617725], [111.29011574994195, 30.746872484177857], [111.29008114133177, 30.74690813420318], [111.29000177166449, 30.746928129729497], [111.28991001563486, 30.746939007029596], [111.28985537462597, 30.746965046899447], [111.28978656299955, 30.7469743485874], [111.28975310462215, 30.74700186424468], [111.28971261804287, 30.747038544893087], [111.28964923202648, 30.74709204736024], [111.28961579523286, 30.747125661320183], [111.28959646070814, 30.747153147300082], [111.28956125944472, 30.74718676485736], [111.28952602130892, 30.74720818940642], [111.28947660626051, 30.747211347825555], [111.28943958027253, 30.74722515062018], [111.28937966473973, 30.747258824834887], [111.28932516942109, 30.74733365202644], [111.28926361712234, 30.747410017058826], [111.28920924411136, 30.747526005320992], [111.28915837395988, 30.74763283668625], [111.28909862210384, 30.747721397424584], [111.28907399057232, 30.747748894196206], [111.28906171842368, 30.74777636218937], [111.28905875515744, 30.747776434135233], [111.28880176129235, 30.747782554021683], [111.28877931421403, 30.747783090017663], [111.28876312012204, 30.747794125598432], [111.28859082440715, 30.74791157256118], [111.28851926894919, 30.747963166666864], [111.28848690324816, 30.74798650677201], [111.28844113225244, 30.748027772163994], [111.2884007158205, 30.748088845124187], [111.28838848234278, 30.748130034973258], [111.28837802232806, 30.748174270826098], [111.28837294475574, 30.748247461251367], [111.28835722640503, 30.74830390630035], [111.28835394567824, 30.748387763584503], [111.28834350364986, 30.748438097740177], [111.28832249998345, 30.748497604081194], [111.28828920168547, 30.748578479213563], [111.2882220897776, 30.748566432794803], [111.28821744028278, 30.748562882271358], [111.28814461768008, 30.748507260102087], [111.28814247639417, 30.748505625134555], [111.28812389819939, 30.74852430225485], [111.28807560010887, 30.74857285485342], [111.28792950794048, 30.748713439573635], [111.28779403496685, 30.74886314791604], [111.28763746569655, 30.74904187018626], [111.28749842870968, 30.749180912569216], [111.28743858602206, 30.749238979095765], [111.2874332503444, 30.749241298447203], [111.28740610880487, 30.74925309305587], [111.28739980096015, 30.749255835088775], [111.28739259739052, 30.749256353997623], [111.28722508696825, 30.74926841840289], [111.28718463096595, 30.749317294757418], [111.28715297483012, 30.74935700162439], [111.28712838556669, 30.749398220251805], [111.28710943685121, 30.749458839054228], [111.28710740258458, 30.749465348347258], [111.28709911083541, 30.749494308315718], [111.28709342622068, 30.749514165346568], [111.28709813866823, 30.749567903436116], [111.28710405081131, 30.74963534809291], [111.28710438625853, 30.749639155822535], [111.28712095087133, 30.7498678048554], [111.28712101832053, 30.74986849373613], [111.28713369606328, 30.749998889137487], [111.28713569615564, 30.75007816257721], [111.28714872193609, 30.75030377100228], [111.28714192396075, 30.750392211231656], [111.28707877536522, 30.750526512388717], [111.28704723074515, 30.750604334322645], [111.28699984186926, 30.75069591408527], [111.28695409965212, 30.75074784993342], [111.28685733889517, 30.7508578334224], [111.2867851602071, 30.75092354958224], [111.28673589714413, 30.750978543125257], [111.28669544294041, 30.751027417681257], [111.28664271478948, 30.7511052872793], [111.28660226957913, 30.751157212335556], [111.2865511970802, 30.751196964168685], [111.28648428572126, 30.751253520733428], [111.28644029538344, 30.751300879032385], [111.28639817923272, 30.751384822651573], [111.28638421006343, 30.751436690151195], [111.28637902637104, 30.751474815110726], [111.28636501403429, 30.751511436403746], [111.28636513634217, 30.751552600172488], [111.28637233541514, 30.75159984515676], [111.28639187768306, 30.751642490108907], [111.28639931327774, 30.751652068788076], [111.28643086059594, 30.7516927136478], [111.28650529028698, 30.751790121916656], [111.28650160756314, 30.75181028831429], [111.2863640040955, 30.75256385633702], [111.28631370591285, 30.752567397867267], [111.28626869304577, 30.752567496792608], [111.28621309785638, 30.75257104911475], [111.28613894335763, 30.752565495801036], [111.28607275865102, 30.752570215443143], [111.28601452844782, 30.752577205873422], [111.28601001115317, 30.752583876145025], [111.2859486180343, 30.75267454129721], [111.28594739495651, 30.7527088468359], [111.28595929838303, 30.752740344691233], [111.28599143026042, 30.752825378288662], [111.28599312008652, 30.752829603303667], [111.28602307920187, 30.752904538413873], [111.28602477262524, 30.752908776019353], [111.28606727368583, 30.752954419311152], [111.28604231210318, 30.75301964983703], [111.28598674659116, 30.75303349220195], [111.28596980875977, 30.75302840113983], [111.28591121612982, 30.753010790615576], [111.28582916108707, 30.753003982747714], [111.28576439371193, 30.753388996005413], [111.28578022537715, 30.753402599150718], [111.28582102671902, 30.75343765832139], [111.28580251777214, 30.753546621079806], [111.28579396162218, 30.75363811270887], [111.28596278595398, 30.754018883864433], [111.28597966622874, 30.754085350058972], [111.28600148378149, 30.75417125509938], [111.28596563140883, 30.754192221893504], [111.28588635077455, 30.754238590038938], [111.28582293328174, 30.754283450920695], [111.2858066150834, 30.754336338251505], [111.28580669872031, 30.75436479639842], [111.28588226065784, 30.754447972895775], [111.2860215728374, 30.754598090429624], [111.28606988801505, 30.754645720323822], [111.28624582868224, 30.754819167170922], [111.28621072814269, 30.754888359210554], [111.2861683610812, 30.754888451840657], [111.2861049777627, 30.754945508428534], [111.28608168801958, 30.75502890166257], [111.28606804890148, 30.7550815488745], [111.2860537613721, 30.75513669979904], [111.28612159003939, 30.755160828609405], [111.2862752428083, 30.75521549030276], [111.28627796235821, 30.75521643099364], [111.28628151378103, 30.755217661266215], [111.28647956068329, 30.755286195001872], [111.28653206310435, 30.75530436400527], [111.28684517736315, 30.755328067436494], [111.2869303017921, 30.75546000877256], [111.28703172283588, 30.755530931107614], [111.28709998587573, 30.755532813388754], [111.2875003469635, 30.75541549682788], [111.28784229258787, 30.75517608470858], [111.28796257511294, 30.754736694842734], [111.28828300895384, 30.754697799164262], [111.28905634137715, 30.75456243410906]]]]}}, {"type": "Feature", "properties": {"SQMC": "双桥社区", "SSJD": "古老背街办", "类型": "城市社区", "来源": 2026, "社区": "双桥社区", "排名": 2, "诉求总量": 1, "民生基础件": 1, "安全韧性件": 0, "每周约件数": 0}, "geometry": {"type": "Polygon", "coordinates": [[[111.42276984095548, 30.539709203716825], [111.42280010494096, 30.53961087544161], [111.4228202380636, 30.539492915865424], [111.42282405568568, 30.539460060933095], [111.42321328496519, 30.53948316091919], [111.42321634535813, 30.539453547143523], [111.42337123739276, 30.539387610649783], [111.4233794913705, 30.539373197215355], [111.42369173778354, 30.539436776586], [111.42377405632772, 30.539194911116283], [111.42386538877673, 30.539298986958727], [111.42396020430004, 30.5393219601404], [111.42400353183757, 30.539338200097916], [111.4240413762086, 30.539353753872717], [111.42407156105378, 30.539362442222966], [111.42415769272338, 30.539401579819128], [111.42419298931509, 30.539415995951515], [111.424226616765, 30.539430273588323], [111.42425349840028, 30.53943627476434], [111.4245522127145, 30.538886821369772], [111.42518513218818, 30.539159542578886], [111.42602653699515, 30.537497769006904], [111.42636285106477, 30.537635022638256], [111.42638183485383, 30.537642771197], [111.42714802396222, 30.53795545917717], [111.42785010759644, 30.538241979583745], [111.42795352423582, 30.53828418386803], [111.42811839604718, 30.538087831288408], [111.42817383115744, 30.537989073137283], [111.42845915726434, 30.537472945919774], [111.42869792367031, 30.5370404907261], [111.42869341177158, 30.53703861294167], [111.42879764409605, 30.536849772399137], [111.42880318302053, 30.536851970342184], [111.42883382292263, 30.536796342777052], [111.42900288827275, 30.53655284323918], [111.42910584176127, 30.5363888158912], [111.42915612195753, 30.536308714175846], [111.42966591974647, 30.53549651215434], [111.4296634690939, 30.53549553728925], [111.42935515361751, 30.535364882883073], [111.42897095784349, 30.535202072317816], [111.42882466782424, 30.53514007665325], [111.42865652337991, 30.535068819770288], [111.42678141712878, 30.53427416442122], [111.4262238617419, 30.534037877446167], [111.42621224879633, 30.53403309125423], [111.42618109897859, 30.534020254331324], [111.42603397438847, 30.53395962473695], [111.42595803383625, 30.53392936704671], [111.4256193293686, 30.533795875279452], [111.42563887433465, 30.533764005104786], [111.42463142589963, 30.533347043431377], [111.42464177439842, 30.533328219721625], [111.42446312407395, 30.533262400139733], [111.42383216242439, 30.533003022171783], [111.42366260334654, 30.532933318417975], [111.42332929660984, 30.532803072303977], [111.42305884169224, 30.53269293772894], [111.42282898397048, 30.532606045232853], [111.42272730032471, 30.532798495654106], [111.4227251176701, 30.532797035155113], [111.42226108817874, 30.532609363731183], [111.42222437695352, 30.532594516823565], [111.42114074514933, 30.532156248412207], [111.42112421291216, 30.532149561053473], [111.42094603023514, 30.53207608644226], [111.42075131532101, 30.531990449399757], [111.42042422110097, 30.531857926202406], [111.420232304877, 30.53179212460691], [111.42017735270275, 30.531732969900702], [111.42001044662487, 30.531553298845722], [111.41870737124822, 30.530898395444638], [111.41862915271327, 30.5308630745713], [111.4186237900559, 30.5308706999229], [111.41791831777618, 30.531893176928634], [111.41792094019928, 30.531899124145298], [111.41752667471633, 30.532465107978396], [111.4175099086554, 30.532457693068125], [111.4170623115765, 30.53225974599053], [111.41677641440009, 30.532142807144908], [111.41655366042318, 30.532048365739513], [111.41653325570525, 30.532083831403725], [111.41649378985659, 30.532159953619043], [111.41643614691071, 30.532271147595452], [111.41636953412677, 30.53239558229035], [111.41604614781153, 30.532999664103272], [111.41600535636218, 30.533078331399906], [111.41599733171154, 30.533081086023344], [111.41593900618022, 30.53318945882654], [111.41585596458117, 30.533348023692383], [111.41585367580655, 30.533352395296845], [111.4177063053018, 30.534105849105686], [111.4189190959396, 30.534599064295435], [111.41892724559597, 30.534602379196485], [111.419172460141, 30.534702098722903], [111.42015884465502, 30.53510322423449], [111.42037375834235, 30.535190620350875], [111.42039061973139, 30.535197475882853], [111.42049726673554, 30.53524100666715], [111.42091707116595, 30.535412361691215], [111.42125292927932, 30.5355494507466], [111.42125810937432, 30.535551565052742], [111.42303704572316, 30.536277656089], [111.42147817168035, 30.539192621442396], [111.4215180080497, 30.539221897972254], [111.4215790432383, 30.539281100342578], [111.42161350795709, 30.539305839792746], [111.42167238926942, 30.53937889262187], [111.4217555172034, 30.539479407148974], [111.4217803097136, 30.539509707107356], [111.42182847110712, 30.539532625430354], [111.42183040914614, 30.53953307868869], [111.42183665134047, 30.539534541885644], [111.42187566303147, 30.53954368439355], [111.42190444223627, 30.539569514721393], [111.42191251814825, 30.53960564228663], [111.42191011515973, 30.539628182894376], [111.42191122492318, 30.539655048341842], [111.4219117699123, 30.53966824319491], [111.42191859396797, 30.53966695806372], [111.42199193278151, 30.5396531561683], [111.4220908330256, 30.539695141018], [111.42250172067793, 30.539853964888607], [111.42251744532388, 30.53986004520499], [111.42252452568636, 30.539863120886366], [111.42259791306327, 30.539824185637713], [111.42264166418153, 30.539800975934327], [111.4226970282453, 30.539788321573837], [111.4227188970595, 30.539786731572462], [111.42273149386341, 30.53978581606259], [111.42273333837295, 30.539782261042546], [111.42273590323941, 30.5397773147713], [111.4227488273965, 30.53975127040485], [111.42276984095548, 30.539709203716825]]]}}, {"type": "Feature", "properties": {"SQMC": "峡州社区", "SSJD": "窑湾街办", "类型": "城市社区", "来源": 2025, "社区": "峡州社区", "排名": 3, "诉求总量": 1, "民生基础件": 1, "安全韧性件": 0, "每周约件数": 0}, "geometry": {"type": "MultiPolygon", "coordinates": [[[[111.3234731433709, 30.738476703137508], [111.32356944097711, 30.738025407146893], [111.32365536670193, 30.737280591326282], [111.32365485858503, 30.737128666155172], [111.32365361302402, 30.736755556324], [111.32358111957313, 30.736340330342045], [111.32346620959788, 30.73568213542228], [111.32343954559872, 30.735529405357795], [111.3233606094048, 30.73516226432713], [111.32331357126446, 30.73494348175643], [111.32323749131734, 30.734589609323052], [111.32321672237396, 30.73448000085142], [111.32303500985802, 30.733520940439178], [111.32299181182282, 30.733436312435856], [111.32298275115306, 30.73333160437022], [111.3229120329641, 30.732514348158702], [111.32302077718731, 30.732490574580368], [111.3246464079055, 30.732445615672702], [111.32529703682889, 30.732427616641246], [111.32657898803006, 30.732443494172003], [111.32671201125044, 30.73262634073319], [111.32708469929958, 30.733138614355653], [111.32774335017564, 30.733633833234876], [111.3280864442342, 30.733785706245385], [111.32810296388084, 30.733807682079032], [111.32833677142503, 30.7341187117093], [111.32921538478217, 30.734298344093474], [111.32980102060077, 30.734277764007572], [111.3298256242532, 30.734280406215817], [111.3306407688566, 30.733398572386193], [111.3297576732781, 30.732946787164565], [111.32821655994638, 30.7321583434329], [111.32797581413269, 30.732035172285464], [111.32799165569043, 30.73197788277315], [111.32368334820814, 30.73046878080976], [111.3235485955912, 30.730466133205653], [111.32294238508314, 30.73245289118796], [111.32290529973977, 30.73243653341933], [111.3221676892876, 30.73211115330713], [111.32112309975133, 30.73149968266432], [111.32093768742442, 30.73310190043253], [111.32073990492273, 30.734810946867754], [111.32068358937619, 30.73523768686988], [111.32066488077976, 30.735379461393165], [111.32064334561409, 30.735542643378437], [111.32060328081695, 30.735846242809885], [111.32046632396185, 30.73688404965924], [111.32069920340558, 30.73692351281005], [111.32101987736564, 30.73697999742899], [111.32135455197118, 30.737054828217822], [111.3214843799002, 30.737083855635433], [111.32186032799189, 30.737290021617355], [111.32188295403517, 30.737302431362195], [111.32245889156468, 30.737682849983628], [111.32293537306901, 30.73806351322071], [111.32330967809924, 30.738380856091624], [111.32330685512733, 30.738344694352236], [111.32335813986646, 30.73840946532465], [111.3234510398338, 30.738490262215976], [111.3234731433709, 30.738476703137508]]], [[[111.32246865640354, 30.74056587681389], [111.32247108637159, 30.740537281970035], [111.32247804532557, 30.74054037833588], [111.32256425163894, 30.740345097748104], [111.32283453838335, 30.739732840198542], [111.32284968476529, 30.739683682356088], [111.32185509573623, 30.73913380358232], [111.32103409564712, 30.738679898658518], [111.32100622385815, 30.738724185772583], [111.3210119678281, 30.738728212037415], [111.32099455515464, 30.73873985106337], [111.32081971435844, 30.739005910094704], [111.3208186162862, 30.7390075792365], [111.32054163408918, 30.739633537957445], [111.32043098420263, 30.739593241135196], [111.32036852178993, 30.739745685215325], [111.32028024074066, 30.73996113939512], [111.3196296486895, 30.741105434068572], [111.3197129088237, 30.741155008297028], [111.3207699009103, 30.741619126821433], [111.32084503926734, 30.741652119349965], [111.32190373556898, 30.742116974418877], [111.32190861529051, 30.74210634892887], [111.32191212984111, 30.742094946424686], [111.32204772692114, 30.74165507542142], [111.3221655632903, 30.741272807793905], [111.32246865640354, 30.74056587681389]]]]}}, {"type": "Feature", "properties": {"SQMC": "峡江社区", "SSJD": "小溪塔街办", "类型": "城市社区", "来源": 2026, "社区": "峡江社区", "排名": 4, "诉求总量": 1, "民生基础件": 1, "安全韧性件": 0, "每周约件数": 0}, "geometry": {"type": "Polygon", "coordinates": [[[111.29532596681997, 30.7765308239384], [111.29544566478569, 30.776512938221572], [111.29549066326354, 30.77651889982741], [111.29549442962428, 30.77652006984539], [111.29549905843487, 30.776519558131156], [111.29551863937377, 30.77650872309914], [111.29552820276439, 30.7764981272868], [111.29560191389726, 30.77643391029676], [111.29565074888302, 30.776383305445222], [111.29570449416713, 30.77633194426386], [111.2957221478589, 30.77631838338675], [111.2957290744373, 30.77631410621109], [111.29574770659144, 30.776306197573035], [111.29584299875546, 30.776271177972546], [111.29589581683854, 30.776250168010904], [111.29591330235706, 30.77624126742063], [111.29598571936549, 30.776194901973213], [111.2960420780795, 30.776160100008667], [111.29618527443091, 30.776094171608804], [111.29644850419515, 30.775970261218617], [111.29647063021548, 30.775958713024238], [111.296567953948, 30.775900270581076], [111.29666455372626, 30.775837658880903], [111.29673208471797, 30.775791156736545], [111.29681355070488, 30.775731494812703], [111.29682857657758, 30.77572314370815], [111.29727242618156, 30.775510381199183], [111.29736999183172, 30.77546512821317], [111.29745379335793, 30.77541839044642], [111.29751501290758, 30.77538644113139], [111.2975217200514, 30.775370318085777], [111.29751874059747, 30.775357650235435], [111.29752252674325, 30.775346739660336], [111.29753674862212, 30.775337964075845], [111.29755286627181, 30.775332773189007], [111.2976266277667, 30.775292890054857], [111.29775036998365, 30.77522108188748], [111.29797387399515, 30.775089611796204], [111.29815940233459, 30.774982678807646], [111.2984579898444, 30.774832143988306], [111.29851617418217, 30.77480446015778], [111.29870631424507, 30.77474020359756], [111.29878627476683, 30.77471343707549], [111.29887739317724, 30.774677590998067], [111.2988807179708, 30.774676281585187], [111.29878669564954, 30.774589659785022], [111.29912026588761, 30.774422875115647], [111.29958728832275, 30.77420278403133], [111.29996305205327, 30.774031006325913], [111.30029050420347, 30.773907540200867], [111.30060722024706, 30.773762602761963], [111.30093467239726, 30.77361766532306], [111.30120844311523, 30.77343515061176], [111.30129140107738, 30.773357722580897], [111.30136948471403, 30.773284845119576], [111.30138111204872, 30.773209270591394], [111.30150877261184, 30.77309615026718], [111.30175033590933, 30.772859955022966], [111.30200263531344, 30.772629128731353], [111.30229251019125, 30.772376830226563], [111.30249649711573, 30.772172843302144], [111.30254155584817, 30.771421847340434], [111.30254341474688, 30.771390866595254], [111.30254847972861, 30.771362947142336], [111.30255872480535, 30.77130681235957], [111.30256898517058, 30.771250676677425], [111.30257841096494, 30.771198946774007], [111.30258781697421, 30.771147153018774], [111.30259801798422, 30.771090821284417], [111.30260831791958, 30.77103397064127], [111.3026180881543, 30.770980225357164], [111.30262820193002, 30.77092481183064], [111.3026395073075, 30.770863076969476], [111.30265060674014, 30.77080229808763], [111.3026599488976, 30.770750489043905], [111.30266825863328, 30.77070354083577], [111.30267633724321, 30.770657030597533], [111.30268379442163, 30.770613453048497], [111.30268978390649, 30.770577517938136], [111.30269474276821, 30.770546492226913], [111.30269917912386, 30.77051732541429], [111.30270368742532, 30.770487779987093], [111.30270891878166, 30.77045533424632], [111.30271542088002, 30.77041671465969], [111.30272365777063, 30.770369055987203], [111.30273297924367, 30.770316156065803], [111.30274354807636, 30.77025785301754], [111.302756454247, 30.770188258081703], [111.3027726348493, 30.770102209149684], [111.30278904387933, 30.770014973112552], [111.30280280170797, 30.769940913942094], [111.30281497493121, 30.769874186944207], [111.30282673806357, 30.769808474381648], [111.30283781141594, 30.769745884265205], [111.30284739818893, 30.769690885326156], [111.30285626730296, 30.769638957571885], [111.30286524343632, 30.769585385856942], [111.30287409186593, 30.769532441868762], [111.30288248433925, 30.769482873935544], [111.30289116729358, 30.769432323942624], [111.30290086468324, 30.769376503922558], [111.30291063941456, 30.76932055709807], [111.3029195921655, 30.769269532263138], [111.30292849725242, 30.769219064108597], [111.30293812539423, 30.769164753150903], [111.30294782907913, 30.769110145416903], [111.3029570192511, 30.769058571995572], [111.3029716179459, 30.768977365912747], [111.30310161494765, 30.768254260625667], [111.3031021275612, 30.768251401680914], [111.30313061088907, 30.768241949806168], [111.30310212396392, 30.768249889920526], [111.30292721212118, 30.768102178073093], [111.30279605229606, 30.76799038604753], [111.30269996962795, 30.767907008101986], [111.30262801037446, 30.767842692186548], [111.30256635555293, 30.767786328076625], [111.30250896981318, 30.767732820213553], [111.3025042177955, 30.767728289429044], [111.3024508412334, 30.767677395895134], [111.30238700285798, 30.76761542001566], [111.30238070130838, 30.76760926415625], [111.30232371486761, 30.767553598819575], [111.30229165673461, 30.767522246654437], [111.3022676412387, 30.767498759959835], [111.30221413427495, 30.767446351967635], [111.30215837900607, 30.76739166239537], [111.30210415708126, 30.76733814913632], [111.3020564030806, 30.767290155915987], [111.30201118696675, 30.76724365377163], [111.30196441232783, 30.767194507620502], [111.30191785892214, 30.767145820123574], [111.30187347378182, 30.76710102579176], [111.30182729089682, 30.767056259338972], [111.30178177710741, 30.76701357841398], [111.3017754548734, 30.76700765008303], [111.30172280586288, 30.76695923777868], [111.30167357337677, 30.76691520067601], [111.30162343527337, 30.766871785004923], [111.30159106777364, 30.766844515761818], [111.3015681296655, 30.766825192029046], [111.30141133016883, 30.7666938784198], [111.30140961426235, 30.766692440403858], [111.30140957289353, 30.766692406229595], [111.30135339044665, 30.766645139661534], [111.30129695618962, 30.766597591605603], [111.3012444573659, 30.76655325772674], [111.30119130743293, 30.766508253852862], [111.3011329630159, 30.766458747073557], [111.30111039542845, 30.766439749794642], [111.30099189895702, 30.76634272103979], [111.30096823869332, 30.766324000752093], [111.30091113713934, 30.766280184882703], [111.30085478202261, 30.766237630762078], [111.30080464032193, 30.766200499553463], [111.30075653288776, 30.76616576234011], [111.30070615466536, 30.766130236421304], [111.30065474132334, 30.766094582798814], [111.30060274432128, 30.766059375240047], [111.30054525785744, 30.76602135280325], [111.30053540938172, 30.76601494963029], [111.30047773226158, 30.7659774488003], [111.30043300178164, 30.76594881258768], [111.30043001962974, 30.76595111395278], [111.3004250283924, 30.76595496484981], [111.3004037711172, 30.76597135769208], [111.30033773659733, 30.766022564190052], [111.30029552331979, 30.766055300411836], [111.30024554799371, 30.766094847199497], [111.30019900627917, 30.76613233993561], [111.30015648363485, 30.76616694944522], [111.30012160163068, 30.766195668395426], [111.30009172885025, 30.766220701024565], [111.3000639047255, 30.766244488092696], [111.3000367613875, 30.7662677976208], [111.30000944897694, 30.766291049592326], [111.29997940082876, 30.76631640777606], [111.29994423104148, 30.76634590284118], [111.29991322241733, 30.766371849181553], [111.29990771676779, 30.76637645730773], [111.29987262971815, 30.76640578779694], [111.29985331677722, 30.76642191623847], [111.29983580877564, 30.766436537416325], [111.29979420164113, 30.76647125394527], [111.2997525009772, 30.766506055010495], [111.29971531940652, 30.76653712298986], [111.29967955516742, 30.766567054226243], [111.29965978627018, 30.76658362063762], [111.29964200667331, 30.76659851970595], [111.2996048601762, 30.76662972977823], [111.29957058431506, 30.7666587032366], [111.29953621492444, 30.766687963578704], [111.29949879233544, 30.76672001541641], [111.29946209999599, 30.766751361286367], [111.29943047893352, 30.76677796413179], [111.29940138676466, 30.766801922970444], [111.29937212102664, 30.766825504093788], [111.29934411703744, 30.766847854944615], [111.29931976429577, 30.76686718767064], [111.29929708519239, 30.766885064394273], [111.29927399779683, 30.76690313537148], [111.29925138074668, 30.766920575923905], [111.29923047240845, 30.76693608293391], [111.2992094552522, 30.766950946029397], [111.2991865261373, 30.766966495307543], [111.29916385063126, 30.76698148970405], [111.29914380204491, 30.766994262775086], [111.29912471573311, 30.767005828955917], [111.29910487578945, 30.76701727822484], [111.2990847912302, 30.767028609682654], [111.29906479120723, 30.767039745088198], [111.29904301412387, 30.767051705172094], [111.29901771079875, 30.76706546120215], [111.29899138584386, 30.767079585954207], [111.29896576325945, 30.76709293459129], [111.29893850480823, 30.767106687923388], [111.29890738286946, 30.767122005176475], [111.29887547222535, 30.767137593125483], [111.29884524870931, 30.767152361792114], [111.29881403324111, 30.767167626884543], [111.29877919800163, 30.767184668137986], [111.2987436127276, 30.767202036744663], [111.2987095832807, 30.767218539304224], [111.29867405196597, 30.76723564440954], [111.29867075415206, 30.76723722182038], [111.29863406540983, 30.767254781982672], [111.29859319392085, 30.76727428917718], [111.29855433511455, 30.767292779238403], [111.2985140292991, 30.767311897026502], [111.29846889862085, 30.767333246032535], [111.29842250529447, 30.767355122940614], [111.29837744656197, 30.767376221935137], [111.29832962960876, 30.76739844957882], [111.29827512709551, 30.767423644985286], [111.298220029231, 30.76744912008087], [111.29816996217409, 30.767472398132725], [111.29812066313815, 30.76749547833373], [111.29806781537746, 30.767520367970633], [111.29801523741332, 30.767545195554362], [111.29796696000727, 30.767568047327586], [111.29791882019748, 30.767590891006876], [111.29786664962626, 30.767615706000072], [111.29781425512385, 30.767640684669914], [111.29776527264926, 30.767664155176647], [111.29771540434251, 30.76768818506173], [111.29768330304205, 30.767703724447358], [111.29766040900074, 30.767714805893604], [111.29763271078104, 30.767728284033126], [111.29760507641322, 30.767741731595663], [111.29755394096168, 30.767766906317718], [111.29750256539114, 30.767792536096692], [111.29744653403037, 30.767820800889297], [111.2973898173862, 30.76784934177374], [111.29733586615737, 30.76787601206837], [111.29727986627285, 30.76790314641312], [111.29721713766082, 30.767933055166395], [111.29715310143456, 30.767963243608847], [111.29709219035237, 30.767991428361768], [111.29702897071047, 30.768020076265543], [111.29695815719327, 30.76805163077819], [111.296886441656, 30.768083566603366], [111.29681984416055, 30.7681136597177], [111.29675255598573, 30.768144570315712], [111.2966788169739, 30.768178903733485], [111.2966032172647, 30.768214429652232], [111.29652892876709, 30.768249818874096], [111.29644912023076, 30.7682883674143], [111.29635731473837, 30.768333164444016], [111.29626734116493, 30.76837705315853], [111.29619440344902, 30.76841219057019], [111.29613308227601, 30.76844114334415], [111.29607720290068, 30.768466880142455], [111.29602664301524, 30.768489740009556], [111.29598531107331, 30.76850789012707], [111.29595009362197, 30.76852263900861], [111.29591749139917, 30.768535518199656], [111.29588556816452, 30.76854815457375], [111.29586741984559, 30.768555841978582], [111.29578812212418, 30.76859185982653], [111.29591651113816, 30.768810121689796], [111.29589349299039, 30.768820627569937], [111.29591164130926, 30.768846883277092], [111.29595117460707, 30.768904079259926], [111.29597487084368, 30.768929700045646], [111.29598177134176, 30.76893996400821], [111.29599180867507, 30.768954893653472], [111.29600867366145, 30.768980071073486], [111.29602692270436, 30.769007406866365], [111.29604515106291, 30.769034754350457], [111.29605445814678, 30.769048742405573], [111.29606192791573, 30.769059967743374], [111.29605967961061, 30.769061063117647], [111.29609488267278, 30.769111994423042], [111.29610724115634, 30.769129872045994], [111.29613196621733, 30.76916564078175], [111.29624159897065, 30.76933683482713], [111.29695970492651, 30.770458161714828], [111.29696710904489, 30.77046972429838], [111.29701939113204, 30.77053727867252], [111.29736902236255, 30.77098904770645], [111.29764540740968, 30.771274058151334], [111.29727239740328, 30.771458324741957], [111.29599970562197, 30.7720870335898], [111.29606123633704, 30.772142198903396], [111.29606093956079, 30.77214245880748], [111.29606051867808, 30.772142825730896], [111.29606081275637, 30.772143091030898], [111.29610415558238, 30.77218225560665], [111.29583770264793, 30.772396037946862], [111.29552635465762, 30.772642969297635], [111.29526868809955, 30.77277180167738], [111.29514549806635, 30.772792921356313], [111.2951394258439, 30.772796474577717], [111.29512286932504, 30.77280731590497], [111.29510746843499, 30.772818645564087], [111.2950935712114, 30.772829661359822], [111.29508264894514, 30.772839319179297], [111.29507392462199, 30.772848413123825], [111.29506648183275, 30.772857770569715], [111.29505927466585, 30.772867069559652], [111.29505143707422, 30.772875945868236], [111.29504218035243, 30.772885193596835], [111.29503081741836, 30.772895584363766], [111.29501881056973, 30.7729058807019], [111.29500714456412, 30.77291478668809], [111.29499475460432, 30.77292301998142], [111.29498062355697, 30.77293133871035], [111.2949661633578, 30.77294026987761], [111.29495253143426, 30.77295079104624], [111.29493852359406, 30.772964019174196], [111.29492295632946, 30.772980888657116], [111.29490666241259, 30.77300053434726], [111.29488992602933, 30.773024180221796], [111.2948711436884, 30.773054367764928], [111.29484885129352, 30.773093204088127], [111.29482655710001, 30.77313303955816], [111.29480777385976, 30.77316697637491], [111.29479103657712, 30.773197701712604], [111.29477474086167, 30.773228111388278], [111.29475971139163, 30.77325676738593], [111.29474771893217, 30.773280896196468], [111.29473789383877, 30.77330238189944], [111.2947292225756, 30.77332328394243], [111.29472024734162, 30.773345017858333], [111.29470927201533, 30.773369633202037], [111.29469510679382, 30.77339966336382], [111.29467677321458, 30.77343729459551], [111.29465518229091, 30.773480775017788], [111.29462878808818, 30.773532774717808], [111.29459472986298, 30.773598853304463], [111.29455064779421, 30.773683648581596], [111.29450528329227, 30.7737708162702], [111.29446640560019, 30.773845799044466], [111.29443091475497, 30.773914607972813], [111.2943954913589, 30.77398365522157], [111.29436056079129, 30.774051689833698], [111.2943269234488, 30.774116709918303], [111.29429154142156, 30.774184543082242], [111.29425149461088, 30.774260834370068], [111.2942131628073, 30.774334244230033], [111.29418422712047, 30.77439125765045], [111.29416275490729, 30.77443586222529], [111.29414632699144, 30.774472845045807], [111.2941329603679, 30.774504528161515], [111.29412299408096, 30.77452922894082], [111.29411577702155, 30.774548682175976], [111.2941104710215, 30.774564964401634], [111.29410564256142, 30.774580857220826], [111.29410020526035, 30.77459884276243], [111.2940936006392, 30.774620776327822], [111.29408535115812, 30.774648250616337], [111.2940763273607, 30.774678545178745], [111.29406683231849, 30.77471106286532], [111.29405593703194, 30.774749031342765], [111.2940428087287, 30.7747953122539], [111.29403015077088, 30.774841568883346], [111.29402101905487, 30.774879450126548], [111.29401485330288, 30.774911810431774], [111.29401215983336, 30.77493224572663], [111.29401089088998, 30.77494186127791], [111.29400821720554, 30.77496932207663], [111.29400687991364, 30.774991954415214], [111.29400686642379, 30.775011476898214], [111.29400807061603, 30.775029814074685], [111.29400978742183, 30.775048080204783], [111.29401169308522, 30.77506733918642], [111.29401397736325, 30.775089474199945], [111.294016811127, 30.775116177769462], [111.29402018178604, 30.77514513144274], [111.29402448234407, 30.77517571918412], [111.29403019124038, 30.77521093483682], [111.29403769518353, 30.77525347007162], [111.29404551388944, 30.775295823643376], [111.29405241079019, 30.775330370200493], [111.2940589515594, 30.77535969529373], [111.294065733347, 30.775386725317162], [111.29407238203487, 30.77541134695616], [111.29407843986814, 30.775431621272332], [111.29408442035975, 30.775449089703784], [111.29409084691514, 30.7754654735528], [111.29409737869116, 30.775481620880157], [111.29410375758243, 30.775498202580025], [111.29411056455098, 30.775516805056554], [111.29411835807582, 30.775538880714805], [111.29412666781155, 30.775562695661904], [111.29413542630891, 30.775587829015137], [111.29414548612533, 30.775616736822997], [111.29415761258383, 30.775651628719743], [111.29416945215854, 30.77568556823445], [111.29417841030545, 30.775710890445282], [111.29418509316758, 30.77572925370214], [111.29419024898084, 30.7757427741098], [111.2941945864111, 30.775753495827246], [111.29419818819588, 30.77576135230464], [111.29420133492374, 30.77576684086705], [111.29420432966612, 30.775770616220996], [111.29420713914823, 30.775774385279703], [111.29420958080755, 30.77577985135912], [111.2942118569917, 30.775787665568373], [111.29421417544393, 30.775798323433946], [111.29421623399207, 30.77581164239342], [111.29421753261312, 30.775829455265182], [111.29421813425955, 30.775853795416367], [111.29421813875615, 30.775886270834803], [111.29421765222293, 30.77591927415523], [111.29421640935988, 30.775945601808132], [111.29421422940322, 30.77596716665147], [111.2942109963405, 30.775986191809352], [111.29420742693128, 30.776003188096695], [111.29420398882309, 30.77601713388367], [111.29420036905185, 30.776029085873688], [111.29419626814331, 30.77604022397719], [111.29419165911781, 30.776051195706145], [111.2941861300859, 30.776062519070024], [111.29417909199157, 30.776075277751943], [111.2941700502077, 30.776090469999247], [111.2941599463245, 30.77610633404015], [111.29414892603216, 30.776121609924417], [111.29413587866793, 30.77613768260801], [111.2941198338633, 30.776155875892982], [111.29410266670476, 30.776174744568834], [111.29408540241946, 30.776193344347405], [111.29406641593243, 30.776213392933812], [111.29404420177855, 30.7762365109063], [111.29402011163893, 30.776261102867636], [111.2939940816616, 30.776286683183912], [111.29396352269845, 30.776315724990752], [111.29392613608235, 30.77635047479464], [111.29388750030796, 30.776385983626312], [111.29370206459868, 30.77654780134003], [111.29372241265929, 30.776563509798166], [111.29361854096294, 30.7766492043973], [111.29331792997857, 30.776912239008652], [111.29309247084092, 30.77703033708042], [111.29266302567817, 30.777126962039745], [111.2927968942613, 30.777461633048006], [111.29282663574071, 30.77744297661212], [111.29286526611918, 30.777421729229445], [111.29298258268011, 30.777362988211394], [111.29301819043718, 30.777342177899243], [111.29307761943664, 30.7773054792645], [111.29330096336884, 30.77717979001534], [111.29339253233957, 30.77713520702423], [111.2934710962142, 30.77709369341926], [111.29351612706768, 30.777072557552515], [111.29405731299465, 30.776830737048954], [111.29428248255061, 30.776752237925507], [111.2944408603575, 30.776714945738206], [111.29449780992604, 30.776705305905182], [111.29463236379263, 30.776685072058456], [111.29471370567302, 30.77667809421871], [111.29477281001721, 30.776666395837537], [111.29479873117657, 30.776664456899198], [111.29485099707591, 30.776657694896755], [111.2948896643266, 30.776650247610917], [111.29494158938292, 30.776637265897136], [111.2949783689566, 30.776626238410245], [111.29509435362161, 30.776583486438824], [111.29517766681596, 30.77655628374555], [111.29519710566194, 30.776551582089894], [111.29532596681997, 30.7765308239384]]]}}, {"type": "Feature", "properties": {"SQMC": "幸福路社区", "SSJD": "西坝街办", "类型": "城市社区", "来源": 2025, "社区": "幸福路社区", "排名": 5, "诉求总量": 1, "民生基础件": 0, "安全韧性件": 1, "每周约件数": 0}, "geometry": {"type": "Polygon", "coordinates": [[[111.27989641089067, 30.729277283419947], [111.2797543153095, 30.72895179898643], [111.27974387058322, 30.728926896758935], [111.27965942873982, 30.72872557272717], [111.27946681644056, 30.728266354608706], [111.27932063344065, 30.727917825946975], [111.2792670311486, 30.72779002868691], [111.27893389258509, 30.727050946044358], [111.27887424235246, 30.726918609906022], [111.27864409594827, 30.726444845253468], [111.27861482301574, 30.726385463018858], [111.27828982331681, 30.725726191610534], [111.27825843787679, 30.725662525904966], [111.27807761568948, 30.72529572211988], [111.27797667398437, 30.725090956382587], [111.27771905688905, 30.724538019913666], [111.27751744327543, 30.72410121380011], [111.27714788756515, 30.723300544684548], [111.27623895536362, 30.72367657641297], [111.27621847959927, 30.72368504712722], [111.27622685408613, 30.72370041384312], [111.27621822599042, 30.723704190096385], [111.27616490518625, 30.723727515812357], [111.27611180831343, 30.723750744401514], [111.27585325862117, 30.72386385123582], [111.27554035300494, 30.724000031975947], [111.27493688093244, 30.724262664590412], [111.27512900759774, 30.724582012949725], [111.27512594001013, 30.724608688640217], [111.27523892723468, 30.724786265174146], [111.27546276489477, 30.72513805837474], [111.27545453429934, 30.72514177167551], [111.27556550164667, 30.72533679505716], [111.27558389637989, 30.725369122087443], [111.27562026766134, 30.72543530319672], [111.27563128705435, 30.725455351783182], [111.2758593146558, 30.72587026030442], [111.27587899991596, 30.725906080301513], [111.2758832743936, 30.725913856739112], [111.27588602721846, 30.72591886596308], [111.27593023699097, 30.725999304924017], [111.27625257469668, 30.726585804091656], [111.27626501142123, 30.726614309902516], [111.27646742183407, 30.727078283635876], [111.2764711783023, 30.72707426096855], [111.27654055470293, 30.727242212957947], [111.2765414971924, 30.727244490940507], [111.27654180565992, 30.727245240075888], [111.27684689796604, 30.72798381370211], [111.27684318916192, 30.72799002442008], [111.27688576756424, 30.72808885631582], [111.27700857988225, 30.7283739252166], [111.27701370062198, 30.728372263269364], [111.27720348815063, 30.72891072874728], [111.27722484704907, 30.7289378487028], [111.27724842097803, 30.72901088624343], [111.2768344396577, 30.72915260860617], [111.27673541530737, 30.72908732591935], [111.27662325096236, 30.728807436214367], [111.2765197210083, 30.728563147071668], [111.27651703923016, 30.728556817643152], [111.27640473009427, 30.728291816214494], [111.27610727483102, 30.72838284739055], [111.27599147992294, 30.728418284276472], [111.27590216105597, 30.728445617371392], [111.27567738270523, 30.72847120128506], [111.27550803137063, 30.72848596455566], [111.27563848972466, 30.728833109160803], [111.27567852664276, 30.72893964824624], [111.27569799516647, 30.72899442595218], [111.2756704201538, 30.729002819324762], [111.27569125204963, 30.729053864844047], [111.27566939762471, 30.729061128668263], [111.27568590468087, 30.729188095854], [111.27575737380374, 30.72919601528406], [111.27592932687708, 30.72929736168396], [111.27595067408441, 30.729463550102935], [111.27615822232417, 30.72997512315351], [111.27621214567404, 30.730056535181006], [111.27524980183688, 30.73035760571912], [111.274685543803, 30.730534131844763], [111.27488361228887, 30.731014552379747], [111.2750011959485, 30.73109296157105], [111.2753504512624, 30.73132586079987], [111.27634059314397, 30.731836233255592], [111.27757836155229, 30.732497647748403], [111.27865102432543, 30.733207803697212], [111.27900480322921, 30.7334787703291], [111.2791261559475, 30.733614398885493], [111.27916314416387, 30.733697963889995], [111.2795513248339, 30.734574966561524], [111.28008983707633, 30.73579160629771], [111.28210286065865, 30.735227673818144], [111.2816657721578, 30.734015914702866], [111.2812455279589, 30.732850853783987], [111.28112474541086, 30.732516001112742], [111.28071710970698, 30.731953590286025], [111.28061718603442, 30.73159237219039], [111.28011576632974, 30.729779740043114], [111.27989641089067, 30.729277283419947]]]}}, {"type": "Feature", "properties": {"SQMC": "松林路社区", "SSJD": "宝塔河街办", "类型": "城市社区", "来源": 2025, "社区": "松林路社区", "排名": 6, "诉求总量": 1, "民生基础件": 1, "安全韧性件": 0, "每周约件数": 0}, "geometry": {"type": "Polygon", "coordinates": [[[111.3476857104273, 30.69159942907055], [111.34579488222823, 30.691061909679433], [111.34551832091392, 30.69154509293179], [111.34527433304402, 30.691971367984365], [111.34520811865985, 30.69208705137646], [111.3449320555701, 30.692569350595193], [111.34463042565369, 30.693096320039274], [111.34528110583847, 30.6932902255636], [111.34864096580804, 30.694581381325804], [111.34878562985307, 30.694636973817296], [111.34984602317553, 30.69504447102554], [111.35122122238164, 30.69524092792659], [111.35135709015765, 30.695260337994284], [111.35191240083674, 30.69533966899064], [111.35217064565887, 30.695376560979696], [111.35226158870148, 30.69541293765701], [111.35302972124481, 30.695237749722423], [111.35308103296342, 30.695226046844653], [111.35348577914544, 30.695133736832588], [111.35376497997004, 30.694135054988863], [111.35369464309343, 30.69365826591627], [111.35269435326182, 30.693122706148017], [111.35261612933101, 30.693080824720425], [111.35257013170633, 30.69305619768545], [111.35260094158025, 30.692996556445962], [111.35014513499016, 30.692298534150154], [111.34970830819196, 30.692174362956678], [111.34968421535439, 30.692167514619143], [111.3476857104273, 30.69159942907055]]]}}, {"type": "Feature", "properties": {"SQMC": "樵湖岭社区", "SSJD": "西陵街办", "类型": "城市社区", "来源": 2025, "社区": "樵湖岭社区", "排名": 7, "诉求总量": 1, "民生基础件": 1, "安全韧性件": 0, "每周约件数": 0}, "geometry": {"type": "Polygon", "coordinates": [[[111.27888855416353, 30.716577290409816], [111.27888422572659, 30.71656813261336], [111.27895074498105, 30.716576580844617], [111.27916203709833, 30.716521474886235], [111.27938576594039, 30.716516222845485], [111.27957883329663, 30.716415570722063], [111.2796013909915, 30.71641032227859], [111.27962595777177, 30.716474486208597], [111.27970781856101, 30.716503221346557], [111.2797083527584, 30.716504349096567], [111.27971185921507, 30.716502428144622], [111.2796918600913, 30.716479854261934], [111.27975701327563, 30.716453389912147], [111.28028197363437, 30.716240151661793], [111.28029076270855, 30.71626492168889], [111.28046620964784, 30.71621845281942], [111.28046489304057, 30.716214740418025], [111.28048146125047, 30.716215360950287], [111.28076673339808, 30.716130793201728], [111.28079407368762, 30.716198904256146], [111.2809716772012, 30.71654370972459], [111.28108057161108, 30.716503951596223], [111.28111048665966, 30.71649101574792], [111.28126429591072, 30.716421346168318], [111.28132656766701, 30.71639511114563], [111.28129793505178, 30.716346721324214], [111.28116756842866, 30.716130390305352], [111.28120138023962, 30.716099169441236], [111.28136088040043, 30.716038022736655], [111.28136428883096, 30.716039220633718], [111.28138705786648, 30.71603527260993], [111.28143640186863, 30.716024065258466], [111.28143385408924, 30.716022310681183], [111.28142262875139, 30.716003691117464], [111.28141819329517, 30.715996808605837], [111.28148190036944, 30.715968881058984], [111.28147967005071, 30.71595970257829], [111.28146724861477, 30.715938677328097], [111.281556624139, 30.7158988859249], [111.2816641317944, 30.715851062676563], [111.28168537018377, 30.715841492091215], [111.2817086518329, 30.71584239680925], [111.28178585143604, 30.715842612646554], [111.28179824499318, 30.715835730134927], [111.28180618600669, 30.715816608749606], [111.28197651940104, 30.7158803140253], [111.28211428024997, 30.715931838883307], [111.28211682443208, 30.715927124637233], [111.28212825031864, 30.71593243063728], [111.2822080966265, 30.715783657589895], [111.28222766227697, 30.715746674769377], [111.28224335904383, 30.715712895333922], [111.28219307255245, 30.715699446872065], [111.28223320479856, 30.715577651687454], [111.28227097182793, 30.71546843711866], [111.28229431642973, 30.71540283697152], [111.28232095344941, 30.715312392153294], [111.28234824157818, 30.715204646177597], [111.28238757702525, 30.715126383575864], [111.28243243790683, 30.715026852906988], [111.28242871381411, 30.714997228339485], [111.28248946211903, 30.714997967582292], [111.28249531940361, 30.714726259909014], [111.28256185484582, 30.714727287834137], [111.28256401231931, 30.714644007015465], [111.28256647016661, 30.714549096164035], [111.28257095328695, 30.714522539183918], [111.28255003325751, 30.714517445423837], [111.28255135795894, 30.71450636487691], [111.28261448856796, 30.71450456533347], [111.28262355373414, 30.714468624827248], [111.2826358366745, 30.714415378666843], [111.28265528631249, 30.7143305887858], [111.28260754130508, 30.714330881065393], [111.28256124600489, 30.714331164351847], [111.28237777171682, 30.71433228580645], [111.28237786344772, 30.714343315991414], [111.2823153884446, 30.71434369820315], [111.2821720176247, 30.71434150925336], [111.2819617030703, 30.71434090221095], [111.28173375730722, 30.714340379704822], [111.28173377889084, 30.71433290094268], [111.28153254479122, 30.71433537227972], [111.28152994934771, 30.714314046656], [111.28157192520428, 30.71399836123544], [111.28157249627372, 30.71399406517395], [111.28037002535638, 30.713893278152398], [111.2804091908315, 30.71349216073469], [111.28044901461044, 30.713084311891464], [111.2804490307982, 30.713084152711588], [111.2805035468013, 30.712624722353155], [111.28051389889737, 30.712492049868217], [111.28053080525262, 30.71227539869068], [111.28053152021369, 30.712266234599156], [111.2805602490563, 30.71201973042639], [111.28057510495717, 30.711892309082828], [111.28056899766113, 30.7115104722306], [111.27998579630764, 30.711717053699147], [111.27969278369505, 30.711845884280194], [111.27926840801075, 30.712010614898134], [111.27832235089579, 30.712368298658248], [111.27821247892297, 30.712413980620795], [111.27740064562335, 30.712716766165897], [111.27725692676592, 30.712785712690675], [111.27732015630022, 30.712907049220973], [111.27732609002715, 30.71291800296359], [111.27732896965631, 30.712917716979234], [111.27741050758902, 30.713084027705804], [111.27744467732998, 30.713143993600454], [111.27744731773964, 30.713154259361716], [111.27747973020541, 30.71328013656921], [111.27751736143728, 30.71342629079072], [111.27748959037234, 30.713431629166507], [111.27749575972166, 30.713649693178866], [111.27754426195816, 30.71364582609408], [111.27754457492222, 30.713645800912957], [111.27754402004058, 30.713636331051987], [111.27760781794655, 30.71363175260342], [111.27767464207113, 30.713626955619645], [111.27781392007643, 30.713622689235763], [111.27781298298282, 30.713606148904717], [111.27805571090238, 30.713588877424854], [111.2780570571876, 30.71359508364634], [111.27807287626234, 30.713594044029946], [111.27807556703385, 30.713504986865814], [111.2780850126133, 30.713501394074115], [111.27861813521889, 30.713298623932474], [111.27861407388042, 30.71329063525468], [111.27864804217347, 30.713280487304814], [111.27858268933977, 30.71312461770708], [111.27865139394675, 30.713097291806605], [111.27876027037036, 30.713054937335528], [111.27876574993951, 30.713058918634374], [111.27877114587176, 30.713062986267914], [111.27877646356313, 30.713067130343916], [111.27878169761738, 30.71307134996289], [111.27878685073262, 30.713075646024322], [111.278791920211, 30.713080014930824], [111.27879690425385, 30.713084455783132], [111.27880180106234, 30.71308897037983], [111.27880660973739, 30.71309355332488], [111.2788113293795, 30.713098204618632], [111.27881595908923, 30.713102925159944], [111.27882048897453, 30.713107714949274], [111.27885370183702, 30.713148233904064], [111.27885703742254, 30.713153514723047], [111.2788604656381, 30.713158946628255], [111.27886732296861, 30.713169805941902], [111.27887663005242, 30.71317017556322], [111.27888151157254, 30.7131724643379], [111.27887514167446, 30.713242476559174], [111.27886099084213, 30.713247851806955], [111.27888128674203, 30.713312840415426], [111.27911415269614, 30.71331473888415], [111.27911283788723, 30.713330201827432], [111.279146825066, 30.713332126376656], [111.27914310996664, 30.713376918909717], [111.27921738407514, 30.71338358558404], [111.27921761520082, 30.7134034183332], [111.27928968327234, 30.71345513384739], [111.27934093833369, 30.71349158876592], [111.27934518673106, 30.71349296562795], [111.27937165467819, 30.71352398324541], [111.27939372673916, 30.713555902882604], [111.27941137863223, 30.713571582562565], [111.2794116664154, 30.713583282742434], [111.27941387874756, 30.71367403602801], [111.27941706414634, 30.71380458881083], [111.27942522639324, 30.714106427369757], [111.27942633975385, 30.714147374401875], [111.27942950716613, 30.714149974342035], [111.27952072809916, 30.714144352679796], [111.27954400794971, 30.71414220060217], [111.2795443460949, 30.714144919252703], [111.2795547188752, 30.714144136842492], [111.27978432298818, 30.714126869859285], [111.27978741485737, 30.714154168780055], [111.27979857994058, 30.7141568226794], [111.27996604809476, 30.71414067625136], [111.2800006881813, 30.714137336169188], [111.28001825104144, 30.714135641846497], [111.28002190588643, 30.714135290211516], [111.28002530172648, 30.71420943122041], [111.28003219413063, 30.714359894094002], [111.28007296399619, 30.714607163589903], [111.28007346311995, 30.714610198801665], [111.28007394965323, 30.714613112605036], [111.28005301703314, 30.71461573143091], [111.27964466726758, 30.71466680482922], [111.27957227633948, 30.714675860102943], [111.27957038956202, 30.714664608684814], [111.27936195998655, 30.714673852816134], [111.27936315968219, 30.714707592681293], [111.27930096167012, 30.71470924383658], [111.27924690342189, 30.71471067465808], [111.27923091437538, 30.71471109913807], [111.27923084782543, 30.71469696089622], [111.27923478595665, 30.71469694920495], [111.27923464566248, 30.714667097108872], [111.27923328498827, 30.7145185578853], [111.27923025697095, 30.714240337321883], [111.27916186802594, 30.714241787028925], [111.27915108785254, 30.714243930113355], [111.27909690369921, 30.71425350969173], [111.27902796886576, 30.7142735070168], [111.27902368629412, 30.71425458168369], [111.27900383286072, 30.71425773830407], [111.27896767921516, 30.714265600177498], [111.27884273370518, 30.714284342948247], [111.27882859186622, 30.71426532678339], [111.27855278418372, 30.71429457723292], [111.2784020461176, 30.71431056178318], [111.27839866736468, 30.714293607763977], [111.27827999822352, 30.71430891512432], [111.27827904224404, 30.71430391219576], [111.27811623437674, 30.71435519693489], [111.2775537992685, 30.714530144750427], [111.27754736371986, 30.714539823254313], [111.27753123707708, 30.714545638270693], [111.27760238873924, 30.714709301393214], [111.27760523329493, 30.71473868494246], [111.27761566812876, 30.714846457897863], [111.2776199650894, 30.714890855628653], [111.27770078896037, 30.715068220821763], [111.27772078808397, 30.715112107737752], [111.27772892335122, 30.71510955815961], [111.27790356809538, 30.71544652873439], [111.27792481457851, 30.715487172694964], [111.27792701342105, 30.715491377025558], [111.27755603768117, 30.71563293571154], [111.27756783139046, 30.715656322581253], [111.27758258386933, 30.715685583822676], [111.2775996179281, 30.715719887562784], [111.27761144221438, 30.715743700711243], [111.27761824918286, 30.715762223148147], [111.27763802077811, 30.715798206821944], [111.27764555619751, 30.715833576258603], [111.27766631165105, 30.715896059355657], [111.27768228990584, 30.715894130309948], [111.2776980649138, 30.715945421344145], [111.27767736791628, 30.715950885624864], [111.27769743628778, 30.7160138390675], [111.27770302017825, 30.71602861313005], [111.27774561836566, 30.71614132606146], [111.2778025220689, 30.71625565777248], [111.27780860778108, 30.71626788495496], [111.27782327122702, 30.71626255916982], [111.27782431713865, 30.716264624013206], [111.2779020032749, 30.716235235068098], [111.27789349209098, 30.716214964349092], [111.2781211176956, 30.716126429691087], [111.27832238686881, 30.716043802679394], [111.27836352095977, 30.716151664667677], [111.27840149843058, 30.716262208434216], [111.27844276562132, 30.71637896741555], [111.27847710803218, 30.7164787651829], [111.27851210065307, 30.716577147417524], [111.27853541287914, 30.716638854399662], [111.27856983892713, 30.716650719155552], [111.27870257796167, 30.716623957130082], [111.2787052129753, 30.716623330302582], [111.27871183918012, 30.71662209013749], [111.27888855416353, 30.716577290409816]]]}}, {"type": "Feature", "properties": {"SQMC": "润城社区", "SSJD": "东城试验区", "类型": "城市社区", "来源": 2026, "社区": "润城社区", "排名": 8, "诉求总量": 1, "民生基础件": 1, "安全韧性件": 0, "每周约件数": 0}, "geometry": {"type": "Polygon", "coordinates": [[[111.34411486860637, 30.761106163019065], [111.34386439302739, 30.759626542630883], [111.34375122863634, 30.759403487381064], [111.34334732601832, 30.758607361640486], [111.34311032767954, 30.758140219595532], [111.34279392100274, 30.757516555944335], [111.34216893714677, 30.756284608847693], [111.34190592142119, 30.755766162278633], [111.34182621270963, 30.755554852174726], [111.34175082344183, 30.755354991339857], [111.34172852565098, 30.755295880700373], [111.34149447708853, 30.75467540604518], [111.34122028278989, 30.753321767185867], [111.34121436165356, 30.753197124747544], [111.34121389310673, 30.753187245694903], [111.34121147303114, 30.753136308993533], [111.34118080255206, 30.7524906218448], [111.34118045271578, 30.752483245605333], [111.3411726915665, 30.75231983519228], [111.34122349067161, 30.751987209242373], [111.34138377504127, 30.75093768692477], [111.34034803663263, 30.7508580249779], [111.33943102132463, 30.750787494747158], [111.33897770905406, 30.750787494747158], [111.33894557627741, 30.750787494747158], [111.3386687559584, 30.750787494747158], [111.33741799684316, 30.750921696978764], [111.33684230033197, 30.751062558690194], [111.33640880102541, 30.751168628329594], [111.33641077413796, 30.751272637622208], [111.33643199274235, 30.751258824035574], [111.33652310036086, 30.75203488590131], [111.33666987331605, 30.752922298225542], [111.33668015166774, 30.752934870747765], [111.33669210905367, 30.75301807422477], [111.33676390283193, 30.753517635930223], [111.33677972730266, 30.753627742626293], [111.33683922734855, 30.754041766214584], [111.33686360527122, 30.754211393640958], [111.33693347809759, 30.754697596816698], [111.33696374028443, 30.754908166778534], [111.33716136630409, 30.756283315622568], [111.33719099806615, 30.756489507684705], [111.33742087197572, 30.758089043674488], [111.33748633182881, 30.758064401351078], [111.33776464142511, 30.759672741703696], [111.33853616531184, 30.76001553988533], [111.33854407394989, 30.759994456179243], [111.33855240976595, 30.75997222943488], [111.33859144663802, 30.759986645567267], [111.33894799995028, 30.760118328797887], [111.33932568373336, 30.76025781364723], [111.3400723476608, 30.76053356197434], [111.34092657410218, 30.760849034255557], [111.34094885570516, 30.76082027933245], [111.34149875156618, 30.76095422076071], [111.34196360483656, 30.761067446305674], [111.34228208804797, 30.761145019127355], [111.34398970276266, 30.76118549941134], [111.34410770100965, 30.761188296302862], [111.34411486860637, 30.761106163019065]]]}}, {"type": "Feature", "properties": {"SQMC": "甲街社区", "SSJD": "西坝街办", "类型": "城市社区", "来源": 2025, "社区": "甲街社区", "排名": 9, "诉求总量": 1, "民生基础件": 1, "安全韧性件": 0, "每周约件数": 0}, "geometry": {"type": "Polygon", "coordinates": [[[111.27014162023971, 30.728056656089905], [111.27037201395734, 30.7279764869254], [111.27039421911809, 30.72801319275476], [111.27057906667079, 30.7279259378318], [111.27059017419725, 30.72794596123731], [111.2708605166996, 30.727806024028837], [111.27086884082445, 30.727818895126063], [111.27146379811586, 30.727565504844335], [111.27140822900674, 30.727490594915082], [111.27139207628335, 30.727469744133543], [111.2712122217668, 30.727229056775627], [111.27151960824341, 30.72705075538812], [111.27162507623632, 30.726989577207405], [111.27166579663924, 30.726965957413086], [111.27176245307476, 30.72707039208501], [111.27211437487864, 30.72755810881978], [111.27211441534814, 30.727558163678452], [111.27221148906915, 30.727683095698353], [111.27335524055201, 30.72719545090945], [111.2734093923296, 30.727172362614624], [111.27341591691123, 30.727169581011424], [111.27366782241211, 30.72706218037547], [111.27357812942716, 30.726894221191515], [111.27363244398214, 30.72687112120542], [111.27444687002713, 30.726524750916667], [111.2746036092692, 30.726458091367874], [111.27572008611315, 30.725983260119392], [111.27572930776148, 30.72600269177093], [111.27588602721846, 30.72591886596308], [111.2758832743936, 30.725913856739112], [111.27587899991596, 30.725906080301513], [111.2758593146558, 30.72587026030442], [111.27563128705435, 30.725455351783182], [111.27562026766134, 30.72543530319672], [111.27558389637989, 30.725369122087443], [111.27556550164667, 30.72533679505716], [111.27545453429934, 30.72514177167551], [111.27546276489477, 30.72513805837474], [111.27523892723468, 30.724786265174146], [111.27512594001013, 30.724608688640217], [111.27512900759774, 30.724582012949725], [111.27493688093244, 30.724262664590412], [111.2749334626094, 30.72425698537171], [111.2740952396037, 30.724625749678637], [111.27385068516105, 30.72473273123063], [111.27384370912, 30.724735782630262], [111.27355739016156, 30.724861032111107], [111.27279591709794, 30.72519413200365], [111.27266513139068, 30.725250110304444], [111.2724969590675, 30.725322090242344], [111.27249659034538, 30.72532594563603], [111.27247375206213, 30.72533444782664], [111.27236516072372, 30.7251862071779], [111.27237693284923, 30.725182008243166], [111.27228751325822, 30.724894772875587], [111.27220900064492, 30.72464257779285], [111.27220414340655, 30.724644466369057], [111.27212302096075, 30.72435566797975], [111.2720985998705, 30.724357533173645], [111.27186837432612, 30.72379382912203], [111.27186146303626, 30.72377690657902], [111.27177259383024, 30.723559313811393], [111.27169648510483, 30.723417368416904], [111.27169991691773, 30.723400808300823], [111.27157541927033, 30.723132060296507], [111.27148398609711, 30.722934688785017], [111.27141948042487, 30.72281935522915], [111.27141804870416, 30.72281679575866], [111.2713608383321, 30.722714504171165], [111.27113835235309, 30.7223167052519], [111.27108988339148, 30.722239892357322], [111.27082504114287, 30.721820186852312], [111.27078083406843, 30.721710603561633], [111.27056209466514, 30.721168378018376], [111.27044660192922, 30.72079762531024], [111.27027233579969, 30.720238193038313], [111.27023132131848, 30.72010652059953], [111.27021027538404, 30.719976800588938], [111.27017904013076, 30.719784280919953], [111.27017241122797, 30.71974341932338], [111.2700688578916, 30.71876713599471], [111.26993978179564, 30.717902453135878], [111.26969227397944, 30.717936603991177], [111.26967164083356, 30.717873977901945], [111.26961077471753, 30.717427102978604], [111.26957013525362, 30.71724571511777], [111.26963104813444, 30.7171997408754], [111.26990054797199, 30.717189414859774], [111.2708019807269, 30.717154876396478], [111.27133548824224, 30.717134433907006], [111.2714747887307, 30.717122624909337], [111.27165757233922, 30.717074849324945], [111.27263415694085, 30.71674579728085], [111.27264566736386, 30.71674191940417], [111.2730678846753, 30.71659965744834], [111.27306256698392, 30.716582657563663], [111.273061525569, 30.716577886660332], [111.27301173460404, 30.716349841971805], [111.27294622169092, 30.71618012011652], [111.27285994523044, 30.716045327030315], [111.27200163586696, 30.714704356920606], [111.27115653844362, 30.71340183912372], [111.27082971312086, 30.712901234204764], [111.27068172698023, 30.712674560082974], [111.27065635530658, 30.712635695880635], [111.27063752080494, 30.712606848327482], [111.27061556835389, 30.712573223575475], [111.2705853331467, 30.712526912986675], [111.27017361721886, 30.71175011097887], [111.27007537437919, 30.71148349886448], [111.27002048785522, 30.711334547751335], [111.26988185196598, 30.71095831187671], [111.26982312263914, 30.710798609368396], [111.26942997681215, 30.709729524098293], [111.26925446692019, 30.709252245794687], [111.26904822629473, 30.70869139439236], [111.26873167482705, 30.707830557034697], [111.26855918665717, 30.707316688914204], [111.26847302530996, 30.70728704725957], [111.26830049037551, 30.707464701135166], [111.26821801804715, 30.70755060707495], [111.26803759875628, 30.707950819774567], [111.2675580226848, 30.708774094249122], [111.26731799542932, 30.709378210236252], [111.26722025800848, 30.7096241981983], [111.26721772641702, 30.70963057169365], [111.2671575392892, 30.709782045405063], [111.26678600776808, 30.71157602831113], [111.26673230115489, 30.711835360413602], [111.26672676402893, 30.71183059760409], [111.26663583357697, 30.71213247303524], [111.26663565371251, 30.712133066587796], [111.26652525203889, 30.712499553811483], [111.26639295367198, 30.71293873233668], [111.26629263699579, 30.713271761182966], [111.26629155061465, 30.713275360269847], [111.26680842067219, 30.714655521934958], [111.26680848632276, 30.714657900641612], [111.26684303018175, 30.71594120802041], [111.26682335661263, 30.71595345408872], [111.26625772981055, 30.716305533273896], [111.26607091903782, 30.716421815614467], [111.26610341514055, 30.716875791584698], [111.26610417326901, 30.716886357719318], [111.26621830263275, 30.7184807918552], [111.26621868394517, 30.718489755397968], [111.26631758328989, 30.720816885191198], [111.26632284882044, 30.72085894018801], [111.26650410538025, 30.72180298012347], [111.26650444622334, 30.721804766177115], [111.26664907879206, 30.72255807789304], [111.26685113667071, 30.723581628689317], [111.26708611513214, 30.724771903900375], [111.26719822731638, 30.725388158037163], [111.26720314121218, 30.725392608781988], [111.26763352886445, 30.72578256831099], [111.26810704980068, 30.726211601584282], [111.26862676441368, 30.7266824839096], [111.26889419131408, 30.726924778355965], [111.26955636573388, 30.72752472058943], [111.27008737583185, 30.72800581831393], [111.27013554441987, 30.728049457916256], [111.27014162023971, 30.728056656089905]]]}}, {"type": "Feature", "properties": {"SQMC": "长江新村社区", "SSJD": "古老背街办", "类型": "城市社区", "来源": 2026, "社区": "长江新村社区", "排名": 10, "诉求总量": 1, "民生基础件": 0, "安全韧性件": 1, "每周约件数": 0}, "geometry": {"type": "Polygon", "coordinates": [[[111.42638486377052, 30.563617762150045], [111.43350139966992, 30.556603010620506], [111.43530387397465, 30.55482631718087], [111.43629855833188, 30.55384586009842], [111.43624152332768, 30.553809100309763], [111.43628304862386, 30.55375793967721], [111.44055305487962, 30.55671468663354], [111.44082030461345, 30.5564914146471], [111.44256013574176, 30.555395965751245], [111.44294978770262, 30.555305046990384], [111.44284914277375, 30.55512896602903], [111.44286462730076, 30.554895028083138], [111.4429186747571, 30.554651410734095], [111.44292323611853, 30.554441374969542], [111.44279519694084, 30.554179284646295], [111.44259009036045, 30.553949435917787], [111.4422920757188, 30.55390748973889], [111.44189498456592, 30.553908836923313], [111.44147033998428, 30.553915050339356], [111.44111142325363, 30.55382080138895], [111.44071433210081, 30.55382214497604], [111.44018472674378, 30.55379052211498], [111.43994719510704, 30.553706839299252], [111.43992431725349, 30.553525535075437], [111.43986477404013, 30.553253197876813], [111.43994470038768, 30.55323199096364], [111.4399517573678, 30.553227987181913], [111.4398688668548, 30.552539559752915], [111.4397445967358, 30.55207602758668], [111.43914471565614, 30.552012683838313], [111.43845545635429, 30.551950414779867], [111.43830837133436, 30.551781051754176], [111.43843532413098, 30.551488189328552], [111.43839069887173, 30.551258008750153], [111.43839747166606, 30.55124403958081], [111.43833491212655, 30.55082230070866], [111.43783706542831, 30.550489850126553], [111.43741724391072, 30.550338517608566], [111.43717338824132, 30.550072036795086], [111.43678580472118, 30.549729666690837], [111.43579388577928, 30.54990482314912], [111.43523140570488, 30.549916248136412], [111.43470732488322, 30.549881722263706], [111.43419985274107, 30.548621379972758], [111.43386913065592, 30.548660667755655], [111.43333919614707, 30.548547873885298], [111.4330349132307, 30.548331228103734], [111.4329230501587, 30.54797838269627], [111.43278453567785, 30.54783373843634], [111.43248686277855, 30.54786336480248], [111.43218322017952, 30.547790388415763], [111.4319059591927, 30.547447636099605], [111.43175117237877, 30.54714323986866], [111.43232055834716, 30.545878382081696], [111.43240401543301, 30.545559494175393], [111.43248693112702, 30.54524267291106], [111.43252105500272, 30.545112284704203], [111.43251854409561, 30.545104117960705], [111.43254855357293, 30.545032584086528], [111.43264570283696, 30.544801014954942], [111.4327663073193, 30.544638323999493], [111.43282081792648, 30.544494947783676], [111.43297048490001, 30.544218730010414], [111.43301773528032, 30.544131529946185], [111.43308889593584, 30.544011963281548], [111.43316297938804, 30.543878411259698], [111.43317640896419, 30.543854199711575], [111.43317643234656, 30.54385415834281], [111.43380838325032, 30.54335086984679], [111.4341930871413, 30.54305365110514], [111.43419728607597, 30.543052119559718], [111.43420592226556, 30.543048971932535], [111.43437749312687, 30.54288998618398], [111.4344475979783, 30.54282502365595], [111.43432532795157, 30.542700615041383], [111.43432104268203, 30.542685687194762], [111.43344250037114, 30.54162968975845], [111.43331895690437, 30.54148119280285], [111.4328849467829, 30.540959507775142], [111.43265780231576, 30.54068647360191], [111.43213742130501, 30.540229972335396], [111.43178049657274, 30.540015328444724], [111.43175851084663, 30.540054475034026], [111.43174304790341, 30.54004517604409], [111.43145639259848, 30.540555579976115], [111.43087865732423, 30.541385795418194], [111.43086422410471, 30.54140653468386], [111.42994130204949, 30.542485317343562], [111.4299459479472, 30.542489608908397], [111.42889455414041, 30.543583849115407], [111.42815760468977, 30.544208641415707], [111.42765567057279, 30.544631331770574], [111.42765734511045, 30.54463276079332], [111.42763752225392, 30.544649564625786], [111.42750851180841, 30.54474002743035], [111.42645321224603, 30.545479984213955], [111.426278455986, 30.545602516842735], [111.42410243567895, 30.54324772480271], [111.423564883013, 30.542655604872323], [111.42213152824752, 30.541150556153298], [111.42092822635664, 30.54020443338794], [111.42092763999864, 30.540203974733686], [111.42092760942171, 30.540203949552676], [111.42092754107324, 30.54020407815574], [111.42062185341587, 30.54004506362884], [111.41912223300471, 30.53926497369963], [111.41811586465548, 30.538900860686226], [111.41494965210484, 30.53775522962019], [111.41489555878309, 30.53773587710907], [111.41485415939201, 30.53772106527498], [111.41349565340175, 30.53723501768195], [111.413411573985, 30.53720493535951], [111.41270255028252, 30.536951252798133], [111.4120721030452, 30.536727541043263], [111.41173525208029, 30.536608008552776], [111.4108358023305, 30.536649232576053], [111.41031034914334, 30.5364219190364], [111.4095786697199, 30.536183857698916], [111.40958178407215, 30.536357871118923], [111.4094168457109, 30.538291766951545], [111.40928183678739, 30.539192419994265], [111.40910789081659, 30.540024148995315], [111.40766763195569, 30.54360917042692], [111.40540067939787, 30.54825055262097], [111.40139222297279, 30.55792334398717], [111.4007625455551, 30.55863029924899], [111.40027786043498, 30.559446989786807], [111.40030721880316, 30.55949202963353], [111.40059715663352, 30.559600930338718], [111.40202270708232, 30.560136360604588], [111.40244959637181, 30.560176569293276], [111.4025611599696, 30.560217751048413], [111.40292749430847, 30.560533995847265], [111.4030794401641, 30.560659249824596], [111.40319234465102, 30.56075232066314], [111.40340191007016, 30.560877713135994], [111.4038671860219, 30.561082420417392], [111.40443600811534, 30.561256236885868], [111.40453983394622, 30.561287963169036], [111.40456677673541, 30.561293260175887], [111.40469977837216, 30.561319406165694], [111.40566919537713, 30.5615099734066], [111.40571800068523, 30.561523884119993], [111.40578140288949, 30.56153369482422], [111.4058209766568, 30.56155290794038], [111.4058997078053, 30.561599535090522], [111.40593115080202, 30.56161759977249], [111.40596073669872, 30.561622780766754], [111.4060318146166, 30.56162001894876], [111.40610648802408, 30.561620459616563], [111.40910533134604, 30.561638105214456], [111.4095534428372, 30.56222081733688], [111.41177862278528, 30.56511425831644], [111.41182605482862, 30.56517593382233], [111.41238179268566, 30.56528572215842], [111.41379465190175, 30.565472169605016], [111.41818672313883, 30.565801816100986], [111.42017127508433, 30.56552813171794], [111.42189105672696, 30.565255275610525], [111.42400663809593, 30.564675624780307], [111.42530619802267, 30.56417497669389], [111.42638486377052, 30.563617762150045]]]}}]}